,COD_PROVINCIA,NOM_PROVINCIA,COD_MUNICIPIO,TIPO,NOMBRE,DIRECCION,COD_POSTAL,TELEFONO,FAX,WEB,CATALOGO,EMAIL,CENTRAL,COD_CARACTER,DESC_CARACTER,DECRETO,LATITUDE,LONGITUDE
0,3,ALICANTE,10,AGENCIA DE LECTURA,AGENCIA DE LECTURA  ALFAFARA,CALLE SERRA DE MARIOLA Nº 1 PISO 1,", CP 03838", TELF.965510082 AYTO, FAX.965510271 AYTO, , ,ALFAFARA@ALFAFARA.ES,N,PU,PÚBLICA,N,38.7725497,-0.5550567
1,3,ALICANTE,101,BIBLIOTECA PUBLICA MUNICIPAL,BIBLIOTECA PUBLICA MUNICIPAL  PEDREGUER,CALLE GLORIETA DE LA CREU Nº 14 PISO 1,", CP 03750", TELF.966456200, FAX.966456776,HTTP://XLPV.CULT.GVA.ES/CGINET-BIN/ABNETOP?SUBC=0100,HTTP://XLPV.CULT.GVA.ES/CGINET-BIN/ABNETOP?SUBC=0100,BIBLIOTECA@PEDREGUER.ES,N,PU,PÚBLICA,N,38.7953278,0.0332729
2,3,ALICANTE,102,BIBLIOTECA PUBLICA MUNICIPAL,BIBLIOTECA PUBLICA MUNICIPAL  PEGO,CALLE SANT DOMENEC Nº 5,", CP 03780", TELF.965572801, FAX.965572583 AYTO,HTTP://XLPV.CULT.GVA.ES/CGINET-BIN/ABNETOP?SUBC=0113,HTTP://XLPV.CULT.GVA.ES/CGINET-BIN/ABNETOP?SUBC=0113,BIBLIOTECA@PEGO.ORG,N,PU,PÚBLICA,N,39.2011866,-0.3099469
3,3,ALICANTE,104,BIBLIOTECA PUBLICA MUNICIPAL,BIBLIOTECA PUBLICA MUNICIPAL POETA ENRIQUE AMAT PETRER,PLAZA FRANCISCO LOPEZ PINA Nº 4,", CP 03610", TELF.966955746, FAX.965376968 AYTO,HTTP://WWW.PETRER.ES,HTTP://XLPV.CULT.GVA.ES/CGINET-BIN/ABNETOP?SUBC=0038,BIBLIOEA@PETRER.ES,N,PU,PÚBLICA,S,39.4840108,-0.7532808999999999
4,3,ALICANTE,104,BIBLIOTECA PUBLICA MUNICIPAL,BIBLIOTECA PUBLICA MUNICIPAL POETA PACO MOLLA PETRER,CALLE SAN BARTOLOME Nº 5,", CP 03610", TELF.966989415, FAX.965376968 AYTO,HTTP://WWW.PETRER.ES,HTTP://XLPV.CULT.GVA.ES/CGINET-BIN/ABNETOP?SUBC=0038,BIBLIOPM@PETRER.ES,S,PU,PÚBLICA,S,38.4197908,-0.3927523
5,3,ALICANTE,105,BIBLIOTECA PUBLICA MUNICIPAL,BIBLIOTECA PUBLICA MUNICIPAL MAXI BANEGAS PINÓS (EL),PASEO CONSTITUCION Nº 66,", CP 03650", TELF.965478329, FAX.965478208,HTTP://XLPV.CULT.GVA.ES/CGINET-BIN/ABNETOP?SUBC=0051,HTTP://XLPV.CULT.GVA.ES/CGINET-BIN/ABNETOP?SUBC=0051,BIBLIOPINOSO@HOTMAIL.COM,N,PU,PÚBLICA,S,41.6479179,-0.8821348999999999
6,3,ALICANTE,106,OTRAS PÚBLICAS,OTRAS PÚBLICAS CURIAL I GÜELFA PLANES,CALLE JAUME I Nº 3,", CP 03828", TELF.965514038 AYTO, FAX.965514208, , ,PLANES@DIP-ALICANTE.ES,N,PU,PÚBLICA,N,39.4520821,-0.4676389
7,3,ALICANTE,107,AGENCIA DE LECTURA,AGENCIA DE LECTURA  POLOP,CALLE POSIT Nº 20,", CP 03520", TELF.966895540, FAX.966895441 AYTO,HTTP://XLPV.CULT.GVA.ES/CGINET-BIN/ABNETOP?SUBC=0140,HTTP://XLPV.CULT.GVA.ES/CGINET-BIN/ABNETOP?SUBC=0140,POLOP_BIB@GVA.ES,N,PU,PÚBLICA,N,38.6216341,-0.1270333
8,3,ALICANTE,109,OTRAS PÚBLICAS,OTRAS PÚBLICAS  RAFAL,CALLE DIPUTACIÓN PROVINCIAL DE ALICANTE Nº 5,", CP 03369", TELF.966752362, FAX.966752572 AYTO, , ,MSQB28@HOTMAIL.COM  / RAFAL@DIP-ALICANTE.ES,N,PU,PÚBLICA,N,38.1839924,-0.8700401
9,3,ALICANTE,11,BIBLIOTECA PUBLICA MUNICIPAL,BIBLIOTECA PUBLICA MUNICIPAL VICENT ANDRES ESTELLES ALFÀS DEL PI (L'),PLAZA JUAN CARLOS I Nº S/N,", CP 03580", TELF.965889423/24, FAX.965889453,HTTP://XLPV.CULT.GVA.ES/CGINET-BIN/ABNETOP?SUBC=0014,HTTP://XLPV.CULT.GVA.ES/CGINET-BIN/ABNETOP?SUBC=0014,BIBALFAS@TELEFONICA.NET,N,PU,PÚBLICA,N,39.4840108,-0.7532808999999999
10,3,ALICANTE,110,AGENCIA DE LECTURA,AGENCIA DE LECTURA  RÀFOL D'ALMÚNIA (EL),CALLE SEGARIA Nº 12 PISO 1,", CP 03769", TELF.966668426, , , ,BIBLIOTECA@RAFOL.ORG,N,PU,PÚBLICA,N,38.8444994,0.008289699999999999
11,3,ALICANTE,111,BIBLIOTECA PUBLICA MUNICIPAL,BIBLIOTECA PUBLICA MUNICIPAL  REDOVÁN,CALLE SAN JERÓNIMO Nº 1 PISO 2,", CP 03370", TELF.966754263, FAX.966754213 AYTO, , ,BIBLIOTECAREDOVAN@HOTMAIL.COM,N,PU,PÚBLICA,N,39.43650239999999,-0.4693519
12,3,ALICANTE,113,BIBLIOTECA PUBLICA MUNICIPAL,BIBLIOTECA PUBLICA MUNICIPAL MIGUEL ORTEGA ROJALES,CALLE ZULAIDA Nº 20,", CP 03170", TELF.966712038, , , , ,N,PU,PÚBLICA,N,38.0869097,-0.7211924
13,3,ALICANTE,114,AGENCIA DE LECTURA,AGENCIA DE LECTURA GÓMEZ NAVARRO ROMANA (LA),CALLE CERVANTES Nº 8,", CP 03669", TELF.965696738/965696467, , , , ,N,PU,PÚBLICA,N,38.3448252,-0.4809634
14,3,ALICANTE,116,AGENCIA DE LECTURA,AGENCIA DE LECTURA  SALINAS,CALLE COMPARSA DE MOROS LAGUNEROS Nº S/N,", CP 03638", TELF.965479001 AYTO, FAX.966973001 AYTO,HTTP://WWW.SALINAS.ES/SERVICIOS-AL-CIUDADANO/BIBLIOTECA-MUNICIPAL, ,BIBLIOTECA@SALINAS.ES,N,PU,PÚBLICA,N,39.4840108,-0.7532808999999999
15,3,ALICANTE,117,OTRAS PÚBLICAS,OTRAS PÚBLICAS  SANET Y NEGRALS,CALLE MAYOR Nº S/N,", CP 03769", TELF.966408208 AYTO, FAX.966408147 AYTO, , , ,N,PU,PÚBLICA,N,39.4740331,-0.4146675
16,3,ALICANTE,118,OTRAS PÚBLICAS,OTRAS PÚBLICAS  SAN FULGENCIO,CALLE LEPANTO Nº 9,", CP 03177", TELF.966794518, FAX.966794430 AYTO,HTTP://WWW.BIBLIOTECASPUBLICAS.ES/SANFULGENCIO/, ,CENTROCIVICO@AYTO-SANFULGENCIO.ES,N,PU,PÚBLICA,N,38.5390461,-0.1198303
17,3,ALICANTE,119,BIBLIOTECA UNIVERSITARIA,BIBLIOTECA UNIVERSITARIA CIENCIAS DE LA SALUD-UNIVERSIDAD MIGUEL HERNÁNDEZ SANT JOAN D'ALACANT,"CARRETERA DE VALENCIA KM,87 C. SANT JOAN D'ALACANT",", CP 03550", TELF.965919328, FAX.965919502,HTTP://WWW.UMH.ES/BIBLIOTECAS/,HTTP://WWW.UMH.ES/BIBLIOTECAS/CATALOGO/,BIBLIO.CCSALUD@UMH.ES,N,PU,PÚBLICA,N,38.4007388,-0.4287509
18,3,ALICANTE,119,BIBLIOTECA PUBLICA MUNICIPAL,BIBLIOTECA PUBLICA MUNICIPAL  SANT JOAN D'ALACANT,AVENIDA RAMBLA DE LA LLIBERTAT Nº 22,", CP 03550", TELF.966389740, FAX.965650360,HTTP://WWW.BIBLIOTECASPUBLICAS.ES/SANTJOANDALACANT,HTTP://WWW.BIBLIOTECASPUBLICAS.ES/SANTJOANDALACANT/CATALOGO_ENLINEA.JSP,BIBLIOTECA@SANTJOANDALACANT.ES,N,PU,PÚBLICA,S,41.9837022,2.8239713
19,3,ALICANTE,12,AGENCIA DE LECTURA,AGENCIA DE LECTURA  ALGORFA,CALLE CONSTITUCION Nº 35,", CP 03169", TELF.966781637, FAX.966780010 AYTO,HTTP://WWW.BIBLIOTECASPUBLICAS.ES/ALGORFA/INDEX.JSP,HTTP://XLPV.CULT.GVA.ES/CGINET-BIN/ABNETOP?SUBC=0156,BIBLIO-ALGORFA@HOTMAIL.ES,N,PU,PÚBLICA,S,38.9477665,-0.1946812
20,3,ALICANTE,120,BIBLIOTECA PUBLICA MUNICIPAL,BIBLIOTECA PUBLICA MUNICIPAL  SAN MIGUEL DE SALINAS,CALLE VICENTE BLASCO IBA?EZ Nº 1,", CP 03193", TELF.965720396, FAX.965720007 AYTO,HTTP://BIBLIOSANMIGUEL.EDUBLOGS.ORG,HTTP://XLPV.CULT.GVA.ES/CGINET-BIN/ABNETOP?SUBC=0127,BIBLIOTECASMS@GMAIL.COM ,N,PU,PÚBLICA,S,37.9076577,-0.7447235
21,3,ALICANTE,121,BIBLIOTECA PUBLICA MUNICIPAL,BIBLIOTECA PUBLICA MUNICIPAL INTERNACIONAL DE GRAN ALACANT SANTA POLA,AVENIDA ESCANDINAVIA Nº 31,", CP 03130", TELF.966697110, FAX.965413792,HTTP://WWW.BIBLIOTEQUES.WORDPRESS.COM ,HTTP://XLPV.CULT.GVA.ES/CGINET-BIN/ABNETOP?SUBC=0023,SANTAPOLA.BIGA1@GMAIL.COM,N,PU,PÚBLICA,N,38.2162962,-0.5168039
22,3,ALICANTE,121,BIBLIOTECA INFANTIL,BIBLIOTECA INFANTIL  SANTA POLA,CALLE CASTA?OS Nº 10-12,", CP 03130", TELF.966694008, FAX.966693736,HTTP://WWW.BIBLIOTEQUES.WORDPRESS.COM,HTTP://XLPV.CULT.GVA.ES/CGINET-BIN/ABNETOP?SUBC=0023,BIBLIOINF.SANTAPOLA@CV.GVA.ES/BIBLIOTECA.INFANTILSANTAPOLA@GMAIL.COM,N,PU,PÚBLICA,N,38.3444317,-0.484906
23,3,ALICANTE,121,BIBLIOTECA PUBLICA MUNICIPAL,BIBLIOTECA PUBLICA MUNICIPAL  SANTA POLA,CALLE ELX Nº 26,", CP 03130", TELF.966692773, FAX.966792776,HTTP://WWW.BIBLIOTEQUES.WORDPRESS.COM,HTTP://XLPV.CULT.GVA.ES/CGINET-BIN/ABNETOP?SUBC=0023,BIBLIOTECA.SANTAPOLA@GMAIL.COM,S,PU,PÚBLICA,N,38.4270595,-0.3990586
24,3,ALICANTE,122,BIBLIOTECA INFANTIL,BIBLIOTECA INFANTIL I JUVENIL MIGUEL HERNANDEZ SANT VICENT DEL RASPEIG,PLAZA DE LA COMUNITAT VALENCIANA Nº 2 ESC. BA,", CP 03690", TELF.966143649, ,HTTP://BIBLIOTECA.RASPEIG.ES,HTTP://XLPV.CULT.GVA.ES/CGINET-BIN/ABNETOP?SUBC=0114,BIBLIOTECAINFANTIL@RASPEIG.ORG,N,PU,PÚBLICA,N,38.5085371,-0.2338506
25,3,ALICANTE,122,BIBLIOTECA PUBLICA MUNICIPAL,BIBLIOTECA PUBLICA MUNICIPAL MIGUEL DELIBES SANT VICENT DEL RASPEIG,PLAZA HUERTO DE LOS LEONES Nº 1,", CP 03690", TELF.965667422, ,HTTP://BIBLIOTECA.RASPEIG.ES,HTTP://XLPV.CULT.GVA.ES/CGINET-BIN/ABNETOP?SUBC=0114,BIBLIOTECA@RASPEIG.ORG,S,PU,PÚBLICA,S,38.39599870000001,-0.5190232
26,3,ALICANTE,123,BIBLIOTECA PUBLICA MUNICIPAL,BIBLIOTECA PUBLICA MUNICIPAL JOSE AZUAR SAX,CALLE GRAN VIA Nº 48,", CP 03630", TELF.965475748, FAX.965475399 AYTO,HTTP://XLPV.CULT.GVA.ES/CGINET-BIN/ABNETOP?SUBC=0102,HTTP://XLPV.CULT.GVA.ES/CGINET-BIN/ABNETOP?SUBC=0102,BIBLIOTECA@SAX.ES,N,PU,PÚBLICA,N,39.1867339,-0.4802809
27,3,ALICANTE,124,OTRAS PÚBLICAS,OTRAS PÚBLICAS  SELLA,AVENIDA DE ALCOY Nº 13,", CP 03579", TELF.965879001 AYTO, FAX.965879556 AYTO, , ,BIBLIOTECADESELLA@GMAIL.COM,N,PU,PÚBLICA,N,38.3530003,-0.4862705999999999
28,3,ALICANTE,125,AGENCIA DE LECTURA,AGENCIA DE LECTURA GUILLERMO ZEILBECK SENIJA,AVENIDA CONSTITUCION Nº S/N,", CP 03729", TELF.626831453, FAX.965732273 AYTO,HTTP://WWW.BIBLIOTECASPUBLICAS.ES/SENIJA,HTTP://XLPV.CULT.GVA.ES/CGINET-BIN/ABNETOP?SUBC=0142,AGENCIA_SENITJA@HOTMAIL.COM,N,PU,PÚBLICA,N,39.4862044,-1.0933935
29,3,ALICANTE,128,BIBLIOTECA PUBLICA MUNICIPAL,BIBLIOTECA PUBLICA MUNICIPAL  TEULADA,AVENIDA DE SANTA CATERINA Nº 2,", CP 03725", TELF.965740158 EXT-1803, FAX.965740166,HTTP://WWW.TEULADAMORAIRA.ORG/INDEX.PHP?OPTION=COM_CONTENT&VIEW=ARTICLE&ID=100&ITEMID=508&LANG=ES,HTTP://XLPV.CULT.GVA.ES/CGINET-BIN/ABNETOP?SUBC=0088,BIBLIOTECA@TEULADAMORAIRA.ORG / AIVARSB@TEULADAMORAIRA.ORG,S,PU,PÚBLICA,N,38.7285384,0.1048639
30,3,ALICANTE,128,AGENCIA DE LECTURA,"AGENCIA DE LECTURA MORAIRA-ESPAI ""LA SENIETA"" TEULADA",AVENIDA MADRID Nº 15 PISO 1?,", CP 03724", TELF.966490976 EXT.2, FAX.965741287,HTTP://WWW.TEULADAMORAIRA.ORG/INDEX.PHP?OPTION=COM_CONTENT&VIEW=ARTICLE&ID=100&ITEMID=508&LANG=ES.,HTTP://XLPV.CULT.GVA.ES/CGINET-BIN/ABNETOP?SUBC=0088,BIBLIOTECA@TEULADAMORAIRA.ORG / MVIVESS@TEULADAMORAIRA.ORG,N,PU,PÚBLICA,N,39.5616861,-0.2901036
31,3,ALICANTE,129,AGENCIA DE LECTURA,AGENCIA DE LECTURA  TIBI,PASEO LA SANTA Nº S/N,", CP 03109", TELF.965617152, FAX.965617141 AYTO, ,HTTP://XLPV.CULT.GVA.ES/CGINET-BIN/ABNETOP?SUBC=0176,BIBLIOTECA@TIBI.ES,N,PU,PÚBLICA,S,38.53346519999999,-0.5740803
32,3,ALICANTE,13,OTRAS PÚBLICAS,OTRAS PÚBLICAS  ALGUEÑA,PLAZA DE LA CONCORDIA Nº S/N,", CP 03668", TELF.965476001 AYTO, FAX.965476300 AYTO, , ,CULTURA@ALGUENYA.ES,N,PU,PÚBLICA,N,39.4840108,-0.7532808999999999
33,3,ALICANTE,133,BIBLIOTECA PUBLICA MUNICIPAL,BIBLIOTECA PUBLICA MUNICIPAL CARMEN JALON TORREVIEJA,CALLE JOAQUIN CHAPAPRIETA Nº 39,", CP 03181", TELF.965703168, ,HTTP://XLPV.CULT.GVA.ES/CGINET-BIN/ABNETOP?SUBC=0066,HTTP://XLPV.CULT.GVA.ES/CGINET-BIN/ABNETOP?SUBC=0066,TORREVIEJA.BIBLIOTECA@CV.GVA.ES,N,PU,PÚBLICA,S,37.9786924,-0.6812693999999999
34,3,ALICANTE,133,AGENCIA DE LECTURA,AGENCIA DE LECTURA  TORREVIEJA,AVENIDA DIEGO RAMIREZ PASTOR Nº 5,", CP 03181", TELF.965074323, , ,HTTP://XLPV.CULT.GVA.ES/CGINET-BIN/ABNETOP?SUBC=0066,AGENCIA.LECTURA@TORREVIEJA.EU,N,PU,PÚBLICA,S,37.9795558,-0.690272
35,3,ALICANTE,136,OTRAS PÚBLICAS,OTRAS PÚBLICAS  BENIALI,CARRETERA 35 DE BENIALI PISO 1,", CP 03787", TELF.966406553 AYTO, FAX.966406566 AYTO, , ,AJGALLINERA@GMAIL.COM,N,PU,PÚBLICA,N,38.8210281,-0.2214483
36,3,ALICANTE,137,AGENCIA DE LECTURA,AGENCIA DE LECTURA  FLEIX,CALLE L'ERA Nº 1,", CP 03791", TELF.965583301 AYTO, FAX.965583301 AYTO, , , ,N,PU,PÚBLICA,N,38.4022795,-0.431896
37,3,ALICANTE,137,AGENCIA DE LECTURA,AGENCIA DE LECTURA  CAMPELL,CALLE REI EN JAUME Nº 33 PISO 1,", CP 03791", TELF.965583301 AYTO, FAX.965583310 AYTO, , , ,N,PU,PÚBLICA,N,39.5858702,-0.3368327
38,3,ALICANTE,137,AGENCIA DE LECTURA,AGENCIA DE LECTURA  BENIMAURELL,PLAZA DEL SACRAMENTO Nº 1 PISO 1,", CP 03791", TELF.965583301 AYTO, FAX.965583310 AYTO, , , ,N,PU,PÚBLICA,N,38.5815719,-121.4943996
39,3,ALICANTE,138,AGENCIA DE LECTURA,AGENCIA DE LECTURA  VERGER (EL),CALLE MESTRE JOSE VIVES Nº 8,", CP 03770", TELF.673625250, FAX.965750872 AYTO, ,HTTP://XLPV.CULT.GVA.ES/CGINET-BIN/ABNETOP?SUBC=0191,BIBLIOTECA@ELVERGER.ES,N,PU,PÚBLICA,S,38.8422317,0.0086049
40,3,ALICANTE,139,BIBLIOTECA PUBLICA MUNICIPAL,BIBLIOTECA PUBLICA MUNICIPAL CRISTOBAL ZARAGOZA VILA JOIOSA (LA),CALLE BARRANQUET Nº 4,", CP 03570", TELF.965891698, FAX.966853057,HTTP://WWW.VILLAJOYOSA.COM/SITES/BIBLIOTECA/,HTTP://XLPV.CULT.GVA.ES/CGINET-BIN/ABNETOP?SUBC=0073,BIBLIOTECA@VILLAJOYOSA.COM,N,PU,PÚBLICA,N,38.3902557,-0.4426561
41,3,ALICANTE,14,BIBLIOTECA UNIVERSITARIA,BIBLIOTECA UNIVERSITARIA GENERAL ALACANT,CALLE APDO. CORREOS Nº 99,", CP 03080", TELF.965903400/3479, FAX.965909692/3735,HTTP://WWW.UA.ES/ES/BIBLIOTECAS/SIBID/CENTROS/INDEX.HTM,HTTP://WWW.UA.ES/ES/BIBLIOTECAS/SIBID/CATALOGOS/WEBCAT.HTM,SIBID@UA.ES,N,PU,PÚBLICA,N,39.4840108,-0.7532808999999999
42,3,ALICANTE,14,BIBLIOTECA UNIVERSITARIA,BIBLIOTECA UNIVERSITARIA DE FILOSOFÍA Y LETRAS-CAMPUS SANT VICENT RASPEIG ALACANT,EDIFICIO BIBLIOTECA GENERAL-APDO. CORREOS Nº 99,", CP 03080", TELF.965903400/2814/3016, FAX.965909361,HTTP://WWW.UA.ES/ES/BIBLIOTECAS/SIBID/CENTROS/INDEX.HTM,HTTP://WWW.UA.ES/ES/BIBLIOTECAS/SIBID/CATALOGOS/WEBCAT.HTM,BIBLI.FL@UA.ES ,N,PU,PÚBLICA,N,39.4840108,-0.7532808999999999
43,3,ALICANTE,14,BIBLIOTECA UNIVERSITARIA,BIBLIOTECA UNIVERSITARIA DE ECONÓMICAS Y EMPRESARIALES FACULTAD CIENCIAS ECONÓMICAS ALACANT,CARRETERA SAN VICENTE DEL RASPEIG S/N-APDO.CORREOS Nº 99,", CP 03080", TELF.965903400/3130/3392, FAX.965903624,HTTP://WWW.UA.ES/ES/BIBLIOTECAS/SIBID/CENTROS/INDEX.HTM,HTTP://WWW.UA.ES/ES/BIBLIOTECAS/SIBID/CATALOGOS/WEBCAT.HTM,BIBLI.ECONOMIQUES@UA.ES,N,PU,PÚBLICA,N,38.3976973,-0.5379891
44,3,ALICANTE,14,BIBLIOTECA UNIVERSITARIA,BIBLIOTECA UNIVERSITARIA DE DERECHO ALACANT,N/C APDO. CORREOS Nº 99,", CP 03080", TELF.965903574/965909337, FAX.965903630,HTTP://WWW.UA.ES/ES/BIBLIOTECAS/SIBID/CENTROS/INDEX.HTM,HTTP://WWW.UA.ES/ES/BIBLIOTECAS/SIBID/CATALOGOS/WEBCAT.HTM,BIBLI.DRET@UA.ES,N,PU,PÚBLICA,N,39.4840108,-0.7532808999999999
45,3,ALICANTE,14,BIBLIOTECA UNIVERSITARIA,BIBLIOTECA UNIVERSITARIA POLITÉCNICA Y ENFERMERÍA CAMPUS SANT VICENT RASPEIG ALACANT,EDIFICIO BIBLIOTECA GENERAL.APDO CORREOS Nº 99,", CP 03080", TELF.965903400 EXT-3398, ,HTTP://BIBLIOTECA.UA.ES/ES/POLITECNICA-ENFERMERIA/  ,HTTP://GAUDI.UA.ES,BIBLI.EPS@UA.ES,N,PU,PÚBLICA,N,39.4840108,-0.7532808999999999
46,3,ALICANTE,14,BIBLIOTECA UNIVERSITARIA,BIBLIOTECA UNIVERSITARIA DE GEOGRAFÍA ALACANT,N/C APDO. CORREOS Nº 99,", CP 03080", TELF.965909436/965903423, FAX.965903423,HTTP://WWW.UA.ES/ES/BIBLIOTECAS/SIBID/CENTROS/INDEX.HTM,HTTP://WWW.UA.ES/ES/BIBLIOTECAS/SIBID/CATALOGOS/WEBCAT.HTM,BIBLI.GEOGRAFIA@UA.ES,N,PU,PÚBLICA,N,39.4840108,-0.7532808999999999
47,3,ALICANTE,14,BIBLIOTECA UNIVERSITARIA,BIBLIOTECA UNIVERSITARIA DE EDUCACIÓN ALACANT,CARRETERA SAN VICENTE DEL RASPEIG S/N.APDO.CORREOS Nº 99,", CP 03080", TELF.965903738/965909622, FAX.965909482,HTTP://WWW.UA.ES/ES/BIBLIOTECAS/SIBID/CENTROS/INDEX.HTM,HTTP://WWW.UA.ES/ES/BIBLIOTECAS/SIBID/CATALOGOS/WEBCAT.HTM,BIBLI.MAGISTERI@UA.ES,N,PU,PÚBLICA,N,38.3976973,-0.5379891
48,3,ALICANTE,14,BIBLIOTECA ESPECIALIZADA,BIBLIOTECA ESPECIALIZADA ALICANTINA-INSTITUTO DE CULTURA JUAN GIL-ALBERT ALACANT,CALLE SAN FERNANDO Nº 44,", CP 03001", TELF.965121214/6, FAX.965921824,HTTP://WWW.DIP-ALICANTE.ES/GA/GILALBERT/,HTTP://ABSYS.DIP-ALICANTE.ES/CGI-BIN/ABWEBP.EXE,GALBERT@DIP-ALICANTE.ES,N,PU,PÚBLICA,N,38.3427064,-0.4860273000000001
49,3,ALICANTE,14,BIBLIOTECA ESPECIALIZADA,"BIBLIOTECA ESPECIALIZADA C O APAREJADORES,ARQUITECTOS E INGENIEROS DE LA EDIFICACIÓN ALACANT",CALLE CÁTEDRA FERRÉ VIDIELLA Nº 7,", CP 03005", TELF.965227817, FAX.965124404 ,HTTP://WWW.COAATALICANTE.ORG/, ,BIBLIOTECA@APAREJADORESALICANTE.ORG,N,PR,PRIVADA,N,38.3458745,-0.4933406
50,3,ALICANTE,14,BIBLIOTECA PUBLICA MUNICIPAL,BIBLIOTECA PUBLICA MUNICIPAL CENTRAL FLORIDA-BABEL ALACANT,AVENIDA ALCALDE LORENZO CARBONELL Nº 58,", CP 03007", TELF.965107167, ,HTTP://HTTP://XLPV.CULT.GVA.ES/CGINET-BIN/ABNETOP?SUBC=0117,HTTP://HTTP://XLPV.CULT.GVA.ES/CGINET-BIN/ABNETOP?SUBC=0117,BIBLIOTECA.FLORIDA.BABEL@ALICANTE-AYTO.ES,S,PU,PÚBLICA,S,38.3390648,-0.5144596
51,3,ALICANTE,14,AGENCIA DE LECTURA,AGENCIA DE LECTURA JUAN XXIII ALACANT,CALLE BARITONO PACO LATORRE Nº S/N,", CP 03015", TELF.965176575, ,HTTP://XLPV.CULT.GVA.ES/CGINET-BIN/ABNETOP?SUBC=0117,HTTP://XLPV.CULT.GVA.ES/CGINET-BIN/ABNETOP?SUBC=0117,BIBLIOTECA.JUAN23@ALICANTE-AYTO.ES,N,PU,PÚBLICA,N,38.3761491,-0.4815763999999999
52,3,ALICANTE,14,BIBLIOTECA PRIVADA,BIBLIOTECA PRIVADA REAL LICEO CASINO DE ALICANTE ALACANT,EXPLANADA DE ESPAÑA Nº 16,", CP 03001", TELF.965213829, FAX.965213829,HTTP://REALLICEOCASINOALICANTE.COM/INSTITUCION/BIBLIOTECA.HTM, ,CASINOALICANTE@REALLICEO.ES,N,PR,PRIVADA,N,38.34313789999999,-0.4842888999999999
53,3,ALICANTE,14,BIBLIOTECA PENITENCIARIA,BIBLIOTECA PENITENCIARIA CENTRO PENITENCIARIO-CUMPLIMIENTO FONTCALENT ALACANT,POLÍGONO PLA DE LA VALLONGA Nº S/N,", CP 03071", TELF.965287355-EXT 154, FAX.965287944, , , ,N,PU,PÚBLICA,N,38.3508467,-0.5506019999999999
54,3,ALICANTE,14,BIBLIOTECA ESPECIALIZADA,BIBLIOTECA ESPECIALIZADA ILUSTRE COLEGIO PROVINCIAL DE ABOGADOS ALACANT,CALLE GRAVINA Nº 4 PISO 2,", CP 03002", TELF.965145180-EXT 21-24, FAX.965200788,HTTP://WWW.ICALI.ES, ,BIBLIOTECA@ICALI.ES,N,PR,PRIVADA,N,38.34504870000001,-0.4799919
55,3,ALICANTE,14,BIBLIOTECA HOSPITALARIA,BIBLIOTECA HOSPITALARIA HOSPITAL GENERAL UNIVERSITARIO ALACANT,CALLE PINTOR BAEZA Nº 12,", CP 03010", TELF.965937940, FAX.965938234, , ,CANTO_JOS@GVA.ES,N,PU,PÚBLICA,N,38.4005329,-0.4345198
56,3,ALICANTE,14,AGENCIA DE LECTURA,AGENCIA DE LECTURA DE VILLAFRANQUEZA ALACANT,CALLE CASTELAR Nº 42,", CP 03112", TELF.965181090, ,HTTP://XLPV.CULT.GVA.ES/CGINET-BIN/ABNETOP?SUBC=0117,HTTP://XLPV.CULT.GVA.ES/CGINET-BIN/ABNETOP?SUBC=0117,BIBLIOTECA.VILLAFRANQUEZA@ALICANTE-AYTO.ES,N,PU,PÚBLICA,S,38.3850438,-0.4921601
57,3,ALICANTE,14,BIBLIOTECA GENERAL,BIBLIOTECA GENERAL GABRIEL MIRÓ (LA CAM) ALACANT,AVENIDA RAMÓN Y CAJAL Nº 5,", CP 03003", TELF..966012571/966012557, ,HTTP://WWW.BIBLIOTECASCAJAMEDITERRANEO.ES,HTTP://HTTP://WWW.REDBIBLIOTECASCAM.COM/WEB-SLSCAM/INDEX.HTM,BIBLIOTECAS@CAJAMEDITERRANEO.ES,N,PR,PRIVADA,N,38.3410012,-0.4876227
58,3,ALICANTE,14,CENTRO DE DOCUMENTACION,CENTRO DE DOCUMENTACION EUROPEA  UNIVERSIDAD DE ALICANTE ALACANT,EDIFICIO Nº36 GERMÁN BERNÁCER.APARTADO 99,", CP 03080", TELF.965909800/5903841, FAX.965909810,HTTP://WWW.CDE.UA.ES/, ,CDE@UAFG.NET,N,PU,PÚBLICA,N,39.4840108,-0.7532808999999999
59,3,ALICANTE,14,BIBLIOTECA AUXILIAR ARCHIVO,BIBLIOTECA AUXILIAR ARCHIVO HISTORICO PROVINCIAL ALACANT,"CALLE GUILLEN DE CASTRO,  Nº 3",", CP 03007", TELF.965918750, FAX.965918754,HTTP://DGLAB.CULT.GVA.ES/ARXIUHISTORICALACANT/INDEX.HTM,HTTP://XLPV.CULT.GVA.ES/CGINET-BIN/ABNETOP?SUBC=AHPA,AHP_ALICANTE@GVA.ES,N,PU,PÚBLICA,N,39.4681455,-0.3801979
60,3,ALICANTE,14,BIBLIOTECA ESPECIALIZADA,BIBLIOTECA ESPECIALIZADA HOSPITAL GENERAL UNIVERSITARIO PROFESIONAL ALACANT,CALLE PINTOR BAEZA  Nº 12,", CP 03010", TELF.96 593 32 85, FAX.96 593 32 75, , ,BIBLIOTECA_HGUA@GVA.ES / TRIGUEROS-ROS@GVA.ES,N,PU,PÚBLICA,N,38.4005329,-0.4345198
61,3,ALICANTE,14,BIBLIOTECA ESPECIALIZADA,BIBLIOTECA ESPECIALIZADA CEFIRE ALACANT,CALLE BAHÍA Nº 2,", CP 03008", TELF.965100284, FAX.965112457,HTTP://INTERCENTRES.CULT.GVA.ES/CEFIRE/03402009,HTTP://WWW.BEGV.GVA.ES/CEFIRE/VAL_TLPCEF.HTML,03402009@EDU.GVA.ES,N,PU,PÚBLICA,N,38.2544481,-0.5233246
62,3,ALICANTE,14,BIBLIOTECA ESPECIALIZADA,BIBLIOTECA ESPECIALIZADA DIRECCIÓN GENERAL DE FAMILIA Y MUJER ALACANT,AVENIDA OSCAR ESPLÀ Nº 33-35,", CP 03007", TELF.965929747, FAX.965920574,HTTP://WWW.BEGV.GVA.ES/DGM2/TDGM.HTML,HTTP://WWW.BEGV.GVA.ES/DGM2/TDGM.HTML,BIBLIOTECA.DGMI_ALIC@GVA.ES,N,PU,PÚBLICA,N,38.3422176,-0.4946952000000001
63,3,ALICANTE,14,BIBLIOTECA TERCERA EDAD,BIBLIOTECA TERCERA EDAD  ALACANT,CALLE GRAL.PRIMO DE RIVERA Nº 14 ESC. EN,", CP 03002", TELF.965205141/965126977, , , , ,N,PU,PÚBLICA,N,38.12559040000001,-0.8748018
64,3,ALICANTE,14,BIBLIOTECA PUBLICA PROVINCIAL,BIBLIOTECA PUBLICA PROVINCIAL DE ALICANTE AZORIN ALACANT,CALLE PASEITO DE RAMIRO Nº 15,", CP 03002", TELF.965919710, FAX.965919711,HTTP://WWW.BIBLIOTECASPUBLICAS.ES/ALICANTE/INDEX.JSP,HTTP://XLPV.CULT.GVA.ES/CGINET-BIN/ABNETOP?SUBC=BPEA,BPEA@GVA.ES,N,PU,PÚBLICA,S,38.3461713,-0.4779929
65,3,ALICANTE,14,BIBLIOTECA UNIVERSITARIA,BIBLIOTECA UNIVERSITARIA DE CIENCIAS  FACULTAD DE CIENCIAS ALACANT,N/C APDO. CORREOS Nº 99,", CP 03080", TELF.965903559/965909617, FAX.965909747,HTTP://WWW.UA.ES/ES/BIBLIOTECAS/SIBID/CENTROS/INDEX.HTM,HTTP://WWW.UA.ES/ES/BIBLIOTECAS/SIBID/CATALOGOS/WEBCAT.HTM,BIBLI.CIENCIES@UA.ES,N,PU,PÚBLICA,N,39.4840108,-0.7532808999999999
66,3,ALICANTE,14,PUNTO DE SERVICIO EXTERNO,PUNTO DE SERVICIO EXTERNO EL PUESTO N?43/45-MERCADO CENTRAL ALACANT,AVENIDA ALFONSO EL SABIO Nº S/N,", CP 03004", TELF.965203028, ,HTTP://XLPV.CULT.GVA.ES/CGINET-BIN/ABNETOP?SUBC=0117,HTTP://XLPV.CULT.GVA.ES/CGINET-BIN/ABNETOP?SUBC=0117,BIBLIOTECA.ELPUESTO@ALICANTE-AYTO.ES,N,PU,PÚBLICA,N,38.3471987,-0.4876438
67,3,ALICANTE,14,AGENCIA DE LECTURA,AGENCIA DE LECTURA SAN BLAS ALACANT,CALLE ADOLFO MU?OZ ALONSO Nº 8,", CP 03005", TELF.965923749, ,HTTP://XLPV.CULT.GVA.ES/CGINET-BIN/ABNETOP?SUBC=0117,HTTP://XLPV.CULT.GVA.ES/CGINET-BIN/ABNETOP?SUBC=0117,BIBLIOTECA.SANBLAS@ALICANTE-AYTO.ES,N,PU,PÚBLICA,N,38.3494999,-0.4982463999999999
68,3,ALICANTE,14,BIBLIOTECA PUBLICA MUNICIPAL,BIBLIOTECA PUBLICA MUNICIPAL VIRGEN DEL REMEDIO ALACANT,CALLE PLAZA DE LAS ESCUELAS Nº 5,", CP 03011", TELF.965171634, ,HTTP://XLPV.CULT.GVA.ES/CGINET-BIN/ABNETOP?SUBC=0117,HTTP://XLPV.CULT.GVA.ES/CGINET-BIN/ABNETOP?SUBC=0117,BIBLIOTECA.VREMEDIO@ALICANTE-AYTO.ES,N,PU,PÚBLICA,S,38.37608,-0.4915698
69,3,ALICANTE,14,AGENCIA DE LECTURA,AGENCIA DE LECTURA PLA-CAROLINAS ALACANT,CALLE FRANCISCO GINER DE LOS RIOS Nº 8,", CP 03012", TELF.965256175, ,HTTP://XLPV.CULT.GVA.ES/CGINET-BIN/ABNETOP?SUBC=0117,HTTP://XLPV.CULT.GVA.ES/CGINET-BIN/ABNETOP?SUBC=0117,BIBLIOTECA.CAROLINAS@ALICANTE-AYTO.ES,N,PU,PÚBLICA,N,38.3627237,-0.4820246
70,3,ALICANTE,14,AGENCIA DE LECTURA,AGENCIA DE LECTURA DIAGONAL ALACANT,AVENIDA DIAGONAL Nº 3,", CP 03009", TELF.965183427, ,HTTP://XLPV.CULT.GVA.ES/CGINET-BIN/ABNETOP?SUBC=0117,HTTP://XLPV.CULT.GVA.ES/CGINET-BIN/ABNETOP?SUBC=0117,BIBLIOTECA.DIAGONAL@ALICANTE-AYTO.ES,N,PU,PÚBLICA,S,41.3968834,2.1615936
71,3,ALICANTE,14,AGENCIA DE LECTURA,AGENCIA DE LECTURA BENALUA ALACANT,CALLE GARCIA ANDREU Nº 35-37,", CP 03007", TELF.965124676, ,HTTP://XLPV.CULT.GVA.ES/CGINET-BIN/ABNETOP?SUBC=0117,HTTP://XLPV.CULT.GVA.ES/CGINET-BIN/ABNETOP?SUBC=0117,BIBLIOTECA.BENALUA@ALICANTE-AYTO.ES,N,PU,PÚBLICA,S,38.3413533,-0.4964974
72,3,ALICANTE,14,AGENCIA DE LECTURA,AGENCIA DE LECTURA CIUDAD DE ASIS FRANCISCO LIBERAL ALACANT,CALLE AGUILA Nº 41,", CP 03006", TELF.965114671, FAX.965107805,HTTP://XLPV.CULT.GVA.ES/CGINET-BIN/ABNETOP?SUBC=0117,HTTP://XLPV.CULT.GVA.ES/CGINET-BIN/ABNETOP?SUBC=0117,BIBLIOTECA.ASIS@ALICANTE-AYTO.ES,N,PU,PÚBLICA,S,38.34933830000001,-0.5149686
73,3,ALICANTE,14,AGENCIA DE LECTURA,AGENCIA DE LECTURA EL CABO  CENTRO COMUNITARIO PLAYAS ALACANT,AVENIDA COSTA BLANCA Nº 19,", CP 03540", TELF.965264129, ,HTTP://XLPV.CULT.GVA.ES/CGINET-BIN/ABNETOP?SUBC=0117,HTTP://XLPV.CULT.GVA.ES/CGINET-BIN/ABNETOP?SUBC=0117,BIBLIOTECA.ELCABO@ALICANTE-AYTO.ES,N,PU,PÚBLICA,N,38.3576881,-0.4292366
74,3,ALICANTE,140,BIBLIOTECA PUBLICA MUNICIPAL,BIBLIOTECA PUBLICA MUNICIPAL MIGUEL HERNANDEZ VILLENA,PLAZA SANTIAGO Nº 7,", CP 03400", TELF.965801150 EXT-151, FAX.965806146 AYTO,HTTP://WWW.VILLENA.ES/BIBLIOTECA/,HTTP://XLPV.CULT.GVA.ES/CGINET-BIN/ABNETOP?SUBC=BPMV,BIBLIOTECA@VILLENA.ES,S,PU,PÚBLICA,S,39.4840108,-0.7532808999999999
75,3,ALICANTE,140,AGENCIA DE LECTURA,AGENCIA DE LECTURA SAN FRANCISCO VILLENA,"BARRIO SAN FRANCISCO, BLOQUE E Nº 14",", CP 03400", TELF.965801150- EXT 154, ,HTTP://WWW.VILLENA.ES/BIBLIOTECA/,HTTP://XLPV.CULT.GVA.ES/CGINET-BIN/ABNETOP?SUBC=BPMV,BIBLIOTECA@VILLENA.ES,N,PU,PÚBLICA,N,37.7749295,-122.4194155
76,3,ALICANTE,140,AGENCIA DE LECTURA,AGENCIA DE LECTURA LA PAZ VILLENA,CALLE CELADA Nº 33,", CP 03400", TELF.965801150-EXT 155, ,HTTP://WWW.VILLENA.ES/BIBLIOTECA/,HTTP://XLPV.CULT.GVA.ES/CGINET-BIN/ABNETOP?SUBC=BPMV,BIBLIOTECA@VILLENA.ES,N,PU,PÚBLICA,S,38.6393676,-0.8667680999999999
77,3,ALICANTE,15,BIBLIOTECA PUBLICA MUNICIPAL,BIBLIOTECA PUBLICA MUNICIPAL  ALMORADÍ,PLAZA SAN ANDRES Nº S/N,", CP 03160", TELF.966782324, FAX.966781992,HTTP://WWW.BIBLIOTECASPUBLICAS.ES/ALMORADI/,HTTP://XLPV.CULT.GVA.ES/CGINET-BIN/ABNETOP?SUBC=0003,BIBLIOTECA@ALMORADI.ES,N,PU,PÚBLICA,S,39.4840108,-0.7532808999999999
78,3,ALICANTE,17,AGENCIA DE LECTURA,AGENCIA DE LECTURA  ALQUERIA D'ASNAR (L'),CALLE SAN LORENZO Nº 6,", CP 03829", TELF.965530624 AYTO, FAX.966517004 AYTO, , ,MARTXEL95@HOTMAIL.COM,N,PU,PÚBLICA,N,39.4777459,-0.3748893
79,3,ALICANTE,18,BIBLIOTECA UNIVERSITARIA,BIBLIOTECA UNIVERSITARIA UNIVERSIDAD MIGUEL HERNÁNDEZ-CAMPUS DE ALTEA ALTEA,CALLE BENIDORM-PARTIDA PLA DEL CASTELL Nº S/N,", CP 03590", TELF.966859101, FAX.966859102,HTTP://WWW.UMH.ES/BIBLIOTECAS/,HTTP://WWW.UMH.ES/BIBLIOTECAS/CATALOGO/,BIBLIO.ALTEA@UMH.ES,N,PU,PÚBLICA,N,38.5410566,-0.1224937
80,3,ALICANTE,18,BIBLIOTECA PUBLICA MUNICIPAL,BIBLIOTECA PUBLICA MUNICIPAL JOAN FUSTER ALTEA,CALLE PONT DE MONCAU Nº 14 ESC. 1,", CP 03590", TELF.965842853, FAX.965842804,HTTP://WWW.AYUNTAMIENTOALTEA.ES/,HTTP://XLPV.CULT.GVA.ES/CGINET-BIN/ABNETOP?SUBC=0004,BIBLIO.ALTEA@GMAIL.COM,S,PU,PÚBLICA,S,38.60039950000001,-0.0491725
81,3,ALICANTE,18,AGENCIA DE LECTURA,AGENCIA DE LECTURA ALTEA LA VELLA ALTEA LA VELLA,CALLE PARE LLINARES Nº 4,", CP 03599", TELF.965848542, ,HTTP://WWW.AYUNTAMIENTOALTEA.ES/,HTTP://XLPV.CULT.GVA.ES/CGINET-BIN/ABNETOP?SUBC=0004,BIBLIO.ALTEA@GMAIL.COM,N,PU,PÚBLICA,S,38.6450799,0.0449469
82,3,ALICANTE,19,BIBLIOTECA PUBLICA MUNICIPAL,BIBLIOTECA PUBLICA MUNICIPAL RUBEN DARIO ASPE,CALLE SAN JOSE Nº 9,", CP 03680", TELF.966919900 EXT-240, FAX.965493001,HTTP://XLPV.CULT.GVA.ES/CGINET-BIN/ABNETOP?SUBC=0016,HTTP://XLPV.CULT.GVA.ES/CGINET-BIN/ABNETOP?SUBC=0016,BIBLIOTECA@AYTO.ASPE.ES,N,PU,PÚBLICA,N,39.4205314,-0.3895736
83,3,ALICANTE,2,BIBLIOTECA ESPECIALIZADA,BIBLIOTECA ESPECIALIZADA MUSEO DE ALFARERÍA AGOST,CALLE TEULERÍA Nº 11,", CP 03698", TELF.965691199, FAX.965691199,HTTP://WWW.MUSEOAGOST.COM, ,MUSEO@AGOST.ES,N,PU,PÚBLICA,N,40.1550657,0.0481714
84,3,ALICANTE,2,AGENCIA DE LECTURA,AGENCIA DE LECTURA  AGOST,AVENIDA XIXONA Nº 2,", CP 03698", TELF.965691869, FAX.965691978 (AYTO),HTTP://WWW.AGOST.ES/BIBLIOTECA.ASP?LNG=1,HTTP://XLPV.CULT.GVA.ES/CGINET-BIN/ABNETOP/O7735/ID0CD3E3D2?ACC=101,BIBLIOTECA@AGOST.ES,N,PU,PÚBLICA,S,38.35494,-0.48525
85,3,ALICANTE,21,BIBLIOTECA PUBLICA MUNICIPAL,BIBLIOTECA PUBLICA MUNICIPAL  BANYERES DE MARIOLA,CALLE MALENA Nº 15,", CP 03450", TELF.966567766, FAX.965566668 AYTO,HTTP://HTTP://WWW.PORTADEMARIOLA.COM/INDEX.PHP?PAG=153,HTTP://XLPV.CULT.GVA.ES/CGINET-BIN/ABNETOP?SUBC=0057,BIBLIOTECA@PORTADEMARIOLA.COM,N,PU,PÚBLICA,N,38.7163803,-0.6560905
86,3,ALICANTE,23,OTRAS PÚBLICAS,OTRAS PÚBLICAS  BENEIXAMA,CALLE COLÓN Nº 7 PISO 1,", CP 03460", TELF.965822101 AYTO, FAX.965822401 AYTO, , ,AYUNTAMIENTO@BENEIXAMA.ES,N,PU,PÚBLICA,N,39.4677668,-0.3742837
87,3,ALICANTE,24,OTRAS PÚBLICAS,OTRAS PÚBLICAS  BENEJÚZAR,PLAZA DE ESPAÑA Nº 1,", CP 03390", TELF.965356151 AYTO, FAX.965356689 AYTO, , ,COMUNICACION@BENEJUZAR.ES,N,PU,PÚBLICA,N,39.4663159,-0.3815988
88,3,ALICANTE,26,AGENCIA DE LECTURA,AGENCIA DE LECTURA  BENIARBEIG,PLAZA 9 D'OCTUBRE Nº 2,", CP 03778", TELF.966476597, FAX.965766824 AYTO,HTTP://BIBLIOTECABENIARBEIG.BLOGSPOT.COM.ES, ,BIBLIOTECA@BENIARBEIG.ORG,N,PU,PÚBLICA,S,39.62622,-0.5955163
89,3,ALICANTE,28,AGENCIA DE LECTURA,AGENCIA DE LECTURA  BENIARRÉS,CALLE DOCTOR ORERO Nº 19 PISO 1,", CP 03850", TELF.965515059 AYTO, FAX.965515068 AYTO, , ,BENIARRES@DIP-ALICANTE.ES,N,PU,PÚBLICA,N,38.8192616,-0.3778124
90,3,ALICANTE,31,BIBLIOTECA ESPECIALIZADA,BIBLIOTECA ESPECIALIZADA BIBLIOTECA EUROPEA BENIDORM,CALLE JUAN FUSTER ZARAGOZA Nº 3,", CP 03503", TELF.966804781, FAX.966809776,HTTP://WWW.BIBLIOTECASPUBLICAS.ES/BENIDORM/, ,BIBLIOTECA@BENIDORM.ORG,N,PU,PÚBLICA,N,38.5376706,-0.1082885
91,3,ALICANTE,31,AGENCIA DE LECTURA,AGENCIA DE LECTURA RACO DE L'OIX  EDIFICIO AQUARIUM 3 BENIDORM,AVENIDA JUAN FUSTER ZARAGOZA Nº 1,", CP 03503", TELF.966804781, FAX.966804781,HTTP://WWW.BIBLIOTECASPUBLICAS.ES/BENIDORM/,HTTP://XLPV.CULT.GVA.ES/CGINET-BIN/ABNETOP?SUBC=BENI,BIBRINCON1@BENIDORM.ORG,N,PU,PÚBLICA,S,38.5372918,-0.1069658
92,3,ALICANTE,31,BIBLIOTECA MOVIL O TEMPORAL,BIBLIOTECA MOVIL O TEMPORAL BIBLIOPLAYA DE LEVANTE BENIDORM,PLAZA SUS MAJESTADES LOS REYES DE ESPAÑA Nº 3,", CP 03501", TELF.965855098, ,HTTP://WWW.BIBLIOTECASPUBLICAS.ES/BENIDORM/,HTTP://XLPV.CULT.GVA.ES/CGINET-BIN/ABNETOP?SUBC=BENI, ,N,PU,PÚBLICA,N,39.4840108,-0.7532808999999999
93,3,ALICANTE,31,BIBLIOTECA PUBLICA MUNICIPAL,BIBLIOTECA PUBLICA MUNICIPAL CENTRAL BENIDORM,PLAZA SUS MAJESTADES LOS REYES DE ESPA?A Nº 3,", CP 03501", TELF.965855098, FAX.966809776,HTTP://WWW.BIBLIOTECASPUBLICAS.ES/BENIDORM/,HTTP://XLPV.CULT.GVA.ES/CGINET-BIN/ABNETOP?SUBC=BENI,BIBLIOTECA@BENIDORM.ORG,S,PU,PÚBLICA,S,38.3460627,-0.4907945
94,3,ALICANTE,31,BIBLIOTECA MOVIL O TEMPORAL,BIBLIOTECA MOVIL O TEMPORAL BIBLIOPLAYA DE PONIENTE BENIDORM,PLAZA SUS MAJESTADES LOS REYES DE ESPAÑA Nº 3,", CP 03501", TELF.965855098, ,HTTP://WWW.BIBLIOTECASPUBLICAS.ES/BENIDORM/, ,BIBLIOTECA@BENIDORM.ORG,N,PU,PÚBLICA,N,39.4840108,-0.7532808999999999
95,3,ALICANTE,34,AGENCIA DE LECTURA,AGENCIA DE LECTURA  BENIJÓFAR,CALLE FRANCISCO RIBERA PÉREZ Nº 7,", CP 03178", TELF.966713567, FAX.966714322 AYTO, , ,BIBLIO@BENIJOFAR.ORG,N,PU,PÚBLICA,N,38.0794399,-0.7352411999999999
96,3,ALICANTE,37,AGENCIA DE LECTURA,AGENCIA DE LECTURA  BENIMANTELL,CARRETERA D'ALCOI Nº S/N,", CP 03516", TELF.965885220 AYTO, FAX.965885024 AYTO, , ,BENIMANTELL@BENIMANTELL.ES,N,PU,PÚBLICA,N,38.6510362,-0.1260347
97,3,ALICANTE,38,OTRAS PÚBLICAS,OTRAS PÚBLICAS  BENIMARFULL,CALLE SANT JAUME Nº 19,", CP 03827", TELF.966516947, FAX.966516815 AYTO, , ,AYTOBENIMARFULL@GMAIL.COM,N,PU,PÚBLICA,N,38.92304,-0.09265
98,3,ALICANTE,4,AGENCIA DE LECTURA,AGENCIA DE LECTURA  AIGÜES,AVENIDA PEPE VILA Nº S/N,", CP 03569", TELF.965690061 AYTO, FAX.965690329 AYTO, , ,AGENCIADELECTURAAIGUES@HOTMAIL.COM,N,PU,PÚBLICA,N,39.4840108,-0.7532808999999999
99,3,ALICANTE,40,OTRAS PÚBLICAS,OTRAS PÚBLICAS  BENIMELI,PLAZA MAYOR Nº 6 PISO 1,", CP 03769", TELF.965587123 AYTO, FAX.965587252 AYTO, , ,BENIMELI@HOTMAIL.COM,N,PU,PÚBLICA,N,39.4840108,-0.7532808999999999
100,3,ALICANTE,41,BIBLIOTECA PUBLICA MUNICIPAL,BIBLIOTECA PUBLICA MUNICIPAL BERNAT CAPO BENISSA,CALLE PURISSIMA Nº 38-40 PISO 2,", CP 03720", TELF.965730599/96573131, ,HTTP://XLPV.CULT.GVA.ES/CGINET-BIN/ABNETOP?SUBC=0031,HTTP://XLPV.CULT.GVA.ES/CGINET-BIN/ABNETOP?SUBC=0031,BIBLIOTECA@AJBENISSA.ES,N,PU,PÚBLICA,N,39.5595958,-0.4983815
101,3,ALICANTE,42,AGENCIA DE LECTURA,AGENCIA DE LECTURA POBLE NOU POBLE NOU DE BENITATXELL (EL),AVENIDA D'ALACANT Nº 11 PISO 2,", CP 03726", TELF.966493756/6493369, ,HTTP://XLPV.CULT.GVA.ES/CGINET-BIN/ABNETOP?SUBC=0148,HTTP://XLPV.CULT.GVA.ES/CGINET-BIN/ABNETOP?SUBC=0148,BIBLIOTECA@ELPOBLENOUDEBENITATXELL.ORG,N,PU,PÚBLICA,N,39.4840108,-0.7532808999999999
102,3,ALICANTE,43,AGENCIA DE LECTURA,AGENCIA DE LECTURA  BIAR,CALLE SANT JERONI Nº 2,", CP 03410", TELF.965810661, FAX.965810833,HTTP://XLPV.CULT.GVA.ES/CGINET-BIN/ABNETOP?SUBC=0146,HTTP://XLPV.CULT.GVA.ES/CGINET-BIN/ABNETOP?SUBC=0146,BIBLIOTECA@BIAR.ES,N,PU,PÚBLICA,S,38.5375548,-0.1335892
103,3,ALICANTE,44,BIBLIOTECA PUBLICA MUNICIPAL,BIBLIOTECA PUBLICA MUNICIPAL C  AUDITORIO MUNICIPAL FRANCISCO GRAU BIGASTRO,CALLE ACEQUIA Nº 2,", CP 03380", TELF.965350000 EXT-602, FAX.965350807 AYTO,HTTP://WWW.BIGASTRO.ES/,HTTP://XLPV.CULT.GVA.ES/CGINET-BIN/ABNETOP?SUBC=0119,BIBLIOTECA@AYTOBIGASTRO.ES,N,PU,PÚBLICA,N,38.0638844,-0.8950372999999999
104,3,ALICANTE,46,AGENCIA DE LECTURA,AGENCIA DE LECTURA CASA DE LA CULTURA BUSOT,CALLE EL PAL Nº S/N,", CP 03111", TELF.965698072, FAX.965699081 AYTO,HTTP://XLPV.CULT.GVA.ES/CGINET-BIN/ABNETOP?SUBC=0134,HTTP://XLPV.CULT.GVA.ES/CGINET-BIN/ABNETOP?SUBC=0134,BIBLIOTECA@AYTO-BUSOT.COM,N,PU,PÚBLICA,N,39.4840108,-0.7532808999999999
105,3,ALICANTE,47,BIBLIOTECA PUBLICA MUNICIPAL,BIBLIOTECA PUBLICA MUNICIPAL JOANOT MARTORELL CALP,AVENIDA MASNOU Nº 1 PISO 1,", CP 03710", TELF.965839905, ,HTTP://XLPV.CULT.GVA.ES/CGINET-BIN/ABNETOP?SUBC=0005,HTTP://XLPV.CULT.GVA.ES/CGINET-BIN/ABNETOP?SUBC=0005,BIBLIOTECA@AJCALP.ES,N,PU,PÚBLICA,N,38.6428987,0.04381119999999999
106,3,ALICANTE,48,BIBLIOTECA PUBLICA MUNICIPAL,BIBLIOTECA PUBLICA MUNICIPAL  CALLOSA D'EN SARRIÀ,CALLE JAUME ROIG  Nº 5,", CP 03510", TELF.965886134, FAX.965886135,HTTP://WWW.BIBLIOTECASPUBLICAS.ES/CALLOSA/,HTTP://XLPV.CULT.GVA.ES/CGINET-BIN/ABNETOP?SUBC=0032,BIBLIOTECA@CALLOSA.ES,N,PU,PÚBLICA,S,39.4801339,-0.3647731
107,3,ALICANTE,49,BIBLIOTECA PUBLICA MUNICIPAL,BIBLIOTECA PUBLICA MUNICIPAL FRANCISCO SALINAS CALLOSA DE SEGURA,PLAZA REINA SOFIA Nº 6,", CP 03360", TELF.965312471, FAX.965310856 AYTO,HTTP://BIBLIOTECA.CALLOSADESEGURA.ES ,HTTP://XLPV.CULT.GVA.ES/CGINET-BIN/ABNETOP?SUBC=0060,BIBLIOTECA@CALLOSADESEGURA.ES,N,PU,PÚBLICA,S,39.6653893,-0.2340856
108,3,ALICANTE,5,BIBLIOTECA PUBLICA MUNICIPAL,BIBLIOTECA PUBLICA MUNICIPAL FERMIN LIMORTE ALBATERA,CALLE PROLONGACION CONDE DE ALBATERA Nº S/N,", CP 03340", TELF.965487894, FAX.965487894,HTTP://HTTP://WWW.ALBATERA.ES/BIBLIOTECAS/INFORMACION-DE-CONTACTO-Y-HORARIOS-DE-APERTURA.HTML,HTTP://XLPV.CULT.GVA.ES/CGINET-BIN/ABNETOP?SUBC=0055,BIBLIOTECA@ALBATERA.ORG,N,PU,PÚBLICA,S,38.1776063,-0.8687011
109,3,ALICANTE,50,BIBLIOTECA PUBLICA MUNICIPAL,BIBLIOTECA PUBLICA MUNICIPAL RAFAEL ALTAMIRA CAMPELLO (EL),PLAZA DE CANALEJAS Nº 6,", CP 03560", TELF.965632124, ,HTTP://WWW.BIBLIOTECASPUBLICAS.ES/ELCAMPELLO,HTTP://WWW.OPAC.ELCAMPELLO.ES:83/OPAC/DOCUOPAC.ASP,BIBLIOTECA@ELCAMPELLO.ORG,N,PU,PÚBLICA,N,39.4594273,-0.3387515
110,3,ALICANTE,52,AGENCIA DE LECTURA,AGENCIA DE LECTURA  CAÑADA,PLAZA MAYOR Nº 10,", CP 03409", TELF.96 582 00 01 AYTO, ,HTTP://HTTP://WWW.CANYADA.ORG/INDEX.PHP?PAG=132&N1=2, , ,N,PU,PÚBLICA,N,40.8886895,-2.9436437
111,3,ALICANTE,53,BIBLIOTECA PUBLICA MUNICIPAL,BIBLIOTECA PUBLICA MUNICIPAL  CASTALLA,PASEO ANTIGA BASSA DE LA VILA Nº 23,", CP 03420", TELF.965560028/687796020, ,HTTP://WWW.BIBLIOTECASPUBLICAS.ES/CASTALLA,HTTP://XLPV.CULT.GVA.ES/CGINET-BIN/ABNETOP?SUBC=0046,BPM@CASTALLA.ORG,N,PU,PÚBLICA,S,38.5079606,-0.2285807
112,3,ALICANTE,55,BIBLIOTECA PUBLICA MUNICIPAL,BIBLIOTECA PUBLICA MUNICIPAL  CATRAL,CALLE MANUEL FLORES Nº 32,", CP 03158", TELF.966787466, FAX.965723018 AYTO,HTTP://WWW.AYUNTAMIENTOCATRAL.COM/BIBLIOTECA.PHP,HTTP://XLPV.CULT.GVA.ES/CGINET-BIN/ABNETOP?SUBC=0107,BIBLIOTECA@AYUNTAMIENTOCATRAL.COM,N,PU,PÚBLICA,S,38.1593106,-0.8023615
113,3,ALICANTE,56,BIBLIOTECA PUBLICA MUNICIPAL,BIBLIOTECA PUBLICA MUNICIPAL PARE AGUSTI ARQUES COCENTAINA,CALLE PLA DE LA FONT Nº 10,", CP 03820", TELF.965590869, FAX.965590159,HTTP://WWW.COCENTAINA.ES/,HTTP://XLPV.CULT.GVA.ES/CGINET-BIN/ABNETOP?SUBC=0006,BIBLIOTECA@COCENTAINA.ORG / BIBLIOTECARIA.BPM@COCENTAINA.ORG,N,PU,PÚBLICA,N,38.8408744,-0.1192815
114,3,ALICANTE,58,BIBLIOTECA PUBLICA MUNICIPAL,BIBLIOTECA PUBLICA MUNICIPAL MIGUEL DE CERVANTES COX,AVENIDA DEL CARMEN Nº 17,", CP 03350", TELF.966177848, FAX.966750354 AYTO, ,HTTP://XLPV.CULT.GVA.ES/CGINET-BIN/ABNETOP?SUBC=0181 ,BIBLIOCOX@GMAIL.COM,N,PU,PÚBLICA,S,38.9372645,-0.1505197
115,3,ALICANTE,59,BIBLIOTECA PUBLICA MUNICIPAL,BIBLIOTECA PUBLICA MUNICIPAL ENRIC VALOR CREVILLENT,CALLE VIRGEN DEL CARMEN Nº 38,", CP 03330", TELF.965406510, , , ,ASATORRE@CREVILLENT.ES,N,PU,PÚBLICA,N,38.1916126,-0.5498864
116,3,ALICANTE,6,OTRAS PÚBLICAS,OTRAS PÚBLICAS LA LLOSA DE CAMACHO LLOSA DE CAMACHO (LA),CALLE DENIA Nº 33 PISO 3,", CP 03759", TELF.966482259/646586744, FAX.966482259, , , ,N,PU,PÚBLICA,N,39.4630131,-0.3748538
117,3,ALICANTE,61,OTRAS PÚBLICAS,OTRAS PÚBLICAS COLEGIO PÚBLICO DAYA NUEVA,CALLE VALENCIA Nº 8,", CP 03159", TELF.966712533, FAX.965700642 AYTO, , ,BIBLIOTECAPUBLICADAYANUEVA@HOTMAIL.COM,N,PU,PÚBLICA,N,39.4735652,-0.4116897
118,3,ALICANTE,63,AGENCIA DE LECTURA,AGENCIA DE LECTURA ENRIC VALOR (DENIA) JESUS POBRE,PLAZA POU DE LA MURTERA Nº 4,", CP 03749", TELF.966454311/5756611, FAX.965756611,HTTP://WWW.DENIA.ES/VA/INFORMACIO/CULTURA/BIBLIOTECA/INDEX.ASPX,HTTP://XLPV.CULT.GVA.ES/CGINET-BIN/ABNETOP?SUBC=0098,BIBLIOTECA@JESUSPOBRE.ES,N,PU,PÚBLICA,N,38.99194600000001,-0.155342
119,3,ALICANTE,63,AGENCIA DE LECTURA,AGENCIA DE LECTURA BAIX LA MAR DÉNIA,RONDA DE LAS MURALLAS Nº 42,", CP 03700", TELF.965786280, ,HTTP://WWW.DENIA.ES/VA/INFORMACIO/CULTURA/BIBLIOTECA/INDEX.ASPX,HTTP://XLPV.CULT.GVA.ES/CGINET-BIN/ABNETOP?SUBC=0098,AGENCIALECTURA@AYTO-DENIA.ES,N,PU,PÚBLICA,N,36.746209,-5.161225099999999
120,3,ALICANTE,63,BIBLIOTECA AUXILIAR ARCHIVO,BIBLIOTECA AUXILIAR ARCHIVO  DÉNIA,PLAZA ENRIC VALOR Nº S/N,", CP 03700", TELF.966420940, FAX.965789986,HTTP://WWW.AYTO-DENIA.ES, ,ARCHIVO@AYTO-DENIA.ES,N,PU,PÚBLICA,N,39.6148749,-0.3055262
121,3,ALICANTE,63,BIBLIOTECA PUBLICA MUNICIPAL,BIBLIOTECA PUBLICA MUNICIPAL  DÉNIA,PLAZA JAUME I Nº S/N,", CP 03700", TELF.965783665/5783656, FAX.966420512,HTTP://WWW.DENIA.ES/VA/INFORMACIO/CULTURA/BIBLIOTECA/INDEX.ASPX,HTTP://XLPV.CULT.GVA.ES/CGINET-BIN/ABNETOP?SUBC=0098,BIBLIOTECA@AYTO-DENIA.ES,S,PU,PÚBLICA,N,38.5802471,-0.1032469
122,3,ALICANTE,63,BIBLIOTECA UNIVERSITARIA,BIBLIOTECA UNIVERSITARIA CENTRO ASOCIADO-UNED DÉNIA,CALLE JAIME I Nº S/N,", CP 03700", TELF.965781754, FAX.965789414,HTTP://WWW.UNEDDENIA.ES/SERVICIOS,HTTP://BIBLIOTECA.UNED.ES ,BIBLIOTECA@DENIA.UNED.ES,N,PU,PÚBLICA,N,38.3439283,-0.7622201
123,3,ALICANTE,64,BIBLIOTECA PUBLICA MUNICIPAL,BIBLIOTECA PUBLICA MUNICIPAL  DOLORES,CALLE SAN ANTONIO Nº 2,", CP 03150", TELF.966710041, FAX.966711109 AYTO,HTTP://WWW.DOLORES.ES,HTTP://XLPV.CULT.GVA.ES/CGINET-BIN/ABNETOP?SUBC=0182 ,BIBLIOTECA@DOLORES.ES,N,PU,PÚBLICA,S,39.4738775,-0.4120637
124,3,ALICANTE,65,BIBLIOTECA UNIVERSITARIA,BIBLIOTECA UNIVERSITARIA CENTRO ASOCIADO-UNED ELX,CALLE CANDALIX Nº S/N,", CP 03202", TELF.966658253, ,HTTP://WWW.UNED.ES/CA-ELCHE/SERVIC/BIBLIO/BIBLIOTECA.HTM,HTTP://BIBLIO15.UNED.ES/,BIBLIOTECA@ELX.UNED.ES,N,PU,PÚBLICA,N,38.2706609,-0.6932501999999999
125,3,ALICANTE,65,BIBLIOTECA UNIVERSITARIA,BIBLIOTECA UNIVERSITARIA UNIVERSIDAD MIGUEL HERNÁNDEZ-CAMPUS DE ELCHE ELX,AVENIDA DE LA UNIVERSIDAD-EDIFICIO ALTABIX Nº S/N,", CP 03202", TELF.966658786/8, FAX.966658789,HTTP://WWW.UMH.ES/BIBLIOTECAS,HTTP://WWW.UMH.ES/BIBLIOTECAS/CATALOGO/,BIBLIO.ELCHE@UMH.ES,N,PU,PÚBLICA,N,38.2744134,-0.6805256000000001
126,3,ALICANTE,65,BIBLIOTECA MOVIL O TEMPORAL,BIBLIOTECA MOVIL O TEMPORAL PUBLICA ELX (BIBLIOBUS) ELX,PLAZA SANTISIMO CRISTO DE ZALAMEA Nº S/N,", CP 03201", TELF.966658125/26, FAX.965430314,HTTP://WWW.ELCHE.ES/BIBLIOTECAS,HTTP://XLPV.CULT.GVA.ES/CGINET-BIN/ABNETOP?SUBC=0041,BIBLIOBUS@AYTO-ELCHE.ES,N,PU,PÚBLICA,N,39.4840108,-0.7532808999999999
127,3,ALICANTE,65,BIBLIOTECA PUBLICA MUNICIPAL,BIBLIOTECA PUBLICA MUNICIPAL PERE IBARRA ELX,PLAZA SANTISIMO CRISTO DE ZALAMEA Nº S/N,", CP 03204", TELF.966658125, FAX.966658127,HTTP://WWW.ELCHE.ES/BIBLIOTECAS,HTTP://XLPV.CULT.GVA.ES/CGINET-BIN/ABNETOP?SUBC=0041,BIBLIOTECA.CENTRAL@AYTO-ELCHE.ES,S,PU,PÚBLICA,N,39.4840108,-0.7532808999999999
128,3,ALICANTE,65,BIBLIOTECA PUBLICA MUNICIPAL,BIBLIOTECA PUBLICA MUNICIPAL ALBERTO MIRALLES-ALTABIX ELX,CALLE BERNABE DEL CAMPO LATORRE Nº 26,", CP 03202", TELF.966658175, ,HTTP://WWW.ELCHE.ES/BIBLIOTECAS,HTTP://XLPV.CULT.GVA.ES/CGINET-BIN/ABNETOP?SUBC=0041,BIBLIOTECA.ALTABIX@AYTO-ELCHE.ES,N,PU,PÚBLICA,N,38.27243,-0.68521
129,3,ALICANTE,65,BIBLIOTECA PUBLICA MUNICIPAL,BIBLIOTECA PUBLICA MUNICIPAL PEDRO SALINAS-L'ALTET ELX,CALLE GRUMETE Nº S/N,", CP 03195", TELF.96 665 82 67, ,HTTP://WWW.ELCHE.ES/BIBLIOTECAS,HTTP://XLPV.CULT.GVA.ES/CGINET-BIN/ABNETOP?SUBC=0041,BIBLIOTECA.ALTET@AYTO-ELCHE.ES,N,PU,PÚBLICA,N,37.9149479,-0.7232152
130,3,ALICANTE,65,BIBLIOTECA PUBLICA MUNICIPAL,BIBLIOTECA PUBLICA MUNICIPAL JOSE FUENTES (TORRELLANO) ELX,PLAZA MESTRE ANTONI CUTILLAS  Nº S/N,", CP 03320", TELF.966659211, ,HTTP://WWW.ELCHE.ES/BIBLIOTECAS,HTTP://XLPV.CULT.GVA.ES/CGINET-BIN/ABNETOP?SUBC=0041,BIBLIOTECA.TORRELLANO@AYTO-ELCHE.ES,N,PU,PÚBLICA,N,39.4840108,-0.7532808999999999
131,3,ALICANTE,65,BIBLIOTECA HOSPITALARIA,BIBLIOTECA HOSPITALARIA HOSPITAL GENERAL UNIVERSITARIO SAP ELX,CALLE HUERTO Y MOLINOS Nº S/N,", CP 03202", TELF.965453449-EXT 13, FAX.965424444, , ,ELCHECOORDINACION@CRUZROJA.ES,N,PU,PÚBLICA,N,38.1052147,-0.9179523
132,3,ALICANTE,65,BIBLIOTECA UNIVERSITARIA,BIBLIOTECA UNIVERSITARIA CARDENAL HERRERA-CEU ELX,CALLE CARMELITAS Nº 3,", CP 03203", TELF.965426486, FAX.965459561, ,HTTP://WWW.UCH.CEU.ES,MILAN.EL@UCH.CEU.ES,N,PR,PRIVADA,N,38.0806429,-0.9421866000000001
133,3,ALICANTE,65,BIBLIOTECA PUBLICA MUNICIPAL,BIBLIOTECA PUBLICA MUNICIPAL RAFAEL NAVARRO ELX,AVENIDA DE LA ALEGRIA Nº 72,", CP 03194", TELF.965419577, ,HTTP://WWW.ELCHE.ES/BIBLIOTECAS,HTTP://XLPV.CULT.GVA.ES/CGINET-BIN/ABNETOP?SUBC=0041,BIBLIOTECA.MARINA@AYTO-ELCHE.ES,N,PU,PÚBLICA,N,38.1446297,-0.6460732
134,3,ALICANTE,65,BIBLIOTECA PUBLICA MUNICIPAL,BIBLIOTECA PUBLICA MUNICIPAL AURELIA IBARRA ELX,CALLE ANTONIO BROTONS PASTOR Nº 72,", CP 03205", TELF.966658117, FAX.965464680,HTTP://WWW.ELCHE.ES/BIBLIOTECAS,HTTP://XLPV.CULT.GVA.ES/CGINET-BIN/ABNETOP?SUBC=0041,BIBLIOTECA.CARRUS@AYTO-ELCHE.ES,N,PU,PÚBLICA,N,38.2703865,-0.7135313
135,3,ALICANTE,66,BIBLIOTECA PUBLICA MUNICIPAL,BIBLIOTECA PUBLICA MUNICIPAL FUNDACION PAURIDES GONZALEZ VIDAL ELDA,CALLE CARDENAL CISNEROS Nº 2-4,", CP 03600", TELF.965386546, ,HTTP://WWW.ELDA.ES/,HTTP://XLPV.CULT.GVA.ES/CGINET-BIN/ABNETOP?SUBC=0018,RDAVIA@ELDA.ES,N,PU,PÚBLICA,S,38.9722016,-0.1774849
136,3,ALICANTE,66,BIBLIOTECA PUBLICA MUNICIPAL,BIBLIOTECA PUBLICA MUNICIPAL ALBERTO NAVARRO PASTOR ELDA,CALLE PADRE MANJON Nº 18,", CP 03600", TELF.966989229/965391272, FAX.966980657,HTTP://WWW.ELDA.ES/,HTTP://XLPV.CULT.GVA.ES/CGINET-BIN/ABNETOP?SUBC=0018,BIBLIOANAVARRO@ELDA.ES / RDAVIA@ELDA.ES,S,PU,PÚBLICA,S,38.4753777,-0.793144
137,3,ALICANTE,66,CENTRO DE DOCUMENTACION,CENTRO DE DOCUMENTACION INESCOP-INSTITUTO TECNOLÓGICO DEL CALZADO Y CONEXAS ELDA,POLÍGONO INDUSTRIAL CAMPO ALTO - CRA.ELDA-MONÓVAR Nº S/N,", CP 03600", TELF.965380062/5395213, FAX.965381045,HTTP://WWW.INESCOP.ES, ,DOCUMENTACION@INESCOP.ES,N,PR,PRIVADA,N,38.4628457,-0.8177055999999999
138,3,ALICANTE,66,BIBLIOTECA ESPECIALIZADA,BIBLIOTECA ESPECIALIZADA CEFIRE ELDA,CALLE SAN CRISPÍN Nº 14,", CP 03600", TELF.965394639, FAX.966980036,HTTP://INTERCENTRES.CULT.GVA.ES/CEFIRE/03402061,HTTP://WWW.BEGV.GVA.ES/CEFIRE/VAL_TLPCEF.HTML,03402061@EDU.GVA.ES,N,PU,PÚBLICA,N,38.4739364,-0.7909488
139,3,ALICANTE,66,PUNTO DE SERVICIO EXTERNO,PUNTO DE SERVICIO EXTERNO MERCADO ELDA,MERCADO CENTRAL CASETA 138,", CP 03600", TELF.965390229, , , , ,N,PU,PÚBLICA,N,39.4735895,-0.3789726
140,3,ALICANTE,66,AGENCIA DE LECTURA,AGENCIA DE LECTURA PLAZA ESPAÑA  BARRIO LAS TRESCIENTAS ELDA,CALLE ALFONSO XIII Nº S/N,", CP 03600", TELF.965399343, FAX.966980657,HTTP://WWW.ELDA.ES/,HTTP://XLPV.CULT.GVA.ES/CGINET-BIN/ABNETOP?SUBC=0018,RDAVIA@ELDA.ES,N,PU,PÚBLICA,N,39.4840108,-0.7532808999999999
141,3,ALICANTE,69,BIBLIOTECA PUBLICA MUNICIPAL,BIBLIOTECA PUBLICA MUNICIPAL MUNICIPAL ELS NOSTRES MESTRES FINESTRAT,CALLE SAN JOSÉ Nº 10,", CP 03509", TELF.965878304, FAX.965878308 AYTO, , ,PESTELA@FINESTRAT.ORG,N,PU,PÚBLICA,N,39.4988104,-0.4262115
142,3,ALICANTE,70,OTRAS PÚBLICAS,OTRAS PÚBLICAS  FORMENTERA DEL SEGURA,CALLE ALICANTE Nº 6 PISO 2,", CP 03179", TELF.966792143, FAX.966792240 AYTO, , ,BIBLIOTECA_FORMENTERADELSEGURA@HOTMAIL.COM,N,PU,PÚBLICA,N,39.4667167,-0.3766988000000001
143,3,ALICANTE,71,BIBLIOTECA PUBLICA MUNICIPAL,BIBLIOTECA PUBLICA MUNICIPAL MUNICIPAL CENTRE SOCIAL GATA DE GORGOS,CALLE LA BASSA Nº S/N PISO 1,", CP 03740", TELF.965757872, ,HTTP://BIBLIOTECAGATADEGORGOS.BLOGSPOT.COM,HTTP://XLPV.CULT.GVA.ES/CGINET-BIN/ABNETOP?SUBC=0061,BIBLIOTECA@GATADEGORGOS.ES,N,PU,PÚBLICA,S,38.7747015,0.0836837
144,3,ALICANTE,72,AGENCIA DE LECTURA,AGENCIA DE LECTURA JULIA PÉREZ GAIANES,CALLE HORT Nº 23,", CP 03840", TELF.965515130, FAX.965515247 AYTO, , ,GAIANES@GAIANES.ES,N,PU,PÚBLICA,N,39.1854914,-0.4809527
145,3,ALICANTE,74,OTRAS PÚBLICAS,OTRAS PÚBLICAS JOAQUÍN CARTAGENA ALDEGUER GRANJA DE ROCAMORA,CALLE IGLESIA Nº 9 PISO 1,", CP 03348", TELF.965360134, FAX.966750322/966750494, , ,AGENCIALECTURAGRANJA@HOTMAIL.COM,N,PU,PÚBLICA,N,39.445774,-0.5068302
146,3,ALICANTE,75,OTRAS PÚBLICAS,OTRAS PÚBLICAS  CASTELL DE GUADALEST (EL),CALLE AIXORTÀ Nº 2,", CP 03517", TELF.965885143, , , ,BIBLIO.ELCASTELL@GMAIL.COM,N,PU,PÚBLICA,N,38.6755847,-0.2003472
147,3,ALICANTE,76,BIBLIOTECA PUBLICA MUNICIPAL,BIBLIOTECA PUBLICA MUNICIPAL  GUARDAMAR DEL SEGURA,CALLE SANT JAUME Nº 5,", CP 03140", TELF.966727170, FAX.965727128,HTTP://WWW.BIBLIOTECASPUBLICAS.ES/GUARDAMARDELSEGURA/INDEX.JSP,HTTP://XLPV.CULT.GVA.ES/CGINET-BIN/ABNETOP?SUBC=0034,BIBLIMAR@GMAIL.COM,N,PU,PÚBLICA,S,39.4767178,-0.3799332
148,3,ALICANTE,77,OTRAS PÚBLICAS,OTRAS PÚBLICAS  FONDÓ DE LES NEUS (EL),CALLE VEREDA Nº 17,", CP 03688", TELF.965480201 AYTO, FAX.965480480 AYTO, , ,AYUNTAMIENTO@AYTO-HONDONDELASNIEVES.ES,N,PU,PÚBLICA,N,38.3009573,-0.9805606000000001
149,3,ALICANTE,79,BIBLIOTECA PUBLICA MUNICIPAL,BIBLIOTECA PUBLICA MUNICIPAL  IBI,AVENIDA DE LA INDUSTRIA Nº 5,", CP 03440", TELF.966553593, FAX.966550546,HTTP://WWW.IBI.ES,HTTP://XLPV.CULT.GVA.ES/CGINET-BIN/ABNETOP?SUBC=0007,BIBLIOTECA@IBI.ES ,N,PU,PÚBLICA,N,38.4051645,-0.5363066
150,3,ALICANTE,79,CENTRO DE DOCUMENTACION,CENTRO DE DOCUMENTACION AIJU-INSTITUTO TECNOLÓGICO DEL JUGUETE IBI,AVENIDA DE LA INDUSTRIA Nº 23,", CP 03440", TELF.965554475, FAX.965554490,HTTP://WWW.AIJU.INFO, ,INFORMACION@AIJU.INFO,N,PR,PRIVADA,N,38.4057326,-0.5361036
151,3,ALICANTE,80,AGENCIA DE LECTURA,AGENCIA DE LECTURA AJUNTAMENT JACARILLA,PASAJE DE LA IGLESIA Nº S/N,", CP 03310", TELF.966771043/5350375, FAX.966770434 AYTO, , ,JACARILLA.ALECTURA@GMAIL.COM,N,PU,PÚBLICA,N,39.4740995,-0.3764627
152,3,ALICANTE,81,AGENCIA DE LECTURA,AGENCIA DE LECTURA  XALÓ,AVENIDA PLA DE LA HUERTA Nº 7 ESC. A,", CP 03727", TELF.966480912, ,HTTP://XLPV.CULT.GVA.ES/CGINET-BIN/ABNETOP?SUBC=0155,HTTP://XLPV.CULT.GVA.ES/CGINET-BIN/ABNETOP?SUBC=0155,BIBLIOTECA@XALO.ORG,N,PU,PÚBLICA,S,39.4442995,-0.4125181000000001
153,3,ALICANTE,82,AGENCIA DE LECTURA,AGENCIA DE LECTURA DUANES XÀBIA,AVENIDA BOTANIC CABANILLES Nº 17,", CP 03730", TELF.966462652, ,HTTP://WWW.BIBLIOTECASPUBLICAS.ES/GENERICO/INDEX.JSP?SEDEWEB=337&PW=1,HTTP://XLPV.CULT.GVA.ES/CGINET-BIN/ABNETOP?SUBC=0067,SALA.LECTURA@AJXABIA.ORG,N,PU,PÚBLICA,N,38.7932795,0.1771725
154,3,ALICANTE,82,BIBLIOTECA PUBLICA MUNICIPAL,BIBLIOTECA PUBLICA MUNICIPAL  XÀBIA,CALLE MAJOR Nº 9 ESC.   PISO 2,", CP 03730", TELF.965793938, ,HTTP://WWW.BIBLIOTECASPUBLICAS.ES/GENERICO/INDEX.JSP?SEDEWEB=337&PW=1,HTTP://XLPV.CULT.GVA.ES/CGINET-BIN/ABNETOP?SUBC=0067,BIBLIOTECA@AJXABIA.ORG,S,PU,PÚBLICA,N,39.6690402,-0.3396694
155,3,ALICANTE,83,BIBLIOTECA PRIVADA,BIBLIOTECA PRIVADA SOCIETAT EL TRABAJO XIXONA,AVENIDA CONSTITUCIÓ Nº 19,", CP 03100", TELF.965610110/5610647, , , , ,N,PR,PRIVADA,N,39.4843908,-0.3789368
156,3,ALICANTE,83,BIBLIOTECA PUBLICA MUNICIPAL,BIBLIOTECA PUBLICA MUNICIPAL FERNANDO GALIANA CARBONELL XIXONA,CALLE TERRADETS Nº S/N,", CP 03100", TELF.965612320/965610500, ,HTTP://WWW.XIXONA.ES/ES/RESUMEN/SERVICIOS-MUNICIPALES/BIBLIOTECA/,HTTP://XLPV.CULT.GVA.ES/CGINET-BIN/ABNETOP?SUBC=0105,BIBLIOTECA@XIXONA.ES,N,PU,PÚBLICA,S,38.538664,-0.5063132
157,3,ALICANTE,85,OTRAS PÚBLICAS,OTRAS PÚBLICAS  LLÍBER,CALLE DE LA PAZ.ESQUINA C. SAN ROQUE Nº 2,", CP 03729", TELF.965730509 AYTO, FAX.965731770 AYTO, , ,AYTOLLIBER@TERRA.ES  ,N,PU,PÚBLICA,N,39.4732818,-0.3729799
158,3,ALICANTE,86,AGENCIA DE LECTURA,AGENCIA DE LECTURA  MILLENA,PLAZA DE LA IGLESIA Nº 1,", CP 03812", TELF.965511072 AYTO, FAX.965511240 AYTO, , ,MILLENA@TERRA.ES,N,PU,PÚBLICA,N,39.4827135,-0.3970395
159,3,ALICANTE,88,BIBLIOTECA PUBLICA MUNICIPAL,BIBLIOTECA PUBLICA MUNICIPAL  MONFORTE DEL CID,CALLE JUAN DE LA TORRE Nº 8,", CP 03670", TELF.966195733, FAX.966195759,HTTP://WWW.MONFORTEDELCID.ES/SERVICIOS.ASP?ID_SECCION=1  BIBLIOTECAMONFORTEDELCID.BLOGSPOT.COM,HTTP://XLPV.CULT.GVA.ES/CGINET-BIN/ABNETOP?SUBC=0124,BIBLIOMONFORTE@DIP-ALICANTE.ES / BIBLIOTECA@MONFORTEDELCID.ES  ,N,PU,PÚBLICA,S,38.37863,-0.72927
160,3,ALICANTE,89,BIBLIOTECA PUBLICA MUNICIPAL,BIBLIOTECA PUBLICA MUNICIPAL CASA DE CULTURA MONÒVER,CALLE MAESTRO DON JOAQUIN Nº 8,", CP 03640", TELF.965470914, FAX.966960918,HTTP://WWW.BIBLIOTECASPUBLICAS.ES/MONOVAR/INDEX.JSP,HTTP://XLPV.CULT.GVA.ES/CGINET-BIN/ABNETOP?SUBC=0074,BIBLIOTECA@MONOVAR.ES  /  MONOCULT@DIP-ALICANTE.ES,N,PU,PÚBLICA,N,39.4840108,-0.7532808999999999
161,3,ALICANTE,89,BIBLIOTECA ESPECIALIZADA,BIBLIOTECA ESPECIALIZADA CASA-MUSEO AZORÍN (LA CAM) MONÒVER,BLOQUE SALAMANCA Nº 6,", CP 03640", TELF.965470715, FAX.965473034,HTTP://WWW.OBRASOCIAL.CAM.ES/CASAMUSEOAZORIN/HOME.ASP, ,CMAZORIN@OBS.CAM.ES,N,PR,PRIVADA,N,40.9701039,-5.663539699999999
162,3,ALICANTE,9,BIBLIOTECA PUBLICA MUNICIPAL,BIBLIOTECA PUBLICA MUNICIPAL CENTRAL ALCOI,AVENIDA PAIS VALENCIA Nº 1,", CP 03801", TELF.965537143, FAX.965537180,HTTP://WWW.ALCOI.ORG/ES/AREAS/CULTURA/BIBLIOTECA/,HTTP://XLPV.CULT.GVA.ES/CGINET-BIN/ABNETOP?SUBC=0002,BIBLIOTECA@ALCOI.ORG,S,PU,PÚBLICA,S,38.6462225,0.0492276
163,3,ALICANTE,9,BIBLIOTECA UNIVERSITARIA,BIBLIOTECA UNIVERSITARIA DE E P S  DE ALCOI-UPV ALCOI,PLAZA CARBONELL Y FERRÁNDIZ-ED. CARBONELL,", CP 03801", TELF.966528530 EXT-28530, ,HTTP://WWW.UPV.ES/BIB/BIBLIOTECAS/BIB_EPSALCOI/BIB_ALCOI_C.HTML,HTTP://WWW.UPV.ES/PLS/OBIB/CAT_BIBLIO.MENU?P_IDIOMA=C&P_ESTILO=300,BIBALCOY@UPVNET.UPV.ES,N,PU,PÚBLICA,N,38.6944345,-0.4760131
164,3,ALICANTE,9,BIBLIOTECA ESPECIALIZADA,BIBLIOTECA ESPECIALIZADA MUSEU ARQUEOLOGIC CAMIL VISEDO MOLTO ALCOI,PLAZA EL CARBO Nº 1,", CP 03801", TELF.965537144, FAX.965537182,HTTP://APL.ALCOI.ORG/WMUSEU/CASTELLANO/,HTTP://XLPV.CULT.GVA.ES/CGI-BIN/ABWEBP/L1/T1/S0113,MUSEU@ALCOI.ORG,N,PU,PÚBLICA,N,39.4840108,-0.7532808999999999
165,3,ALICANTE,9,AGENCIA DE LECTURA,AGENCIA DE LECTURA LA UIXOLA ALCOI,CALLE VICTOR ESPINOS Nº S/N,", CP 03803", TELF.965537156, ,HTTP://WWW.AJUALCOI.ORG/WBIBLIOTECA/CAS/PRINCIPAL.ASP,HTTP://XLPV.CULT.GVA.ES/CGINET-BIN/ABNETOP?SUBC=0002/02U,BIBLIOTECA@ALCOI.ORG,N,PU,PÚBLICA,S,38.6995011,-0.4832251
166,3,ALICANTE,9,BIBLIOTECA PUBLICA MUNICIPAL,BIBLIOTECA PUBLICA MUNICIPAL CENTRE SOCIAL ZONA NORD ALCOI,PLAZA BLAI DOMINGO LLIDO Nº 1,", CP 03804", TELF.965537157, ,HTTP://WWW.AJUALCOI.ORG/WBIBLIOTECA/CAS/PRINCIPAL.ASP,HTTP://XLPV.CULT.GVA.ES/CGINET-BIN/ABNETOP?SUBC=0002,BIBLIOTECA@ALCOI.ORG,N,PU,PÚBLICA,S,38.7058372,-0.4674517
167,3,ALICANTE,90,BIBLIOTECA PUBLICA MUNICIPAL,BIBLIOTECA PUBLICA MUNICIPAL NOTARI JOSEP BLANQUER MUTXAMEL,CALLE RAMON Y CAJAL (CASA DE LA CULTURA) Nº S/N,", CP 03110", TELF.965955328, FAX.965951477,HTTP://WWW.MUTXAMEL.ORG/,HTTP://XLPV.CULT.GVA.ES/CGINET-BIN/ABNETOP?SUBC=0035,BIBLIOTECA@MUTXAMEL.ORG,S,PU,PÚBLICA,N,38.4178412,-0.4413611
168,3,ALICANTE,90,AGENCIA DE LECTURA,AGENCIA DE LECTURA  MUTXAMEL,CALLE RAMON Y CAJAL Nº S/N,", CP 03110", TELF.965951477, FAX.965951477,HTTP://WWW.MUTXAMEL.ORG/,HTTP://XLPV.CULT.GVA.ES/CGINET-BIN/ABNETOP?SUBC=0035,BIBLIOTECA@MUTXAMEL.ORG,N,PU,PÚBLICA,N,39.2941642,-0.4153142
169,3,ALICANTE,901,AGENCIA DE LECTURA,AGENCIA DE LECTURA ELS POBLETS ENRIC VALOR SETLA,AVENIDA MESTRE VICENT Nº 5-7,", CP 03779", TELF.966475368, FAX.966474287 AYTO, , ,BIBLIOTECA@ELSPOBLETS.ES,N,PU,PÚBLICA,N,38.84945,0.0187699
170,3,ALICANTE,902,BIBLIOTECA PUBLICA MUNICIPAL,BIBLIOTECA PUBLICA MUNICIPAL  PILAR DE LA HORADADA,CALLE CARRETILLAS Nº 19,", CP 03190", TELF.965351124, FAX.965352072,HTTP://XLPV.CULT.GVA.ES/CGINET-BIN/ABNETOP?SUBC=0101,HTTP://XLPV.CULT.GVA.ES/CGINET-BIN/ABNETOP?SUBC=0101,CASA-CULTURA@PILARDELAHORADADA.ORG,N,PU,PÚBLICA,S,37.8615554,-0.7915086
171,3,ALICANTE,903,OTRAS PÚBLICAS,OTRAS PÚBLICAS  MONTESINOS (LOS),CALLE DIVINO PASTOR Nº 6,", CP 03187", TELF.966721087 AYTO, FAX.966721004 AYTO, , ,BIBLIOTECA@LOSMONTESINOS.ORG,N,PU,PÚBLICA,N,38.0273343,-0.7449454999999999
172,3,ALICANTE,904,AGENCIA DE LECTURA,AGENCIA DE LECTURA  SAN ISIDRO,CALLE MAYOR Nº 1,", CP 03349", TELF.965485671 AYTO, FAX.965487268 AYTO, , , ,N,PU,PÚBLICA,N,39.6691624,-0.3392284
173,3,ALICANTE,92,BIBLIOTECA PUBLICA MUNICIPAL,BIBLIOTECA PUBLICA MUNICIPAL FRANCESC DE PAULA MOMBLANCH MURO DE ALCOY,PLAZA DE LA VILA Nº 3,", CP 03830", TELF.965531768, FAX.965531768,HTTP://WWW.VILADEMURO.NET/,HTTP://XLPV.CULT.GVA.ES/CGINET-BIN/ABNETOP?SUBC=0020,BIBLIOTECA@VILADEMURO.NET,N,PU,PÚBLICA,S,38.8211006,-0.6104630999999999
174,3,ALICANTE,93,BIBLIOTECA ESPECIALIZADA,BIBLIOTECA ESPECIALIZADA CASA-MUSEO MODERNISTA (LA CAM) NOVELDA,CALLE MAYOR Nº 24,", CP 03660", TELF.965600237, FAX.965601062,HTTP://WWW.CAM.ES/, ,MNAVARRO@CAJAMEDITERRANEO.ES,N,PR,PRIVADA,N,39.6690789,-0.3402206
175,3,ALICANTE,93,BIBLIOTECA PUBLICA MUNICIPAL,BIBLIOTECA PUBLICA MUNICIPAL JORGE JUAN-CENTRO CULTURAL GOMEZ TORTOSA NOVELDA,CALLE JAUME II Nº 3,", CP 03660", TELF.965609053, FAX.965609124,HTTP://XLPV.CULT.GVA.ES/CGINET-BIN/ABNETOP?SUBC=0021,HTTP://XLPV.CULT.GVA.ES/CGINET-BIN/ABNETOP?SUBC=0021,BIBLIOTECA@NOVELDA.NET,N,PU,PÚBLICA,N,39.4962449,-0.3980535
176,3,ALICANTE,94,BIBLIOTECA PUBLICA MUNICIPAL,BIBLIOTECA PUBLICA MUNICIPAL  NUCIA (LA),PLAZA DE LA ALMASSERA Nº 1,", CP 03530", TELF.966897570 , FAX.966895231,HTTP://XLPV.CULT.GVA.ES/CGINET-BIN/ABNETOP?SUBC=0062,HTTP://XLPV.CULT.GVA.ES/CGINET-BIN/ABNETOP?SUBC=0062,BIBLIOTECA@LANUCIA.ES,N,PU,PÚBLICA,N,38.823125,-0.5465456
177,3,ALICANTE,94,AGENCIA DE LECTURA,AGENCIA DE LECTURA CARAVANA NUCIA (LA),URBANIZACIÓN CARAVANA Nº 10,", CP 03530", TELF.966875827, ,HTTP://XLPV.CULT.GVA.ES/CGINET-BIN/ABNETOP?SUBC=0062,HTTP://XLPV.CULT.GVA.ES/CGINET-BIN/ABNETOP?SUBC=0062,SLCARAVANA@LANUCIA.ES,N,PU,PÚBLICA,S,39.4840108,-0.7532808999999999
178,3,ALICANTE,95,BIBLIOTECA PUBLICA MUNICIPAL,BIBLIOTECA PUBLICA MUNICIPAL ENRIC VALOR ONDARA,PLAZA MAJOR Nº 10 PISO 2,", CP 03760", TELF.965766000-EXT 300, FAX.965766081 AYTO,HTTP://XLPV.CULT.GVA.ES/CGINET-BIN/ABNETOP?SUBC=0125,HTTP://XLPV.CULT.GVA.ES/CGINET-BIN/ABNETOP?SUBC=0125,BIBLIOTECA@ONDARA.ORG,N,PU,PÚBLICA,S,39.4226818,-0.3396999
179,3,ALICANTE,96,BIBLIOTECA PUBLICA MUNICIPAL,BIBLIOTECA PUBLICA MUNICIPAL AJUNTAMENT ONIL,AVENIDA CONSTITUCION Nº 21,", CP 03430", TELF.610926671/966544745, FAX.965564131 AYTO,HTTP://XLPV.CULT.GVA.ES/CGINET-BIN/ABNETOP?SUBC=0063,HTTP://XLPV.CULT.GVA.ES/CGINET-BIN/ABNETOP?SUBC=0063,BIENAL@AYTO-ONIL.ES,N,PU,PÚBLICA,S,39.4627538,-0.421793
180,3,ALICANTE,97,AGENCIA DE LECTURA,AGENCIA DE LECTURA  ORBA,CALLE LES ESCOLES Nº 1 PISO 1,", CP 03790", TELF.965584005, FAX.965583320 AYTO, , ,BIBLIORBA@GMAIL.COM,N,PU,PÚBLICA,N,39.3831245,-0.4115056
181,3,ALICANTE,98,AGENCIA DE LECTURA,AGENCIA DE LECTURA MAESTRO ANGEL LLORCA ORXETA,CALLE MAYOR Nº 98,", CP 03579", TELF.966855247, ,HTTP://XLPV.CULT.GVA.ES/CGINET-BIN/ABNETOP?SUBC=0168,HTTP://XLPV.CULT.GVA.ES/CGINET-BIN/ABNETOP?SUBC=0168, ,N,PU,PÚBLICA,S,39.6691281,-0.3402351
182,3,ALICANTE,99,BIBLIOTECA AUXILIAR ARCHIVO,BIBLIOTECA AUXILIAR ARCHIVO DE ORIHUELA ORIHUELA,PLAZA MARQUES DE RAFAL Nº 1,", CP 03300", TELF.965302497, FAX.966742297,HTTP://XLPV.CULT.GVA.ES/CGINET-BIN/ABNETOP?SUBC=AHPO,HTTP://XLPV.CULT.GVA.ES/CGINET-BIN/ABNETOP?SUBC=AHPO,MORENO_CES@GVA.ES,N,PU,PÚBLICA,N,38.0864201,-0.9455256000000001
183,3,ALICANTE,99,BIBLIOTECA UNIVERSITARIA,BIBLIOTECA UNIVERSITARIA EPSO UNIVERSIDAD MIGUEL HERNÁNDEZ ORIHUELA,"CARRETERA BENIEL, KM 3.2-CAMPUS ORIHUELA",", CP 03312", TELF.966749672, ,HTTP://WWW.UMH.ES/BIBLIOTECAS,HTTP://WWW.UMH.ES/BIBLIOTECAS/CATALOGO/,BIBLIO.ORI@UMH.ES,N,PU,PÚBLICA,N,38.0615148,-0.9843099
184,3,ALICANTE,99,BIBLIOTECA ESPECIALIZADA,BIBLIOTECA ESPECIALIZADA CEFIRE ORIHUELA,AVENIDA DR. GARCIA ROGEL Nº S/N,", CP 03300", TELF.966742725, FAX.966742736,HTTP://INTERCENTRES.CULT.GVA.ES/CEFIRE/03402290/,HTTP://WWW.BEGV.GVA.ES/CEFIRE/VAL_TLPCEF.HTML,03402290@EDU.GVA.ES,N,PU,PÚBLICA,N,38.0920031,-0.9393735999999999
185,3,ALICANTE,99,BIBLIOTECA UNIVERSITARIA,BIBLIOTECA UNIVERSITARIA LAS SALESAS UNIVERSIDAD MIGUEL HERNÁNDEZ CAMPUS ORIHUELA ORIHUELA,PLAZA LAS SALESAS-EDIFICIO CASA DEL PASO Nº S/N,", CP 03300", TELF.966749822, ,HTTP://WWW.UMH.ES/BIBLIOTECAS,HTTP://WWW.UMH.ES/BIBLIOTECAS/CATALOGO/,BIBLIO.ORI@UMH.ES,N,PU,PÚBLICA,N,38.0843553,-0.9507547
186,3,ALICANTE,99,BIBLIOTECA PUBLICA PROVINCIAL,BIBLIOTECA PUBLICA PROVINCIAL DE ORIHUELA FERNANDO DE LOAZES ORIHUELA,PLAZA RAMON SIJE Nº 1,", CP 03300", TELF.966904120, FAX.966904121/966904122,HTTP://WWW.BIBLIOTECASPUBLICAS.ES/ORIHUELA/INDEX.HTM,HTTP://XLPV.CULT.GVA.ES/CGINET-BIN/ABNETOP?SUBC=BORI,BPEO@GVA.ES  /  MORENO_CES@GVA.ES,N,PU,PÚBLICA,S,38.0863542,-0.9457114000000001
187,3,ALICANTE,99,BIBLIOTECA PUBLICA MUNICIPAL,BIBLIOTECA PUBLICA MUNICIPAL MARIA MOLINER ORIHUELA,PLAZA DE LA SALUD Nº 1,", CP 03300", TELF.965302891, , , ,BIBLIOTECAMARIAMOLINER@ORIHUELA.ES,N,PU,PÚBLICA,S,38.1169112,-0.9110764000000001
188,12,CASTELLÓN,10,AGENCIA DE LECTURA,AGENCIA DE LECTURA  ALMEDÍJAR,PLAZA DEL AYUNTAMIENTO Nº 3,", CP 12413", TELF.964137018 AYTO, FAX.964137018 AYTO, , , ,N,PU,PÚBLICA,N,39.4709155,-0.3770319
189,12,CASTELLÓN,100,AGENCIA DE LECTURA,AGENCIA DE LECTURA  SANT MATEU,CALLE SANTO DOMINGO Nº 34 PISO 1,", CP 12170", TELF.964156022, , , ,PATRONATCULTURA@SANTMATEU.COM,N,PU,PÚBLICA,N,39.4947951,-0.3748848
190,12,CASTELLÓN,102,AGENCIA DE LECTURA,AGENCIA DE LECTURA  SANTA MAGDALENA DE PULPIS,PLAZA ESPAÑA Nº 9 PISO 2,", CP 12597", TELF.964415070 AYTO, , , ,AYUNTSANTAMAGDALENA@YAHOO.ES,N,PU,PÚBLICA,N,39.4186205,-0.4018617
191,12,CASTELLÓN,104,BIBLIOTECA PUBLICA MUNICIPAL,BIBLIOTECA PUBLICA MUNICIPAL OBISPO JUAN BAUTISTA PEREZ SEGORBE,CALLE CRONISTA JAIME FAUS Nº S/N,", CP 12400", TELF.964713751, ,HTTP://BIBLIOTECA.SEGORBE.ES/,HTTP://XLPV.CULT.GVA.ES/CGINET-BIN/ABNETOP?SUBC=0190,CENTROCULTURAL@SEGORBE.ES,N,PU,PÚBLICA,S,39.4840108,-0.7532808999999999
192,12,CASTELLÓN,104,AGENCIA DE LECTURA,AGENCIA DE LECTURA  PEÑALBA,CALLE GELDO Nº 5,", CP 12414", TELF.964713276, , , ,JUVENTUDPEN@SEGORBE.ES,N,PU,PÚBLICA,N,39.8116347,-0.1432086
193,12,CASTELLÓN,106,OTRAS PÚBLICAS,OTRAS PÚBLICAS  SONEJA,CALLE MAYOR Nº 70,", CP 12480", TELF.964135085, FAX.964135513 AYTO, , ,BIBLIOTECA@SONEJA.COM,N,PU,PÚBLICA,S,39.6691281,-0.3402351
194,12,CASTELLÓN,107,AGENCIA DE LECTURA,AGENCIA DE LECTURA  SOT DE FERRER,CALLE VALENCIA Nº 41,", CP 12489", TELF.964135158/659866232, FAX.964135127 AYTO, , ,AYTSOT@HOTMAIL.COM,N,PU,PÚBLICA,N,39.4733082,-0.4097216
195,12,CASTELLÓN,108,OTRAS PÚBLICAS,OTRAS PÚBLICAS  SUERA,AVENIDA JAUME I Nº S/N,", CP 12223", TELF.964617375, FAX.964617255 AYTO, , ,PILIMP60@HOTMAIL.ES,N,PU,PÚBLICA,N,39.9945711,-0.0689003
196,12,CASTELLÓN,109,AGENCIA DE LECTURA,AGENCIA DE LECTURA  TALES,CALLE CONSTITUCIÓ Nº 1,", CP 12221", TELF.964613008, FAX.964613008, , ,TALES_PAZ@GVA.ES,N,PU,PÚBLICA,N,39.489342,-0.4523448
197,12,CASTELLÓN,11,AGENCIA DE LECTURA,AGENCIA DE LECTURA  ALMENARA,CALLE COLON Nº 1,", CP 12590", TELF.962623671, FAX.962623165 AYTO,HTTP://WWW.ALMENARA.ES/VA/BIBLIOTECA.PHP,HTTP://XLPV.CULT.GVA.ES/CGINET-BIN/ABNETOP?SUBC=0095,CESTRADA@ALMENARA.ES,N,PU,PÚBLICA,S,39.4676019,-0.374604
198,12,CASTELLÓN,115,OTRAS PÚBLICAS,OTRAS PÚBLICAS  TORO (EL),CALLE VALENCIA Nº S/N,", CP 12429", TELF.964123001 AYTO, FAX.964123042 AYTO, , ,ELTORO.SECRETARIA@CV.GVA.ES,N,PU,PÚBLICA,N,39.4703092,-0.3810444
199,12,CASTELLÓN,116,OTRAS PÚBLICAS,OTRAS PÚBLICAS  TORRALBA DEL PINAR,CALLE HORNO Nº 13,", CP 12225", TELF.964618106 AYTO, FAX.964618233, , ,TORRALBA_ALC@GVA.ES,N,PU,PÚBLICA,N,39.4840108,-0.7532808999999999
200,12,CASTELLÓN,117,BIBLIOTECA PUBLICA MUNICIPAL,BIBLIOTECA PUBLICA MUNICIPAL  TORREBLANCA,PLAZA SAN BARTOLOME Nº 1,", CP 12596", TELF.678701953, FAX.964420125 AYTO,HTTP://XLPV.CULT.GVA.ES/CGINET-BIN/ABNETOP?SUBC=0143,HTTP://XLPV.CULT.GVA.ES/CGINET-BIN/ABNETOP?SUBC=0143,PERSIVA_PEL@GVA.ES,N,PU,PÚBLICA,N,40.22124890000001,0.1951282
201,12,CASTELLÓN,12,AGENCIA DE LECTURA,AGENCIA DE LECTURA AYUNTAMIENTO ALTURA,CALLE SAN VICENTE Nº 9,", CP 12410", TELF.964146042/4146384, FAX.964146266 AYTO,HTTP://XLPV.CULT.GVA.ES/CGINET-BIN/ABNETOP?SUBC=0129,HTTP://XLPV.CULT.GVA.ES/CGINET-BIN/ABNETOP?SUBC=0129,BIBLIOTECA_ALTURA@HOTMAIL.COM,N,PU,PÚBLICA,S,39.47345869999999,-0.3757428
202,12,CASTELLÓN,124,OTRAS PÚBLICAS,OTRAS PÚBLICAS  VALL D'ALBA,PLAZA MAYOR Nº 2 PISO 5,", CP 12194", TELF.964320001 AYTO, FAX.964320522 AYTO, , ,VALLDALBA_ALC@GVA.ES,N,PU,PÚBLICA,N,38.6429386,0.0465465
203,12,CASTELLÓN,126,BIBLIOTECA PUBLICA MUNICIPAL,BIBLIOTECA PUBLICA MUNICIPAL M? DOLORES GARCIA SANCHEZ VALL D'UIXÓ (LA),PLAZA DEL MERCAT Nº 2,", CP 12600", TELF.964696536, FAX.964667662 AYTO,HTTP://WWW.BIBLIOTECASPUBLICAS.ES/LAVALL/,HTTP://XLPV.CULT.GVA.ES/CGINET-BIN/ABNETOP?SUBC=0025,BIBLIOTECA@LAVALLDUIXO.ES,S,PU,PÚBLICA,S,39.4733339,-0.3779157
204,12,CASTELLÓN,126,AGENCIA DE LECTURA,AGENCIA DE LECTURA LLEONARD MINGARRO VALL D'UIXÓ (LA),CALLE TRAVESIA DE ALBACETE Nº S/N,", CP 12600", TELF.964738660, ,HTTP://WWW.BIBLIOTECASPUBLICAS.ES/LAVALL/,HTTP://XLPV.CULT.GVA.ES/CGINET-BIN/ABNETOP?SUBC=0025,BIBLIOTECA@LAVALLDUIXO.ES,N,PU,PÚBLICA,S,38.994349,-1.8585424
205,12,CASTELLÓN,128,AGENCIA DE LECTURA,AGENCIA DE LECTURA  VILAFAMÉS,AVENIDA BARCELÓ Nº 8,", CP 12192", TELF.964329250, , , ,HERMINIA.AGUT@VILAFAMES.ES,N,PU,PÚBLICA,N,39.460877,-0.3527044
206,12,CASTELLÓN,128,CENTRO DE DOCUMENTACION,CENTRO DE DOCUMENTACION CIDA-CENTRO INTERNACIONAL DE DOCUMENTACIÓN ARTÍSTICA VILAFAMÉS,CALLE MESTRE BERNAT Nº 14,", CP 12192", TELF.964335129, FAX.964335129,HTTP://WWW.CIDAVILAFAMES.ES,HTTP://WWW.CIDAVILAFAMES.ES,CIDA@CIDAVILAFAMES.ES,N,PU,PÚBLICA,N,40.113509,-0.0539224
207,12,CASTELLÓN,129,AGENCIA DE LECTURA,AGENCIA DE LECTURA  VILAFRANCA,AVENIDA CASTELLO Nº 63,", CP 12150", TELF.964440814, FAX.964440814,HTTP://XLPV.CULT.GVA.ES/CGINET-BIN/ABNETOP?SUBC=0091,HTTP://XLPV.CULT.GVA.ES/CGINET-BIN/ABNETOP?SUBC=0091,BIBLIOTECA@AJUNTAMENTDEVILAFRANCA.ES,N,PU,PÚBLICA,N,39.9469417,-0.0912293
208,12,CASTELLÓN,132,AGENCIA DE LECTURA,AGENCIA DE LECTURA AYUNTAMIENTO VILANOVA D'ALCOLEA,CALLE LA TORRE Nº 45,", CP 12183", TELF.964707032 AYTO, FAX.964707152 AYTO, , ,VALCOLEA_AYT@GVA.ES,N,PU,PÚBLICA,N,38.2609527,-0.7065579
209,12,CASTELLÓN,135,BIBLIOTECA HOSPITALARIA,BIBLIOTECA HOSPITALARIA DEL PACIENTE DEL HOSPITAL DE LA PLANA VILA-REAL,CARRETERA DE VILA-REAL A BURRIANA KM. 0.5,", CP 12540", TELF.964357600/32, FAX.964357601, , ,MAGRO_DOL@GVA.ES,N,PU,PÚBLICA,N,,
210,12,CASTELLÓN,135,AGENCIA DE LECTURA,AGENCIA DE LECTURA BARRANQUET VILA-REAL,CALLE SOLADES Nº 25 PISO 1?,", CP 12540", TELF.964547230, ,HTTP://WWW.BIBLIOTECASPUBLICAS.ES/VILA-REAL/,HTTP://XLPV.CULT.GVA.ES/CGINET-BIN/ABNETOP?SUBC=0090,BIBLIOTECA@AJVILA-REAL.ES / JBERNAT@AJVILA-REAL.ES,N,PU,PÚBLICA,S,39.93806,-0.09679
211,12,CASTELLÓN,135,BIBLIOTECA INFANTIL,BIBLIOTECA INFANTIL  VILA-REAL,AVENIDA PIO XII Nº 43 PISO 1,", CP 12540", TELF.964547077, ,HTTP://WWW.BIBLIOTECASPUBLICAS.ES/VILA-REAL/,HTTP://XLPV.CULT.GVA.ES/CGINET-BIN/ABNETOP?SUBC=0090,BIBLIOTECA@AJVILA-REAL.ES / JBERNAT@AJVILA-REAL.ES,N,PU,PÚBLICA,N,39.484421,-0.3954323
212,12,CASTELLÓN,135,BIBLIOTECA UNIVERSITARIA,BIBLIOTECA UNIVERSITARIA CENTRO ASOCIADO-UNED VILA-REAL,CALLE JOSÉ RAMÓN BATALLA Nº 6,", CP 12540", , ,HTTP://WWW.UNED.ES/CA-VILA-REAL/BIBLIOTECA.HTM,HTTP://BIBLIO15.UNED.ES/,BIBLIOTECA@VILA-REAL.UNED.ES,N,PU,PÚBLICA,N,39.935237,-0.1043728
213,12,CASTELLÓN,135,BIBLIOTECA ESPECIALIZADA,BIBLIOTECA ESPECIALIZADA MUSEU DE LA CIUTAT CASA DE POLO VILA-REAL,CALLE JOAN FUSTER Nº 33,", CP 12540", TELF.964535859, FAX.964524920, , ,MUSEU@AJVILA-REAL.ES,N,PU,PÚBLICA,N,39.6816464,-0.2176987
214,12,CASTELLÓN,135,BIBLIOTECA AUXILIAR ARCHIVO,BIBLIOTECA AUXILIAR ARCHIVO  VILA-REAL,AVENIDA LA MURÀ Nº 14,", CP 12540", TELF.964547220, FAX.964547221, , ,ARXIU@AJVILA-REAL.ES,N,PU,PÚBLICA,N,39.9370911,-0.0993664
215,12,CASTELLÓN,135,BIBLIOTECA PUBLICA MUNICIPAL,BIBLIOTECA PUBLICA MUNICIPAL CENTRAL VILA-REAL,CALLE SOLADES Nº 25,", CP 12540", TELF.964547230, ,HTTP://WWW.BIBLIOTECASPUBLICAS.ES/VILA-REAL/,HTTP://XLPV.CULT.GVA.ES/CGINET-BIN/ABNETOP?SUBC=0090,BIBLIOTECA@AJVILA-REAL.ES / JBERNAT@AJVILA-REAL.ES,S,PU,PÚBLICA,S,39.93806,-0.09679
216,12,CASTELLÓN,135,AGENCIA DE LECTURA,AGENCIA DE LECTURA EL PILAR VILA-REAL,CALLE MARTI L'HUMA Nº 24,", CP 12540", TELF.964506817, ,HTTP://WWW.BIBLIOTECASPUBLICAS.ES/VILA-REAL/,HTTP://XLPV.CULT.GVA.ES/CGINET-BIN/ABNETOP?SUBC=0090,BIBLIOTECA@AJVILA-REAL.ES,N,PU,PÚBLICA,S,39.469995,-0.3906088
217,12,CASTELLÓN,136,AGENCIA DE LECTURA,AGENCIA DE LECTURA  VILAVELLA (LA),CALLE SANTA BARBARA Nº S/N,", CP 12526", TELF.964677448 (AYTO), ,HTTP://WWW.LAVILAVELLA.COM,HTTP://XLPV.CULT.GVA.ES/CGINET-BIN/ABNETOP?SUBC=0082,BIBLIOTECA@LAVILAVELLA.COM,N,PU,PÚBLICA,S,38.3489719,-0.4780289
218,12,CASTELLÓN,138,BIBLIOTECA ESPECIALIZADA,BIBLIOTECA ESPECIALIZADA CEFIRE(CASA DE CULTURA) VINARÒS,AVENIDA DE LA LIBERTAD Nº S/N,", CP 12500", TELF.964454552, FAX.964453039,HTTP://INTERCENTRES.CULT.GVA.ES/CEFIRE/12400640/,HTTP://WWW.BEGV.GVA.ES/CEFIRE/VAL_TLPCEF.HTML,DIREVINAROS@EDU.GVA.ES,N,PU,PÚBLICA,N,38.2673505,-0.7091069999999999
219,12,CASTELLÓN,138,BIBLIOTECA PRIVADA,BIBLIOTECA PRIVADA VICTOR CARRILLO DE L'ASSOCIACIÓ CULTURAL AMICS DE VINARÒS VINARÒS,CALLE SANT RAMÓN Nº 13,", CP 12500", TELF.964452708, ,HTTP://WWW.AMICSDEVINAROS.COM,HTTP://WWW.AMICSDEVINAROS.COM,INFO@AMICSDEVINAROS.COM,N,PR,PRIVADA,N,39.4781733,-0.3815844
220,12,CASTELLÓN,138,BIBLIOTECA PUBLICA MUNICIPAL,BIBLIOTECA PUBLICA MUNICIPAL  VINARÒS,PLAZA HORT DEL ESCRIBANO Nº S/N,", CP 12500", TELF.964459590, FAX.964407701 AYTO,HTTP://WWW.BIBLIOTECA.VINAROS.ES/,HTTP://XLPV.CULT.GVA.ES/CGINET-BIN/ABNETOP?SUBC=0115,BIBLIOTECA@VINAROS.ORG,N,PU,PÚBLICA,S,40.4712732,0.4734606
221,12,CASTELLÓN,139,OTRAS PÚBLICAS,OTRAS PÚBLICAS  VISTABELLA DEL MAESTRAT,CALLE RABAL DE LORETO Nº 55,", CP 12135", TELF.964389007 AYTO, FAX.964389001 AYTO, , , ,N,PU,PÚBLICA,N,39.4840108,-0.7532808999999999
222,12,CASTELLÓN,140,AGENCIA DE LECTURA,AGENCIA DE LECTURA  VIVER,PLAZA MAYOR Nº 1,", CP 12460", TELF.964141204/4141006, FAX.964141953 AYTO, , ,CRISVIVER@HOTMAIL.COM,N,PU,PÚBLICA,N,39.9860791,-0.03794869999999999
223,12,CASTELLÓN,15,AGENCIA DE LECTURA,AGENCIA DE LECTURA  ARGELITA,CARRETERA LUDIENTE Nº S/N,", CP 12230", TELF.964612139 AYTO, , , ,ARGELITA_ALC@GVA.ES,N,PU,PÚBLICA,S,40.053977,-0.3508164
224,12,CASTELLÓN,16,AGENCIA DE LECTURA,AGENCIA DE LECTURA  ARTANA,AVENIDA SIERRA ESPADAN Nº 114,", CP 12527", TELF.964611306, ,HTTP://XLPV.CULT.GVA.ES/CGINET-BIN/ABNETOP?SUBC=0130,HTTP://XLPV.CULT.GVA.ES/CGINET-BIN/ABNETOP?SUBC=0130,BIBLIO_ARTANA@HOTMAIL.COM,N,PU,PÚBLICA,N,39.96759,-0.25291
225,12,CASTELLÓN,17,AGENCIA DE LECTURA,AGENCIA DE LECTURA EL TURIO AYÓDAR,CARRETERA FUENTES  Nº 84,", CP 12224", TELF.964618129 AYTO, FAX.964618037 AYTO, , ,AYODAR_ALC@GVA.ES,N,PU,PÚBLICA,N,39.9993153,-0.3723087
226,12,CASTELLÓN,2,AGENCIA DE LECTURA,AGENCIA DE LECTURA  AÍN,PLAZA JOSE SORRIBES FUSTER Nº 1,", CP 12222", TELF.964629040 AYTO, FAX.964629040 AYTO,HTTP://XLPV.CULT.GVA.ES/CGINET-BIN/ABNETOP?SUBC=0116,HTTP://XLPV.CULT.GVA.ES/CGINET-BIN/ABNETOP?SUBC=0116,INFO@AJUNTAMENTDAIN.ES,N,PU,PÚBLICA,N,39.9008769,-0.3410842
227,12,CASTELLÓN,21,BIBLIOTECA PUBLICA MUNICIPAL,BIBLIOTECA PUBLICA MUNICIPAL MANUEL FERRANDIS IRLES BETXÍ,CALLE DOCTOR VICENTE ORTELLS Nº 1,", CP 12549", TELF.964622521, ,HTTP://WWW.AJUNTAMENTDEBETXI.COM/SERVEIS/BIBLIOTECA/BIBLIOTECA.ASP,HTTP://XLPV.CULT.GVA.ES/CGINET-BIN/ABNETOP?SUBC=0166,ARXIU@BETXI.ES,N,PU,PÚBLICA,S,40.6913202,-0.1761308
228,12,CASTELLÓN,22,AGENCIA DE LECTURA,AGENCIA DE LECTURA  BEJÍS,CALLE VIRGEN DEL LORETO Nº 2,", CP 12430", TELF.964120161 AYTO, FAX.964120224 AYTO, , ,INFO@BEJIS.ES,N,PU,PÚBLICA,N,38.86823210000001,-0.5161463
229,12,CASTELLÓN,27,BIBLIOTECA PUBLICA MUNICIPAL,BIBLIOTECA PUBLICA MUNICIPAL MANEL GARCIA I GRAU BENICARLÓ,CALLE VI DE CARLON Nº S/N,", CP 12580", TELF.964475660, FAX.964475908 AYTO,HTTP://WWW.AJUNTAMENTDEBENICARLO.ORG/BIB/PBIB-BIBLIOTECA.PHP3?G_IDIOMA=V,HTTP://XLPV.CULT.GVA.ES/CGINET-BIN/ABNETOP?SUBC=0029,CORREU.BIBLIOTECA@AJUNTAMENTDEBENICARLO.ORG,N,PU,PÚBLICA,N,40.4137099,0.4255862
230,12,CASTELLÓN,28,PUNTO DE SERVICIO EXTERNO,PUNTO DE SERVICIO EXTERNO VILLA ANA BENICÀSSIM,PASEO PILAR COLOMA Nº 35,", CP 12560", , , ,HTTP://XLPV.CULT.GVA.ES/CGINET-BIN/ABNETOP?SUBC=0030,CULTURA@BENICASSIM.ORG,N,PU,PÚBLICA,N,40.0528702,0.07669089999999999
231,12,CASTELLÓN,28,BIBLIOTECA PUBLICA MUNICIPAL,BIBLIOTECA PUBLICA MUNICIPAL F  PEREZ BAYER-CASA DE LA CULTURA BENICÀSSIM,CALLE MEDICO SEGARRA Nº 4,", CP 12560", TELF.964300962 EXT-248, FAX.964302605,HTTP://WWW.BIBLIOTECASPUBLICAS.ES/BENICASSIM/,HTTP://XLPV.CULT.GVA.ES/CGINET-BIN/ABNETOP?SUBC=0030,CULTURA@BENICASSIM.ORG,N,PU,PÚBLICA,S,39.4840108,-0.7532808999999999
232,12,CASTELLÓN,28,BIBLIOTECA MOVIL O TEMPORAL,BIBLIOTECA MOVIL O TEMPORAL JORGE COMÍN BENICÀSSIM,N/C ISLETA JORGE COMÍN Nº S/N,", CP 12560", TELF.964300962, , , , ,N,PU,PÚBLICA,N,40.1147476,-0.0536833
233,12,CASTELLÓN,28,BIBLIOTECA MOVIL O TEMPORAL,BIBLIOTECA MOVIL O TEMPORAL HELIÓPOLIS BENICÀSSIM,AVENIDA FERRANDIS SALVADOR Nº S/N,", CP 12560", TELF.964300962, , , , ,N,PU,PÚBLICA,N,39.9872013,0.0224865
234,12,CASTELLÓN,31,BIBLIOTECA PUBLICA MUNICIPAL,BIBLIOTECA PUBLICA MUNICIPAL  BORRIOL,CALLE REY DON JAIME Nº 7,", CP 12190", TELF.964322174, FAX.964321401 AYTO,HTTP://BIBLIOBORRIOL.BLOGSPOT.COM/, ,BIBLIO_BORRIOL@HOTMAIL.COM,N,PU,PÚBLICA,N,39.4756553,-0.3811141
235,12,CASTELLÓN,32,BIBLIOTECA PUBLICA MUNICIPAL,BIBLIOTECA PUBLICA MUNICIPAL CASA DE LA CULTURA BORRIANA,PLAZA DE LA MERCED Nº S/N,", CP 12530", TELF.964033961, FAX.964510184,HTTP://WWW.BIBLIOTECASPUBLICAS.ES/BURRIANA/INDEX.JSP,HTTP://BURRIANA-BIBLIOTECA.NO-IP.ORG/JOPAC/CONTROLADORCONOPAC,BIBLIOTECA.BURRIANA@GMAIL.COM,N,PU,PÚBLICA,S,39.472634,-0.3779563
236,12,CASTELLÓN,33,AGENCIA DE LECTURA,AGENCIA DE LECTURA  CABANES,CALLE TEATRE Nº S/N,", CP 12180", TELF.964657115, FAX.964331461 AYTO, , ,BIBLIOCABANES@CABANES.ES,N,PU,PÚBLICA,N,39.1639021,-0.2566657
237,12,CASTELLÓN,34,AGENCIA DE LECTURA,AGENCIA DE LECTURA CENTRO DE CULTURA CÀLIG,AVENIDA CONSTITUCIÓN Nº 5,", CP 12589", TELF.964492645, , , ,INFO@AJUNTAMENTDECALIG.ORG,N,PU,PÚBLICA,N,39.4627337,-0.4212263
238,12,CASTELLÓN,39,AGENCIA DE LECTURA,AGENCIA DE LECTURA  CASTELLNOVO,CALLE SECANO Nº S/N,", CP 12413", TELF.964137296, FAX.964137401 AYTO, , ,BIBLIOTECACASTELLNOVO@GMAIL.COM,N,PU,PÚBLICA,N,39.8623201,-0.4592534
239,12,CASTELLÓN,4,AGENCIA DE LECTURA,AGENCIA DE LECTURA  ALCOSSEBRE,CALLE SAN JOSÉ Nº 48-B,", CP 12579", TELF.964414226, , , ,AXIVERT_VIC@GVA.ES,N,PU,PÚBLICA,N,39.4195418,-0.3901673
240,12,CASTELLÓN,4,BIBLIOTECA PUBLICA MUNICIPAL,BIBLIOTECA PUBLICA MUNICIPAL EDIFICIO CESAL ALCALÀ DE XIVERT,PASEO HÉROES DE MARRUECOS Nº 2,", CP 12570", TELF.964150080, FAX.964410139 AYTO, , ,AXIVERT_EUG@GVA.ES,S,PU,PÚBLICA,N,39.4840108,-0.7532808999999999
241,12,CASTELLÓN,40,CENTRO DE DOCUMENTACION,CENTRO DE DOCUMENTACION DEL INSTITUTO DE PROMOCIÓN CERÁMICA CASTELLÓ DE LA PLANA,AVENIDA VALL D'UIXÓ Nº 25,", CP 12004", TELF.964359902, FAX.964359940,HTTP://WWW.IPC.ORG.ES,HTTP://WWW.IPC.ORG.ES/CENTRO_DOCUMENTACION.HTML,IPCDIP@DIPCAS.ES,N,PU,PÚBLICA,N,39.8203666,-0.2300692
242,12,CASTELLÓN,40,AGENCIA DE LECTURA,AGENCIA DE LECTURA LA SALERA CASTELLÓ DE LA PLANA,N/C CUADRA LA SALERA Nº S/N,", CP 12006", TELF.964241040, FAX.964246891,HTTP://XLPV.CULT.GVA.ES/CGINET-BIN/ABNETOP?SUBC=0047,HTTP://XLPV.CULT.GVA.ES/CGINET-BIN/ABNETOP?SUBC=0047, ,N,PU,PÚBLICA,S,39.9793081,-0.063392
243,12,CASTELLÓN,40,BIBLIOTECA PUBLICA PROVINCIAL,BIBLIOTECA PUBLICA PROVINCIAL DE CASTELLO CASTELLÓ DE LA PLANA,CALLE RAFALAFENA Nº 29,", CP 12003", TELF.964558380, FAX.964236557,HTTP://WWW.BIBLIOTECASPUBLICAS.ES/CASTELLON/,HTTP://XLPV.CULT.GVA.ES/CGINET-BIN/ABNETOP?SUBC=BPEC,BPEC@GVA.ES,N,PU,PÚBLICA,S,39.988569,-0.0308667
244,12,CASTELLÓN,40,BIBLIOTECA UNIVERSITARIA,BIBLIOTECA UNIVERSITARIA UNIVERSITAT JAUME I CASTELLÓ DE LA PLANA,EDIFICIO CAMPUS DEL RIU SEC,", CP 12071", TELF.964728761/62, FAX.964728778,HTTP://SIC.UJI.ES/CD/,HTTP://SIC.UJI.ES/CD/OPAC/CATALAN/,BIBLIOTECA@UJI.ES,N,PU,PÚBLICA,N,39.99635019999999,-0.0662532
245,12,CASTELLÓN,40,BIBLIOTECA MOVIL O TEMPORAL,BIBLIOTECA MOVIL O TEMPORAL BIBLIOBÚS DIPUTACIÓ DE CASTELLÓ CASTELLÓ DE LA PLANA,AVENIDA VALL D'UIXÓ Nº 25,", CP 12004", TELF.606399901/964359447, FAX.964359449,HTTP://WWW.DIPCAS.ES,HTTP://WWW2.DIPCAS.ES/DIP_PUBLICACIONES/DEFAULT.ASP,BIBLIOBUS@DIPCAS.ES,N,PU,PÚBLICA,N,39.8203666,-0.2300692
246,12,CASTELLÓN,40,CENTRO DE DOCUMENTACION,CENTRO DE DOCUMENTACION ALICER CASTELLÓ DE LA PLANA,AVENIDA DEL MAR Nº S/N,", CP 12003", TELF.964342424, FAX.964343225,HTTP://WEBITC.ITC.UJI.ES/PAGINAS/DEFAULT.ASPX, ,MJOSE@ITC.UJI.ES,N,PR,PRIVADA,N,39.9828027,-0.0228672
247,12,CASTELLÓN,40,CENTRO DE DOCUMENTACION,CENTRO DE DOCUMENTACION ITC-AICE CASTELLÓ DE LA PLANA,AVENIDA VICENT SOS BAYNAT-CAMPUS RIU SEC Nº S/N,", CP 12006", TELF.964342424, FAX.964342425,HTTP://WEBITC.ITC.UJI.ES/PAGINAS/DEFAULT.ASPX, ,MJOSE@ITC.UJI.ES,N,PR,PRIVADA,N,39.9945711,-0.0689003
248,12,CASTELLÓN,40,BIBLIOTECA ESPECIALIZADA,BIBLIOTECA ESPECIALIZADA COLEGIO DE ABOGADOS CASTELLÓ DE LA PLANA,CALLE TEMPRADO Nº 15,", CP 12002", TELF.964224798, FAX.964239451,HTTP://WWW.ICACS.COM, ,BIBLIOTECA@ICACS.COM,N,PR,PRIVADA,N,39.9834489,-0.0370239
249,12,CASTELLÓN,40,BIBLIOTECA ESPECIALIZADA,BIBLIOTECA ESPECIALIZADA COLEGIO TERRITORIAL DE ARQUITECTOS CASTELLÓ DE LA PLANA,CALLE ENSENYAMENT Nº 4,", CP 12001", TELF.964723535/4224158, FAX.964229400,HTTP://WWW.COACV.ORG/,HTTP://WWW.COACV.ORG/,LLEDO@CTAC.ES,N,PR,PRIVADA,N,39.4840108,-0.7532808999999999
250,12,CASTELLÓN,40,BIBLIOTECA ESPECIALIZADA,BIBLIOTECA ESPECIALIZADA DEL MUSEO DE BELLAS ARTES CASTELLÓ DE LA PLANA,AVENIDA HERMANOS BOU Nº 28,", CP 12003", TELF.964727526, FAX.964727521,HTTP://WWW2.DIPCAS.ES/MUSEOS/BELLESARTS/HOME.ASP, ,BIBLIOTECA@CULTURALCAS.COM,N,PU,PÚBLICA,N,39.9826363,-0.0300268
251,12,CASTELLÓN,40,BIBLIOTECA ESPECIALIZADA,BIBLIOTECA ESPECIALIZADA SIAP DE LA DIPUTACIÓ DE CASTELLÓ CASTELLÓ DE LA PLANA,AVENIDA GERMANS BOU-EDIFICI MUSEU Nº 28,", CP 12003", TELF.964359869, FAX.964359581, , ,ARQUEOLOGIA@DIPCAS.ES,N,PU,PÚBLICA,N,39.9824066,-0.0296172
252,12,CASTELLÓN,40,BIBLIOTECA PRIVADA,BIBLIOTECA PRIVADA DE LA SOCIEDAD CASTELLONENSE DE CULTURA CASTELLÓ DE LA PLANA,CALLE MAYOR Nº 87,", CP 12001", TELF.964727508, , , , ,N,PR,PRIVADA,N,39.4740082,-0.4125683
253,12,CASTELLÓN,40,BIBLIOTECA AUXILIAR ARCHIVO,BIBLIOTECA AUXILIAR ARCHIVO DE LA DIPUTACIÓN PROVINCIAL CASTELLÓ DE LA PLANA,AVENIDA VALL D'UIXÓ Nº 25 PISO 2,", CP 12004", TELF.964359704, FAX.964359916,HTTP://WWW.DIPCAS.ES, ,ARCHIVO@DIPCAS.ES,N,PU,PÚBLICA,N,39.8203666,-0.2300692
254,12,CASTELLÓN,40,BIBLIOTECA ESPECIALIZADA,BIBLIOTECA ESPECIALIZADA HOSPITAL LA MAGDALENA PROFESIONAL CASTELLÓ DE LA PLANA,CALLE CUADRA COLLET - PARTIDA BOVALAR Nº 32,", CP 12004", TELF.964730008, FAX.964730087, , ,HERRERO_LUI@GVA.ES,N,PU,PÚBLICA,N,39.98767,-0.25501
255,12,CASTELLÓN,40,BIBLIOTECA HOSPITALARIA,BIBLIOTECA HOSPITALARIA HOSPITAL GENERAL UNIVERSITARI DE CASTELLÓ CASTELLÓ DE LA PLANA,AVENIDA BENICASSIM Nº S/N,", CP 12004", TELF.964725000 EXT-454544, FAX.964726557, , ,QUERAL_LIN@GVA.ES,N,PU,PÚBLICA,N,40.002039,-0.040621
256,12,CASTELLÓN,40,BIBLIOTECA HOSPITALARIA,BIBLIOTECA HOSPITALARIA HOSPITAL LA MAGDALENA CASTELLÓ DE LA PLANA,CALLE CUADRA COLLET - PARTIDA BOVALAR Nº 32,", CP 12004", TELF.964730000 EXT-3245, FAX.964730087, , ,GARCES_GLO@GVA.ES,N,PU,PÚBLICA,N,39.98767,-0.25501
257,12,CASTELLÓN,40,AGENCIA DE LECTURA,AGENCIA DE LECTURA CENSAL CASTELLÓ DE LA PLANA,AVENIDA CASALDUCH Nº 84-BA,", CP 12005", TELF.964256293, ,HTTP://XLPV.CULT.GVA.ES/CGINET-BIN/ABNETOP?SUBC=0047,HTTP://XLPV.CULT.GVA.ES/CGINET-BIN/ABNETOP?SUBC=0047, ,N,PU,PÚBLICA,S,39.9767686,-0.0424636
258,12,CASTELLÓN,40,BIBLIOTECA UNIVERSITARIA,BIBLIOTECA UNIVERSITARIA CASA ABADÍA FUNDACIÓN CAJA CASTELLÓN CASTELLÓ DE LA PLANA,PLAZA DE LA HIERBA Nº S/N,", CP 12001", TELF.964232024, , , ,CASABADIA@FUNDACIONCAJACASTELLON.ES,N,PR,PRIVADA,N,39.9863563,-0.0513246
259,12,CASTELLÓN,40,AGENCIA DE LECTURA,AGENCIA DE LECTURA HERMANOS BOU CASTELLÓ DE LA PLANA,CALLE HERMANOS BOU Nº 26,", CP 12003", TELF.964224154, ,HTTP://XLPV.CULT.GVA.ES/CGINET-BIN/ABNETOP?SUBC=0047,HTTP://XLPV.CULT.GVA.ES/CGINET-BIN/ABNETOP?SUBC=0047, ,N,PU,PÚBLICA,N,39.9783665,-0.0125514
260,12,CASTELLÓN,40,BIBLIOTECA ESPECIALIZADA,BIBLIOTECA ESPECIALIZADA CENTRO INTERNACIONAL BANCAJA PARA LA PAZ Y EL DESARROLLO CASTELLÓ DE LA PLANA,CALLE ENMEDIO Nº 82,", CP 12001", TELF.964232551, FAX.964230212 ,HTTP://WWW.EPD.UJI.ES/, ,CIBPD@FUNDACIONCAJACASTELLON.ES,N,PR,PRIVADA,N,39.9868342,-0.0382269
261,12,CASTELLÓN,40,BIBLIOTECA PUBLICA MUNICIPAL,BIBLIOTECA PUBLICA MUNICIPAL  CASTELLÓ DE LA PLANA,CALLE MAJOR Nº 89,", CP 12001", TELF.964229502, ,HTTP://XLPV.CULT.GVA.ES/CGINET-BIN/ABNETOP?SUBC=0047,HTTP://XLPV.CULT.GVA.ES/CGINET-BIN/ABNETOP?SUBC=0047,CASTELLO_BIB@GVA.ES,S,PU,PÚBLICA,S,39.6688362,-0.3406423
262,12,CASTELLÓN,40,AGENCIA DE LECTURA,AGENCIA DE LECTURA JOAN BAPTISTA CAMPOS CRUAÑES CASTELLÓ DE LA PLANA,PLAZA PINTOR PORCAR Nº 1,", CP 12100", TELF.964281899, ,HTTP://XLPV.CULT.GVA.ES/CGINET-BIN/ABNETOP?SUBC=0047,HTTP://XLPV.CULT.GVA.ES/CGINET-BIN/ABNETOP?SUBC=0047, ,N,PU,PÚBLICA,S,39.9731552,0.0117891
263,12,CASTELLÓN,40,BIBLIOTECA ESPECIALIZADA,"BIBLIOTECA ESPECIALIZADA CÁMARA DE COMERCIO,INDUSTRIA Y NAVEGACIÓN CASTELLÓ DE LA PLANA",AVENIDA HERMANOS BOU Nº 79,", CP 12003", TELF.964356500, FAX.964356510,HTTP://WWW.CAMARACASTELLON.COM/BIBLIOTECA,HTTP://WWW.CAMARACASTELLON.COM/OTROS-SERVICIOS/BIBLIOTECA/CATALOGO/BUSQUEDA_MAIN.ASP?ID=6,MGARCIA@CAMARACASTELLON.COM  /  JAMARTINEZ@CAMARACASTELLON.COM,N,PR,PRIVADA,N,39.9817796,-0.0245841
264,12,CASTELLÓN,40,AGENCIA DE LECTURA,AGENCIA DE LECTURA PRIMER MOLI CASTELLÓ DE LA PLANA,PLAZA DEL PRIMER MOLI Nº S/N,", CP 12004", TELF.964224028, ,HTTP://XLPV.CULT.GVA.ES/CGINET-BIN/ABNETOP?SUBC=0047,HTTP://XLPV.CULT.GVA.ES/CGINET-BIN/ABNETOP?SUBC=0047, ,N,PU,PÚBLICA,N,39.99319,-0.0327799
265,12,CASTELLÓN,40,AGENCIA DE LECTURA,AGENCIA DE LECTURA ANTIGUA ESTACION CASTELLÓ DE LA PLANA,PLAZA ESPA?A Nº 1,", CP 12002", TELF.964203650, ,HTTP://XLPV.CULT.GVA.ES/CGINET-BIN/ABNETOP?SUBC=0047,HTTP://XLPV.CULT.GVA.ES/CGINET-BIN/ABNETOP?SUBC=0047, ,N,PU,PÚBLICA,N,39.4185108,-0.4007346000000001
266,12,CASTELLÓN,40,AGENCIA DE LECTURA,AGENCIA DE LECTURA SAN AGUSTIN-SAN MARCOS CASTELLÓ DE LA PLANA,CALLE ALBACETE Nº 27,", CP 12004", TELF.964254009, ,HTTP://XLPV.CULT.GVA.ES/CGINET-BIN/ABNETOP?SUBC=0047,HTTP://XLPV.CULT.GVA.ES/CGINET-BIN/ABNETOP?SUBC=0047, ,N,PU,PÚBLICA,N,39.46290190000001,-0.3841607
267,12,CASTELLÓN,40,AGENCIA DE LECTURA,AGENCIA DE LECTURA MANUEL AZAÑA CASTELLÓ DE LA PLANA,CALLE MANUEL AZA?A Nº 8,", CP 12006", TELF.964203659, ,HTTP://XLPV.CULT.GVA.ES/CGINET-BIN/ABNETOP?SUBC=0047,HTTP://XLPV.CULT.GVA.ES/CGINET-BIN/ABNETOP?SUBC=0047, ,N,PU,PÚBLICA,S,39.4840108,-0.7532808999999999
268,12,CASTELLÓN,40,BIBLIOTECA ESPECIALIZADA,BIBLIOTECA ESPECIALIZADA CEFIRE CASTELLÓ DE LA PLANA,CALLE JOSÉ PRADAS GALLÉN Nº S/N,", CP 12006", TELF.964239588/4239648, FAX.964239811,HTTP://INTERCENTRES.CULT.GVA.ES/CEFIRE/12400551/INDEX.HTM,HTTP://WWW.BEGV.GVA.ES/CEFIRE/VAL_TLPCEF.HTML,BIBLIOCASTELLO@EDU.GVA.ES,N,PU,PÚBLICA,N,39.9933817,-0.0599337
269,12,CASTELLÓN,40,BIBLIOTECA ESPECIALIZADA,BIBLIOTECA ESPECIALIZADA DIRECCIÓ GENERAL DE FAMILIA Y MUJER CASTELLÓ DE LA PLANA,CALLE ENSEÑANZA Nº 10,", CP 12001", TELF.964228014, FAX.964239567,HTTP://WWW.PRE.GVA.ES/DGM/TLPDGM.HTML ,HTTP://WWW.PRE.GVA.ES/DGM/TLPDGM.HTML ,BIBLIOTECA.DGMI_CAST@GVA.ES ,N,PU,PÚBLICA,N,39.6554856,-0.8925575
270,12,CASTELLÓN,40,BIBLIOTECA AUXILIAR ARCHIVO,BIBLIOTECA AUXILIAR ARCHIVO HISTORICO PROVINCIAL CASTELLÓ DE LA PLANA,CALLE RAFALAFENA Nº 29,", CP 12003", TELF.964 55 83 80, FAX.964 55 83 81,HTTP://WWW.BIBLIOTECASPUBLICAS.ES/CASTELLON/ESPO.HTM ,HTTP://XLPV.CULT.GVA.ES/CGINET-BIN/ABNETOP?SUBC=AHPC,AHPC@GVA.ES,N,PU,PÚBLICA,N,39.988569,-0.0308667
271,12,CASTELLÓN,40,BIBLIOTECA PRIVADA,BIBLIOTECA PRIVADA RAMELL CASTELLÓ DE LA PLANA,CALLE JORDI JOAN Nº 37,", CP 12003", TELF.653232337, ,HTTP://WWW.GRUPRAMELL.COM,HTTP://WWW.GRUPRAMELL.COM/BIBLIOTECA/CATALEG.HTM,RAMELL@GRUPRAMELL.COM,N,PR,PRIVADA,N,38.2508326,-0.8121845999999999
272,12,CASTELLÓN,40,CENTRO DE DOCUMENTACION,CENTRO DE DOCUMENTACION EUROPEA  UNIVERSITAT JAUME I CASTELLÓ DE LA PLANA,EDIFICIO BIB.CENTRAL.CAMPUS DEL RIU SEC ,", CP 12071", TELF.964728766, FAX.964728778,HTTP://SIC.UJI.ES/CD/CDE,HTTP://SIC.UJI.ES/CD/OPAC/SPANISH/,ALEIXAND@SG.UJI.ES / CDE@SG.UJI.ES,N,PU,PÚBLICA,N,40.0183604,-0.0924005
273,12,CASTELLÓN,43,AGENCIA DE LECTURA,AGENCIA DE LECTURA  CAUDIEL,PLAZA DE ESPAÑA Nº 2,", CP 12440", TELF.964144146/658856592, FAX.964144058 AYTO, , ,JOSEMA_@GMX.COM,N,PU,PÚBLICA,N,39.4659856,-0.3811072
274,12,CASTELLÓN,44,OTRAS PÚBLICAS,OTRAS PÚBLICAS  CERVERA DEL MAESTRE,CALLE SANTA BÁRBARA Nº 1,", CP 12578", TELF.964498001 AYTO, FAX.964498283 AYTO, , , ,N,PU,PÚBLICA,N,38.3448163,-0.4855755
275,12,CASTELLÓN,46,OTRAS PÚBLICAS,OTRAS PÚBLICAS  CIRAT,CALLE SAN BERNARDO Nº 1,", CP 12231", TELF.964143113 AYTO, FAX.964143240 AYTO, , ,JUANCIRAT@HOTMAIL.COM,N,PU,PÚBLICA,N,39.4840108,-0.7532808999999999
276,12,CASTELLÓN,48,OTRAS PÚBLICAS,OTRAS PÚBLICAS  CORTES DE ARENOSO,CALLE MAYOR Nº 1,", CP 12127", TELF.964383110 AYTO, FAX.964383025 AYTO, , ,INFO@CORTESDEARENOSO.ES,N,PU,PÚBLICA,N,39.6691624,-0.3392284
277,12,CASTELLÓN,49,AGENCIA DE LECTURA,AGENCIA DE LECTURA  COSTUR,PLAZA ESGLÉSIA Nº 7,", CP 12119", TELF.964388013 AYTO, FAX.964388463 AYTO, , ,AJUNTAMENT@COSTUR.ES,N,PU,PÚBLICA,N,38.9151099,-0.1947163
278,12,CASTELLÓN,5,BIBLIOTECA PUBLICA MUNICIPAL,BIBLIOTECA PUBLICA MUNICIPAL  ALCORA (L'),CALLE AGUA Nº 6,", CP 12110", TELF.964367322, FAX.964386455 AYTO,HTTP://WWW.ALCORA.ORG/ALCORA.HTM,HTTP://XLPV.CULT.GVA.ES/CGINET-BIN/ABNETOP?SUBC=0128,BIBLIOTECA@ALCORA.ORG,N,PU,PÚBLICA,N,37.9145432,-0.7362325
279,12,CASTELLÓN,50,AGENCIA DE LECTURA,AGENCIA DE LECTURA JOAN FUSTER COVES DE VINROMÀ (LES),PLAZA CERVANTES Nº S/N,", CP 12185", TELF.964426003/9 AYTO, FAX.964426002 AYTO, ,HTTP://XLPV.CULT.GVA.ES/CGINET-BIN/ABNETOP?SUBC=0186,BIBLIO1996@GMAIL.COM/JOANFUSTER.3166@CAJARURAL.COM,N,PU,PÚBLICA,S,39.1255055,-0.2922002
280,12,CASTELLÓN,53,AGENCIA DE LECTURA,AGENCIA DE LECTURA  XILXES,AVENIDA JAUME I Nº 6,", CP 12592", TELF.964583370, FAX.964590425 AYTO,HTTP://WWW.BIBLIOTECASPUBLICAS.ES/XILXES/,HTTP://XLPV.CULT.GVA.ES/CGINET-BIN/ABNETOP?SUBC=0162,BIBLIOTECA@XILXES.ES,N,PU,PÚBLICA,S,40.0371724,0.0403303
281,12,CASTELLÓN,57,AGENCIA DE LECTURA,AGENCIA DE LECTURA  ESLIDA,CALLE PRINCEP FELIP Nº 49,", CP 12528", TELF.964628000 AYTO, FAX.964628025 AYTO, , , ,N,PU,PÚBLICA,N,39.8818176,-0.3070386
282,12,CASTELLÓN,59,OTRAS PÚBLICAS,OTRAS PÚBLICAS  FANZARA,CALLE EL TURIO Nº 5,", CP 12230", TELF.964619001 AYTO, FAX.964619009 AYTO, , ,FANZARA_ALC@GVA.ES,N,PU,PÚBLICA,N,40.0184822,-0.3173927
283,12,CASTELLÓN,6,AGENCIA DE LECTURA,AGENCIA DE LECTURA  ALCUDIA DE VEO,CALLE LA FUENTE Nº 7,", CP 12222", TELF.964629056 AYTO, , , ,ALCUDIADEVEO_SEC@GVA.ES,N,PU,PÚBLICA,N,39.40235440000001,-0.5907213
284,12,CASTELLÓN,60,AGENCIA DE LECTURA,AGENCIA DE LECTURA  FIGUEROLES,PLAZA VILLALONGA Nº 14,", CP 12122", TELF.964381573 AYTO, FAX.964381633 AYTO, , ,FIGUEROLES_AYT@GVA.ES,N,PU,PÚBLICA,N,40.1162599,-0.23598
285,12,CASTELLÓN,61,AGENCIA DE LECTURA,AGENCIA DE LECTURA  FORCALL,PLAZA MAYOR Nº 13,", CP 12310", TELF.964171001 AYTO, FAX.964171001 AYTO, , ,BIBLIOTECA@FORCALL.ES,N,PU,PÚBLICA,N,40.8886895,-2.9436437
286,12,CASTELLÓN,64,AGENCIA DE LECTURA,AGENCIA DE LECTURA  FUENTES DE AYÓDAR,PLAZA SALVADOR SEGARRA Nº 15,", CP 12225", TELF.964618034 AYTO, FAX.964618085 AYTO, , , ,N,PU,PÚBLICA,N,40.0207477,-0.4197533
287,12,CASTELLÓN,67,AGENCIA DE LECTURA,AGENCIA DE LECTURA  GELDO,AVENIDA CASTELLÓN Nº 20,", CP 12412", TELF.964711209 AYTO, FAX.964711209 AYTO, , ,AGENCIALECTURA@GELDO.ES,N,PU,PÚBLICA,N,40.0401866,-0.0745656
288,12,CASTELLÓN,7,AGENCIA DE LECTURA,AGENCIA DE LECTURA  ALFONDEGUILLA,CALLE ACEQUIA Nº 18 PISO 2,", CP 12609", TELF.964661996, FAX.964667089 AYTO, , , ,N,PU,PÚBLICA,N,39.6040097,-0.7277374
289,12,CASTELLÓN,70,OTRAS PÚBLICAS,OTRAS PÚBLICAS  JANA (LA),CALLE LA CORT Nº 20,", CP 12340", TELF.964497049, , , ,INFO@LAJANA.ES,N,PU,PÚBLICA,N,40.4653095,0.1788846
290,12,CASTELLÓN,71,AGENCIA DE LECTURA,AGENCIA DE LECTURA AYUNTAMIENTO JÉRICA,CALLE DEL RÍO Nº 2,", CP 12450", TELF.964129173, FAX.964129045 AYTO, , ,BIBLIOTECA@JERICA.ES,N,PU,PÚBLICA,N,39.7257658,-0.9731057999999998
291,12,CASTELLÓN,72,AGENCIA DE LECTURA,AGENCIA DE LECTURA  LLUCENA,PLAZA D'ESPANYA Nº 22,", CP 12120", TELF.964380415, FAX.964380317 AYTO, , ,AYTOLUCENA@TERRA.ES,N,PU,PÚBLICA,N,39.1998967,-0.3133526
292,12,CASTELLÓN,74,AGENCIA DE LECTURA,AGENCIA DE LECTURA  LLOSA (LA),PLAZA DE ESPAÑA Nº 3 PISO 1,", CP 12591", TELF.962610542, , , ,AYUNTAMIENTO@LALLOSA.ES,N,PU,PÚBLICA,N,39.4658235,-0.3812176
293,12,CASTELLÓN,77,BIBLIOTECA PUBLICA MUNICIPAL,BIBLIOTECA PUBLICA MUNICIPAL CASA DE LA CULTURA MONCOFA,CALLE RAMON Y CAJAL Nº 6,", CP 12593", TELF.964577978, FAX.964580348 AYTO,HTTP://WWW.BIBLIOTECASPUBLICAS.ES/MONCOFA/INDEX.JSP,HTTP://XLPV.CULT.GVA.ES/CGINET-BIN/ABNETOP?SUBC=0123,BIBLIOTECA@MONCOFA.COM,N,PU,PÚBLICA,N,,
294,12,CASTELLÓN,78,AGENCIA DE LECTURA,AGENCIA DE LECTURA  MONTÁN,AVENIDA ANTONIO FORNÁS Nº 10,", CP 12447", TELF.964131002 AYTO, FAX.964131267 AYTO, , ,MONTAN@FVMP.ES,N,PU,PÚBLICA,N,40.0358771,-0.5532633
295,12,CASTELLÓN,8,AGENCIA DE LECTURA,AGENCIA DE LECTURA  ALGIMIA DE ALMONACID,CALLE LARGA Nº 56,", CP 12414", TELF.964139031 AYTO, FAX.964139059 AYTO, , ,AALMONACID_ALC@GVA.ES,N,PU,PÚBLICA,N,39.5913379,-0.4646531999999999
296,12,CASTELLÓN,80,AGENCIA DE LECTURA,AGENCIA DE LECTURA  MORELLA,CALLE COLOMER Nº 4,", CP 12300", TELF.964160987, ,HTTP://XLPV.CULT.GVA.ES/CGINET-BIN/ABNETOP?SUBC=0194,HTTP://XLPV.CULT.GVA.ES/CGINET-BIN/ABNETOP?SUBC=0194,ASVMASOS@OUTLOOK.COM,N,PU,PÚBLICA,S,39.4741098,-0.3812748
297,12,CASTELLÓN,82,BIBLIOTECA PUBLICA MUNICIPAL,BIBLIOTECA PUBLICA MUNICIPAL  NULES,CALLE MAYOR Nº 57,", CP 12520", TELF.964670635, FAX.964674931 AYTO, , ,BIBLIOTECA@NULES.ES,N,PU,PÚBLICA,N,39.4740331,-0.4146675
298,12,CASTELLÓN,84,BIBLIOTECA PUBLICA MUNICIPAL,BIBLIOTECA PUBLICA MUNICIPAL  ONDA,CALLE BALMES Nº 2 PISO 2,", CP 12200", TELF.964771193, FAX.964776432,HTTP://WWW.BIBLIOTECASPUBLICAS.ES/ONDA/,HTTP://XLPV.CULT.GVA.ES/CGINET-BIN/ABNETOP?SUBC=0111,BIBLIOTECA@ONDA.ES,N,PU,PÚBLICA,S,39.4730911,-0.381079
299,12,CASTELLÓN,85,BIBLIOTECA PUBLICA MUNICIPAL,BIBLIOTECA PUBLICA MUNICIPAL  ORPESA,CALLE CABANES Nº 1,", CP 12594", TELF.964313574, ,HTTP://XLPV.CULT.GVA.ES/CGINET-BIN/ABNETOP?SUBC=0050,HTTP://XLPV.CULT.GVA.ES/CGINET-BIN/ABNETOP?SUBC=0050,BIBLIOTECA@OROPESADELMAR.ES,N,PU,PÚBLICA,S,39.9881817,-0.0492637
300,12,CASTELLÓN,89,BIBLIOTECA PUBLICA MUNICIPAL,BIBLIOTECA PUBLICA MUNICIPAL  PENÍSCOLA,CALLE MESTRE BAYARRI Nº 2 PISO 3,", CP 12598", TELF.964477800, FAX.964489212 AYTO,HTTP://WWW.PENISCOLA.ORG/CA/BIBLIOTECA/95/BIBLIOTECA-PUBLICA-MUNICIPAL-DE-PENISCOLA.HTML,HTTP://XLPV.CULT.GVA.ES/CGINET-BIN/ABNETOP?SUBC=0173,BIBLIOTECA@PENISCOLA.ORG,N,PU,PÚBLICA,S,40.360179,0.4000165
301,12,CASTELLÓN,9,BIBLIOTECA PUBLICA MUNICIPAL,BIBLIOTECA PUBLICA MUNICIPAL  ALMASSORA,PLAZA DE ESPAÑA Nº 2,", CP 12550", TELF.964561329, FAX.964563051 AYTO,HTTP://XLPV.CULT.GVA.ES/CGINET-BIN/ABNETOP?SUBC=0056,HTTP://XLPV.CULT.GVA.ES/CGINET-BIN/ABNETOP?SUBC=0056,BIBLIOTECA@ALMASSORA.ES,N,PU,PÚBLICA,N,39.4659856,-0.3811072
302,12,CASTELLÓN,901,AGENCIA DE LECTURA,AGENCIA DE LECTURA  LES ALQUERIES,CALLE MOSSEN JUAN MIRALLES Nº 1,", CP 12539", TELF.964518001/4592000, ,HTTP://XLPV.CULT.GVA.ES/CGINET-BIN/ABNETOP?SUBC=0045,HTTP://XLPV.CULT.GVA.ES/CGINET-BIN/ABNETOP?SUBC=0045,BIBLIOTECA@LESALQUERIES.ES,N,PU,PÚBLICA,S,39.8968464,-0.1137994
303,12,CASTELLÓN,902,AGENCIA DE LECTURA,AGENCIA DE LECTURA  SANT JOAN DE MORÓ,PLAZA JOAN RENAU Nº S/N,", CP 12130", TELF.964701100, FAX.964701151 AYTO, , ,BIBLIOTECASJMORO@GMAIL.COM,N,PU,PÚBLICA,N,40.0606783,-0.1375875
304,12,CASTELLÓN,94,AGENCIA DE LECTURA,AGENCIA DE LECTURA  POBLA TORNESA (LA),CALLE ENMIG Nº 2,", CP 12191", TELF.964338278, FAX.964338003 AYTO, , ,BIBLIOPOBLA@GMAIL.COM,N,PU,PÚBLICA,N,38.92791,-0.25158
305,12,CASTELLÓN,95,AGENCIA DE LECTURA,AGENCIA DE LECTURA  RIBESALBES,CALLE CASTELLÓN Nº 12,", CP 12210", TELF.964625001 AYTO, FAX.964610049 AYTO, , ,INFO@RIBESALBES.ES,N,PU,PÚBLICA,N,39.4654469,-0.3762962
306,12,CASTELLÓN,96,AGENCIA DE LECTURA,"AGENCIA DE LECTURA CENTRO CÍVICO ""MOLÍ VELL"" ROSSELL",CALLE PLACETA Nº 7,", CP 12511", TELF.977571202 AYTO, FAX.977571382 AYTO, , ,BIBLIOTECAROSSELL@HOTMAIL.COM,N,PU,PÚBLICA,N,40.0453814,-1.1440022
307,46,VALENCIA,10,AGENCIA DE LECTURA,AGENCIA DE LECTURA  ALBALAT DELS TARONGERS,CALLE MAYOR Nº 14 PISO 1,", CP 46591", TELF.962628201 AYTO, FAX.962628613 AYTO, , ,ATARONGERS_ALC@GVA.ES,N,PU,PÚBLICA,N,39.66924179999999,-0.3396694
308,46,VALENCIA,100,AGENCIA DE LECTURA,AGENCIA DE LECTURA  COTES,PLAZA VILLANUEVA DE CASTELLÓN Nº 2 PISO 1,", CP 46294", TELF.962580178 AYTO, FAX.962976217 AYTO, , ,COTES_SEC@GVA.ES,N,PU,PÚBLICA,N,39.0716241,-0.5757852999999999
309,46,VALENCIA,101,AGENCIA DE LECTURA,AGENCIA DE LECTURA EDIFICIO MULTIUSOS QUART DE LES VALLS,CALLE LA FUENTE Nº 63,", CP 46510", TELF.962600305 AYTO, FAX.962602620 AYTO, , ,QVALLS_AYT@GVA.ES,N,PU,PÚBLICA,N,39.4025682,-0.5904825
310,46,VALENCIA,102,BIBLIOTECA PUBLICA MUNICIPAL,BIBLIOTECA PUBLICA MUNICIPAL  QUART DE POBLET,CALLE REVERENDO PADRE JOSE PALACIOS Nº 2,", CP 46930", TELF.961298236, , ,HTTP://XLPV.CULT.GVA.ES/CGINET-BIN/ABNETOP?SUBC=0009,BIBLIOT@QUARTDEPOBLET.ORG,N,PU,PÚBLICA,N,39.48140799999999,-0.441988
311,46,VALENCIA,103,OTRAS PÚBLICAS,OTRAS PÚBLICAS MESTRE FERRI QUARTELL,PLAZA ESPAÑA Nº 3,", CP 46510", TELF.962636346 AYTO, , , , ,N,PU,PÚBLICA,N,39.4179258,-0.4009113
312,46,VALENCIA,104,AGENCIA DE LECTURA,AGENCIA DE LECTURA ESTANISLAU ALBEROLA QUATRETONDA,CALLE CRIST DE LA FE Nº 88,", CP 46837", TELF.962264206/2264571, FAX.962265803,HTTP://XLPV.CULT.GVA.ES/CGINET-BIN/ABNETOP?SUBC=0087,HTTP://XLPV.CULT.GVA.ES/CGINET-BIN/ABNETOP?SUBC=0087,BIBLIOTECA@QUATRETONDA.ORG,N,PU,PÚBLICA,S,38.94556650000001,-0.399119
313,46,VALENCIA,105,BIBLIOTECA PUBLICA MUNICIPAL,BIBLIOTECA PUBLICA MUNICIPAL  CULLERA,CALLE LA BEGA Nº 14,", CP 46400", TELF.961724616/1731680, ,HTTP://BIBLIOTECASCULLERA.WORDPRESS.COM,HTTP://XLPV.CULT.GVA.ES/CGINET-BIN/ABNETOP?SUBC=0033,BIBLIOTECA@CULLERA.ES,N,PU,PÚBLICA,S,39.1614862,-0.253776
314,46,VALENCIA,106,AGENCIA DE LECTURA,AGENCIA DE LECTURA  CHELVA,CALLE SAN ANTONIO-CASA DE LA CULTURA Nº 5,", CP 46176", TELF.962100011 AYTO, FAX.962100986 AYTO, , ,GERARDO@AYUNCHELVA.E.TELEFONICA.NET,N,PU,PÚBLICA,N,39.56100989999999,-0.4992069
315,46,VALENCIA,108,AGENCIA DE LECTURA,AGENCIA DE LECTURA  CHERA,PLAZA DE ESPAÑA Nº 1,", CP 46350", TELF.962332001 AYTO, FAX.962332216 AYTO,HTTP://WWW.BIBLIOTECASPUBLICAS.ES/CHERA/INDEX.JSP, ,BIBLIOTECAMUNICIPAL@ENCHERATE.COM,N,PU,PÚBLICA,N,39.4663159,-0.3815988
316,46,VALENCIA,109,BIBLIOTECA PUBLICA MUNICIPAL,BIBLIOTECA PUBLICA MUNICIPAL  CHESTE,CALLE PEDRALBA Nº 75,", CP 46380", TELF.962511342, FAX.962512007 AYTO,HTTP://XLPV.CULT.GVA.ES/CGINET-BIN/ABNETOP?SUBC=0097,HTTP://XLPV.CULT.GVA.ES/CGINET-BIN/ABNETOP?SUBC=0097,CHESTE_BIB@GVA.ES,N,PU,PÚBLICA,S,39.5676537,-0.6266940999999999
317,46,VALENCIA,11,BIBLIOTECA PUBLICA MUNICIPAL,BIBLIOTECA PUBLICA MUNICIPAL  ALBERIC,CALLE PINTOR RIBERA Nº 3,", CP 46260", TELF.962441923, FAX.962442042 AYTO,HTTP://XLPV.CULT.GVA.ES/CGINET-BIN/ABNETOP?SUBC=0118,HTTP://XLPV.CULT.GVA.ES/CGINET-BIN/ABNETOP?SUBC=0118,BIBLIOTECA@ALBERIC.ES,N,PU,PÚBLICA,N,39.43263880000001,-0.4727371999999999
318,46,VALENCIA,110,BIBLIOTECA PUBLICA MUNICIPAL,BIBLIOTECA PUBLICA MUNICIPAL CENTRAL XIRIVELLA,CALLE PALLETER Nº 2,", CP 46950", TELF.963835424/664437182, ,HTTP://WWW.XIRIVELLA.ES/ES/XIRIVELLA-AJUNTAMENT/BIBLIOTECAS-2,HTTP://XLPV.CULT.GVA.ES/CGINET-BIN/ABNETOP?SUBC=0068,BIBLIOTECA@XIRIVELLA.ES,S,PU,PÚBLICA,S,39.4681598,-0.3855026
319,46,VALENCIA,110,AGENCIA DE LECTURA,AGENCIA DE LECTURA BARRIS SANT RAMON I MONT PIETAT XIRIVELLA,CALLE MONTEALEGRE Nº 6,", CP 46950", TELF.607616428, ,HTTP://WWW.XIRIVELLA.ES/ES/XIRIVELLA-AJUNTAMENT/BIBLIOTECAS-2,HTTP://XLPV.CULT.GVA.ES/CGINET-BIN/ABNETOP?SUBC=0068,BIBLIOTECA.ERNEST@XIRIVELLA.ES,N,PU,PÚBLICA,S,39.4658983,-0.4335688
320,46,VALENCIA,110,AGENCIA DE LECTURA,AGENCIA DE LECTURA BARRI DE LA LLUM XIRIVELLA,CALLE CONSTANTI LLOMBART Nº 1,", CP 46950", TELF.607678307, ,HTTP://WWW.XIRIVELLA.ES/ES/XIRIVELLA-AJUNTAMENT/BIBLIOTECAS-2,HTTP://XLPV.CULT.GVA.ES/CGINET-BIN/ABNETOP?SUBC=0068,BIBLIOTECA.LALLUM@XIRIVELLA.ES,N,PU,PÚBLICA,N,39.4656611,-0.4168811
321,46,VALENCIA,111,BIBLIOTECA PUBLICA MUNICIPAL,BIBLIOTECA PUBLICA MUNICIPAL CENTRO POLIVALENTE CHIVA,CALLE PASCUAL PIQUER Nº 1,", CP 46370", TELF.962524480, FAX.962521436,HTTP://WWW.BIBLIOTECASPUBLICAS.ES/CHIVA/INDEX.JSP,HTTP://XLPV.CULT.GVA.ES/CGINET-BIN/ABNETOP?SUBC=0072,BIBLIOTECA@CHIVA.ES,N,PU,PÚBLICA,N,39.4723899,-0.7181556
322,46,VALENCIA,113,AGENCIA DE LECTURA,AGENCIA DE LECTURA  DAIMÚS,CALLE SANT PERE Nº S/N PISO 1,", CP 46710", TELF.962819003 AYTO, FAX.962818125 AYTO, , , ,N,PU,PÚBLICA,N,38.9677993,-0.1889552
323,46,VALENCIA,114,OTRAS PÚBLICAS,OTRAS PÚBLICAS  DOMEÑO,PLAZA 7 DE OCTUBRE Nº 5,", CP 46174", TELF.962728028 AYTO, FAX.962728081 AYTO, , ,DOMENYO_ALC@GVA.ES,N,PU,PÚBLICA,N,39.66026,-0.6718299999999999
324,46,VALENCIA,116,BIBLIOTECA PUBLICA MUNICIPAL,BIBLIOTECA PUBLICA MUNICIPAL  ELIANA (L'),CALLE GENERAL PASTOR Nº 34 ESC. B,", CP 46183", TELF.962742371, FAX.962742371,HTTP://WWW.LELIANA.ES/CULTURA/BIBLIOTECA/,HTTP://XLPV.CULT.GVA.ES/CGINET-BIN/ABNETOP?SUBC=0043,BIBLIOTECA@LELIANA.ES,N,PU,PÚBLICA,S,39.5630724,-0.5329031
325,46,VALENCIA,117,AGENCIA DE LECTURA,AGENCIA DE LECTURA  EMPERADOR,PLAZA AYUNTAMIENTO Nº 2,", CP 46135", TELF.961443585 AYTO, FAX.961444852 AYTO, , ,TELECENTRO_EMPERADOR@GMAIL.COM,N,PU,PÚBLICA,N,39.470451,-0.3769805
326,46,VALENCIA,118,BIBLIOTECA PUBLICA MUNICIPAL,BIBLIOTECA PUBLICA MUNICIPAL JAIME BARBERAN ENGUERA,PLAZA MANUEL TOLSA Nº S/N,", CP 46810", TELF.962224880, FAX.962225524,HTTP://XLPV.CULT.GVA.ES/CGINET-BIN/ABNETOP?SUBC=0080,HTTP://XLPV.CULT.GVA.ES/CGINET-BIN/ABNETOP?SUBC=0080,MIPERISBALLESTER@GMAIL.COM,N,PU,PÚBLICA,N,38.98143,-0.6865979999999999
327,46,VALENCIA,12,AGENCIA DE LECTURA,AGENCIA DE LECTURA  ALBORACHE,AVENIDA DE LA MÚSICA  Nº 32,", CP 46369", TELF.962516002 AYTO, FAX.962508158 AYTO, , ,ALBORACHE_ALC@GVA.ES,N,PU,PÚBLICA,N,39.391672,-0.7709539999999999
328,46,VALENCIA,122,AGENCIA DE LECTURA,AGENCIA DE LECTURA  FAURA,CALLE CERVANTES Nº 57,", CP 46512", TELF.962600004 AYTO, FAX.962600019 AYTO,HTTP://XLPV.CULT.GVA.ES/CGINET-BIN/ABNETOP?SUBC=0160,HTTP://XLPV.CULT.GVA.ES/CGINET-BIN/ABNETOP?SUBC=0160,BIBLIO@FAURAWEB.NET,N,PU,PÚBLICA,S,39.4667994,-0.3820929
329,46,VALENCIA,123,OTRAS PÚBLICAS,OTRAS PÚBLICAS CASA DE LA CULTURA FAVARA,PLAZA DE LA CULTURA Nº S/N,", CP 46614", TELF.961769002 AYTO, FAX.961769427 AYTO, , ,BIBLIOTECA@FAVARA.ES,N,PU,PÚBLICA,N,39.5292046,-0.3486187
330,46,VALENCIA,124,AGENCIA DE LECTURA,AGENCIA DE LECTURA CASA DE LA CULTURA FONTANARS DELS ALFORINS,CALLE ESCOLES Nº 1 Y 3,", CP 46635", TELF.962222233 AYTO, FAX.960706890 AYTO, , , ,N,PU,PÚBLICA,N,40.5112382,0.2528431
331,46,VALENCIA,125,AGENCIA DE LECTURA,AGENCIA DE LECTURA  FORTALENY,CALLE SANT ROC Nº 1,", CP 46418", TELF.96 171 17 91, FAX.961710505 AYTO, , ,FORTALENY_ALC@GVA.ES,N,PU,PÚBLICA,N,38.9667114,-0.1811981
332,46,VALENCIA,126,BIBLIOTECA PUBLICA MUNICIPAL,BIBLIOTECA PUBLICA MUNICIPAL  FOIOS,CALLE PERIODISTA BADIA Nº 5,", CP 46134", TELF.963210347/678724081, FAX.961494823 AYTO, , ,BIBLIOTECA@FOIOS.ES,N,PU,PÚBLICA,N,39.4776487,-0.3630854
333,46,VALENCIA,127,AGENCIA DE LECTURA,AGENCIA DE LECTURA FRANCESC FERRER PASTOR FONT D'EN CARRÒS (LA),CALLE FRANCESC FERRER PASTOR Nº 24,", CP 46717", TELF.962833895, FAX.962833694 AYTO, ,HTTP://XLPV.CULT.GVA.ES/CGINET-BIN/ABNETOP?SUBC=0196,ARXIU@LAFONTDENCARROS.ES,N,PU,PÚBLICA,S,39.4072883,-0.4092881
334,46,VALENCIA,128,AGENCIA DE LECTURA,AGENCIA DE LECTURA ANA MARIA IBARS IBARS FONT DE LA FIGUERA (LA),CALLE ARCEDIANO ROS Nº 10 PISO 1,", CP 46630", TELF.962290480, FAX.962290172 AYTO, , ,MONTSEBIBLIO@HOTMAIL.COM / FFIGUERA_ALC@GVA.ES,N,PU,PÚBLICA,S,39.6796634,-0.2792098
335,46,VALENCIA,129,AGENCIA DE LECTURA,AGENCIA DE LECTURA  FUENTERROBLES,PLAZA RETIRO Nº 1,", CP 46314", TELF.962183001 AYTO, FAX.962183023 AYTO, , , ,N,PU,PÚBLICA,N,39.58446,-1.36394
336,46,VALENCIA,13,BIBLIOTECA PUBLICA MUNICIPAL,BIBLIOTECA PUBLICA MUNICIPAL  ALBORAIA,CALLE DE LA MAR Nº 1,", CP 46120", TELF.961862507, ,HTTP://WWW.BIBLIOTECASPUBLICAS.ES/ALBORAYA,HTTP://XLPV.CULT.GVA.ES/CGINET-BIN/ABNETOP?SUBC=0069,BIBLIOTECAPUBLICA@ALBORAYA.COM,N,PU,PÚBLICA,N,39.4741074,-0.3747808
337,46,VALENCIA,131,AGENCIA DE LECTURA,AGENCIA DE LECTURA PARC DE L'ESTACIO GANDIA,CALLE MARQUES DEL CAMPO Nº 15,", CP 46701", TELF.962959819, ,HTTP://WWW.IMABGANDIA.ES,HTTP://XLPV.CULT.GVA.ES/CGINET-BIN/ABNETOP?SUBC=0042,ESTACIO@GANDIA.ORG,N,PU,PÚBLICA,N,39.4599805,-0.3870305
338,46,VALENCIA,131,AGENCIA DE LECTURA,AGENCIA DE LECTURA GRAU DE GANDIA GANDIA,CALLE MARE DE DEU BLANQUETA Nº S/N PISO 1,", CP 46730", TELF.962842477, FAX.962842477,HTTP://WWW.IMABGANDIA.ES,HTTP://XLPV.CULT.GVA.ES/CGINET-BIN/ABNETOP?SUBC=0042,GRAU@GANDIA.ORG,N,PU,PÚBLICA,S,38.9910707,-0.1612585
339,46,VALENCIA,131,BIBLIOTECA PUBLICA MUNICIPAL,BIBLIOTECA PUBLICA MUNICIPAL BENIPEIXCAR-RAVAL GANDIA,CALLE FERROCARRIL D'ALCOI Nº 3,", CP 46702", TELF.962959809, ,HTTP://WWW.IMABGANDIA.ES,HTTP://XLPV.CULT.GVA.ES/CGINET-BIN/ABNETOP?SUBC=0042,BENIPEIXCARRAVAL@GANDIA.ORG,N,PU,PÚBLICA,N,38.963165,-0.1859152
340,46,VALENCIA,131,BIBLIOTECA PUBLICA MUNICIPAL,BIBLIOTECA PUBLICA MUNICIPAL BENIOPA GANDIA,CALLE L'AIGUERA Nº 1,", CP 46702", TELF.962874387, ,HTTP://WWW.IMABGANDIA.ES,HTTP://XLPV.CULT.GVA.ES/CGINET-BIN/ABNETOP?SUBC=0042,BENIOPA@GANDIA.ORG,N,PU,PÚBLICA,N,38.9708127,-0.1903378
341,46,VALENCIA,131,BIBLIOTECA ESPECIALIZADA,BIBLIOTECA ESPECIALIZADA HOSPITAL FRANCESC DE BORJA GANDIA,PASEO DE LES GERMANIES Nº 71,", CP 46702", TELF.962959200-EXT 53668, FAX.962875936, , ,BIXQUERT_LOU@GVA.ES,N,PU,PÚBLICA,N,38.9664977,-0.1897102
342,46,VALENCIA,131,BIBLIOTECA INFANTIL,BIBLIOTECA INFANTIL I JUVENIL MUNICIPAL CONVENT DE SANT ROC GANDIA,PLAZA REI EN JAUME I Nº 10,", CP 46700", TELF.962959595, ,HTTP://WWW.GANDIA.ORG/AJUNTAMENT/VAL/BIBLIOTECAS/BIBLIOTECASGAN.ASP,HTTP://XLPV.CULT.GVA.ES/CGINET-BIN/ABNETOP?SUBC=0042,INFANTIL@GANDIA.ORG,N,PU,PÚBLICA,N,38.9663361,-0.1818554
343,46,VALENCIA,131,BIBLIOTECA UNIVERSITARIA,BIBLIOTECA UNIVERSITARIA FRANCISCO TOMÁS Y VALIENTE-UNED GANDIA,PLAZA ESCUELAS PÍAS Nº 7,", CP 46700", TELF.962868561, FAX.962869662,HTTP://WWW.UNED-VALENCIA.NET/,HTTP://BIBLIO15.UNED.ES/,BIBLIOTECA@GANDIA.UNED.ES,N,PU,PÚBLICA,N,39.4735419,-0.3817665
344,46,VALENCIA,131,BIBLIOTECA PUBLICA MUNICIPAL,BIBLIOTECA PUBLICA MUNICIPAL BIBLIOTECA HISTORICA I DELS CLASSICS GANDIA,PLAZA REI EN JAUME I Nº 10,", CP 46701", TELF.962959567, FAX.962959566,HTTP://HTTP://IMABGANDIA.ES/IMAB/ARXIU-HISTORIC/COLLECCIONS.HTML,HTTP://XLPV.CULT.GVA.ES/CGINET-BIN/ABNETOP?SUBC=0042,ARXIUHISTORIC@GANDIA.ORG,N,PU,PÚBLICA,N,38.9663361,-0.1818554
345,46,VALENCIA,131,BIBLIOTECA UNIVERSITARIA,BIBLIOTECA UNIVERSITARIA CAMPUS GANDIA-CRAI (UPV) GANDIA,CALLE PARANIMF Nº 1,", CP 46730", TELF.962849354, FAX.962849309,HTTP://WWW.UPV.ES/BIBLIOTECADEGANDIA,HTTP://WWW.UPV.ES/PLS/OBIB/SIC_OPAC.FORMCONSULTA?P_IDIOMA=C,BIB-EPSG@UPVNET.UPV.ES,N,PU,PÚBLICA,N,38.9959757,-0.1658417
346,46,VALENCIA,131,BIBLIOTECA MOVIL O TEMPORAL,BIBLIOTECA MOVIL O TEMPORAL BIBLIOBUS GANDIA,PLAZA REI EN JAUME Nº 10,", CP 46700", TELF.962959555, FAX.962959555,HTTP://WWW.GANDIA.ORG/AJUNTAMENT/VAL/BIBLIOTECAS/BIBLIOTECASGAN.ASP,HTTP://XLPV.CULT.GVA.ES/CGINET-BIN/ABNETOP?SUBC=0042,BIBLIOBUS@GANDIA.ORG,N,PU,PÚBLICA,N,39.9420782,-0.06074349999999999
347,46,VALENCIA,131,BIBLIOTECA PUBLICA MUNICIPAL,"BIBLIOTECA PUBLICA MUNICIPAL CENTRAL ""CONVENT DE SANT ROC"" GANDIA",PLAZA REI EN JAUME I Nº 10-BJ,", CP 46701", TELF.962959555, ,HTTP://WWW.IMABGANDIA.ES,HTTP://XLPV.CULT.GVA.ES/CGINET-BIN/ABNETOP?SUBC=0042,BIBLIOTECA@GANDIA.ORG,S,PU,PÚBLICA,S,38.9663361,-0.1818554
348,46,VALENCIA,132,OTRAS PÚBLICAS,OTRAS PÚBLICAS  GENOVÉS,CALLE MÁRTIR Nº 2,", CP 46894", TELF.962229166 AYTO, ,HTTP://GENOVESJOVE.BLOGSPOT.COM/, ,CULTURA@GENOVES.ES,N,PU,PÚBLICA,N,39.4736558,-0.3758787
349,46,VALENCIA,133,AGENCIA DE LECTURA,AGENCIA DE LECTURA ALFONS CERVERA GESTALGAR,CALLE DEMOCRACIA Nº 10,", CP 46166", TELF.961649206, FAX.961649119 AYTO, , ,BIBLIOTECA_GESTALGAR@HOTMAIL.COM,N,PU,PÚBLICA,N,39.4741899,-0.3963043
350,46,VALENCIA,134,AGENCIA DE LECTURA,AGENCIA DE LECTURA  GILET,CALLE NOU D'OCTUBRE Nº 1,", CP 46149", TELF.962620241, FAX.962621168 AYTO,HTTP://XLPV.CULT.GVA.ES/CGINET-BIN/ABNETOP?SUBC=0149,HTTP://XLPV.CULT.GVA.ES/CGINET-BIN/ABNETOP?SUBC=0149,BIBLIOTECA@GILET.ES / WEB@GILET.ES ,N,PU,PÚBLICA,N,39.4726777,-0.4056413
351,46,VALENCIA,135,BIBLIOTECA PUBLICA MUNICIPAL,BIBLIOTECA PUBLICA MUNICIPAL  GODELLA,CALLE ROCAFORT  Nº 3,", CP 46110", TELF.963642952 EXT-4, ,HTTP://WWW.BIBLIOTECAGODELLA.COM,HTTP://XLPV.CULT.GVA.ES/CGINET-BIN/ABNETOP?SUBC=0135,BIBLIOTECAGODELLA@YAHOO.ES/BIBLIOTECAGODELLA@GMAIL.COM,N,PU,PÚBLICA,N,39.5388856,-0.4045059
352,46,VALENCIA,135,BIBLIOTECA UNIVERSITARIA,BIBLIOTECA UNIVERSITARIA UNIVERSIDAD CATÓLICA DE VALENCIA SAN VICENTE MÁRTIR GODELLA,CALLE SAGRADO CORAZÓN Nº 5,", CP 46110", TELF.963637412, FAX.963901987,HTTP://WWW.UCV.ES,HTTP://WWW.UCV.ES/ALEXANDRIA/DOC_INI.ASPX,BIBLIOTECA@UCV.ES,N,PR,PRIVADA,N,39.5149288,-0.4079817
353,46,VALENCIA,136,AGENCIA DE LECTURA,AGENCIA DE LECTURA SALVADOR FERRANDIS LUNA GODELLETA,CALLE CERVANTES Nº 1,", CP 46388", TELF.961800816, FAX.961800663 AYTO,HTTP://XLPV.CULT.GVA.ES/CGINET-BIN/ABNETOP?SUBC=0165,HTTP://XLPV.CULT.GVA.ES/CGINET-BIN/ABNETOP?SUBC=0165,BIBLIOTEK_GODE@HOTMAIL.COM,N,PU,PÚBLICA,S,38.3446189,-0.4804927
354,46,VALENCIA,138,AGENCIA DE LECTURA,AGENCIA DE LECTURA  GUADASSÉQUIES,AVENIDA DE LA CONSTITUCIÓN Nº 14,", CP 46839", TELF.962293005 AYTO, , , ,GUADASEQUIES_SEC@GVA.ES,N,PU,PÚBLICA,N,39.462868,-0.4263946
355,46,VALENCIA,139,BIBLIOTECA PUBLICA MUNICIPAL,BIBLIOTECA PUBLICA MUNICIPAL SALVADOR MAHIQUES GUADASSUAR,CALLE ORTELLS Nº 5,", CP 46610", TELF.962570000 EXT45, ,HTTP://XLPV.CULT.GVA.ES/CGINET-BIN/ABNETOP?SUBC=0048,HTTP://XLPV.CULT.GVA.ES/CGINET-BIN/ABNETOP?SUBC=0048,GUADASSUAR_BIB@GVA.ES,N,PU,PÚBLICA,S,40.6911871,-0.1761412
356,46,VALENCIA,14,AGENCIA DE LECTURA,AGENCIA DE LECTURA  ALBUIXECH,CALLE MAYOR Nº 23 PISO 1,", CP 46550", TELF.637486653, ,HTTP://BIBLIOTECA.ALBUIXECH.ES,HTTP://XLPV.CULT.GVA.ES/CGINET-BIN/ABNETOP?SUBC=0177,BIBLIOTECA@ALBUIXECH.ES,N,PU,PÚBLICA,S,39.6688362,-0.3405146
357,46,VALENCIA,141,AGENCIA DE LECTURA,AGENCIA DE LECTURA  HIGUERUELAS,AVENIDA DE DOMEÑO-CASA DE LA CULTURA Nº 1,", CP 46170", TELF.962726130 AYTO, FAX.962726072 AYTO, , ,HIGUERUELAS_ALC@GVA.ES,N,PU,PÚBLICA,N,39.65955659999999,-0.671968
358,46,VALENCIA,142,AGENCIA DE LECTURA,AGENCIA DE LECTURA VICENTE LLORENS CASTILLO JALANCE,PASAJE DON RAFAEL LÓPEZ Nº S/N,", CP 46624", TELF.962196011 AYTO, FAX.962196451 AYTO, , , ,N,PU,PÚBLICA,N,39.4840108,-0.7532808999999999
359,46,VALENCIA,143,BIBLIOTECA PUBLICA MUNICIPAL,BIBLIOTECA PUBLICA MUNICIPAL MUNICIPAL (EDIFICIO CASA DE LA CULTURA) XERACO,PLAZA DE CARMESINA Nº S/N,", CP 46770", TELF.962892542, FAX.962890794 AYTO,HTTP://WWW.XERACO.ES/BIBLIOTECA,HTTP://XLPV.CULT.GVA.ES/CGINET-BIN/ABNETOP?SUBC=0158,BIBLIOTECA@XERACO.ES,N,PU,PÚBLICA,S,38.967141,-0.1793704
360,46,VALENCIA,144,AGENCIA DE LECTURA,AGENCIA DE LECTURA  JARAFUEL,CALLE JARRAL Nº 19,", CP 46623", TELF.962198011 AYTO, FAX.961899005 AYTO, , ,JARAFUEL_ALC@GVA.ES,N,PU,PÚBLICA,N,39.1398301,-1.073965
361,46,VALENCIA,145,BIBLIOTECA UNIVERSITARIA,BIBLIOTECA UNIVERSITARIA FRANCISCO TOMÁS Y VALIENTE-UNED XÀTIVA,CALLE SANT AGUSTÍ Nº 9,", CP 46800", TELF.962283406, FAX.962283983,HTTP://WWW.UNED-VALENCIA.NET/,HTTP://BIBLIO15.UNED.ES/,XATIVA@VALENCIA.UNED.ES,N,PU,PÚBLICA,N,38.7429934,-0.4422349
362,46,VALENCIA,145,BIBLIOTECA PUBLICA MUNICIPAL,BIBLIOTECA PUBLICA MUNICIPAL MIGUEL BORDONAU XÀTIVA,ALAMEDA JAUME I Nº 56,", CP 46800", TELF.962287328, ,HTTP://WWW.XATIVA.ES/BIBLIOTECA,HTTP://XLPV.CULT.GVA.ES/CGINET-BIN/ABNETOP?SUBC=0075,BIBLIOXATIVA@AYTO-XATIVA.ES,N,PU,PÚBLICA,S,39.464262,-0.3584766
363,46,VALENCIA,145,BIBLIOTECA AUXILIAR ARCHIVO,BIBLIOTECA AUXILIAR ARCHIVO  XÀTIVA,PLAZA TRINITAT Nº 7,", CP 46800", TELF.962271167, FAX.962271167,HTTP://EN CONSTRUCCIÓ, ,ARXIU@AYTO-XATIVA.ES,N,PU,PÚBLICA,N,38.9894426,-0.5182886999999999
364,46,VALENCIA,145,BIBLIOTECA ESPECIALIZADA,BIBLIOTECA ESPECIALIZADA CEFIRE XÀTIVA,AVENIDA PINTOR JUAN FRANCESC GANDÍA Nº S/N,", CP 46800", TELF.962281901/962281448, FAX.962280915,HTTP://INTERCENTRES.CULT.GVA.ES/CEFIRE/46401441/BIBLIOTECA_PRESENTACION.ASP,HTTP://WWW.BEGV.GVA.ES/CEFIRE/VAL_TLPCEF.HTML,BIBLIOXATIVA@EDU.GVA.ES,N,PU,PÚBLICA,N,38.9907173,-0.5100837
365,46,VALENCIA,146,OTRAS PÚBLICAS,OTRAS PÚBLICAS  XERESA,CALLE LA MARTINA Nº 7,", CP 46790", TELF.962895378 AYTO, FAX.962895195 AYTO, , ,BIBLIOTECAXERESA@HOTMAIL.COM,N,PU,PÚBLICA,N,39.0109189,-0.216565
366,46,VALENCIA,147,AGENCIA DE LECTURA,AGENCIA DE LECTURA CASA DE LA JOVENTUT LLÍRIA,CALLE ANDOVAL Nº 2,", CP 46160", TELF.962792508, ,HTTP://WWW.BIBLIOTECASPUBLICAS.ES/LLIRIA-CAS/INDEX.JSP,HTTP://XLPV.CULT.GVA.ES/CGINET-BIN/ABNETOP?SUBC=0011,BIBLIOLLI@MSN.COM,N,PU,PÚBLICA,S,39.6251346,-0.5917169999999999
367,46,VALENCIA,147,BIBLIOTECA PUBLICA MUNICIPAL,BIBLIOTECA PUBLICA MUNICIPAL CENTRAL-L'ALMODI LLÍRIA,CALLE PURISIMA Nº 50,", CP 46160", TELF.962780827, FAX.962792021,HTTP://WWW.BIBLIOTECASPUBLICAS.ES/LLIRIA-CAS/INDEX.JSP,HTTP://XLPV.CULT.GVA.ES/CGINET-BIN/ABNETOP?SUBC=0011,BIBLIOLLI@MSN.COM,S,PU,PÚBLICA,S,39.6266835,-0.6000093
368,46,VALENCIA,148,AGENCIA DE LECTURA,AGENCIA DE LECTURA  LORIGUILLA,AVENIDA DEL OESTE Nº 15,", CP 46339", TELF.961667702/961668052 , ,HTTP://XLPV.CULT.GVA.ES/CGINET-BIN/ABNETOP?SUBC=0167,HTTP://XLPV.CULT.GVA.ES/CGINET-BIN/ABNETOP?SUBC=0167,MARIA@LORIGUILLA.COM,N,PU,PÚBLICA,S,39.4728595,-0.3796196
369,46,VALENCIA,15,BIBLIOTECA PUBLICA MUNICIPAL,BIBLIOTECA PUBLICA MUNICIPAL  ALCÀSSER,CALLE VICENTE IBORRA Nº 6,", CP 46290", TELF.961242414, FAX.961100988,HTTP://WWW.BIBLIOTECASPUBLICAS.ES/ALCASSER/INDEX.JSP,HTTP://XLPV.CULT.GVA.ES/CGINET-BIN/ABNETOP?SUBC=0108,BIBLIOTECA@ALCASSER.ES,N,PU,PÚBLICA,N,39.4771036,-0.381843
370,46,VALENCIA,150,AGENCIA DE LECTURA,AGENCIA DE LECTURA  LLUTXENT,PLAZA XIO Nº 12 PISO 2N,", CP 46838", TELF.962923085, FAX.962294573 AYTO,HTTP://WWW.BIBLIOTECASPUBLICAS.ES/LLUTXENT,HTTP://XLPV.CULT.GVA.ES/CGINET-BIN/ABNETOP?SUBC=0150,BIBLIOTECA@LLUTXENT.ORG,N,PU,PÚBLICA,S,38.94010710000001,-0.3535217
371,46,VALENCIA,156,AGENCIA DE LECTURA,AGENCIA DE LECTURA SANT JOAN LLOMBAI,AVENIDA MARQUÉS DE LLOMBAI Nº 6,", CP 46195", TELF.962990563, ,HTTP://WWW.BIBLIOTECASPUBLICAS.ES/LLOMBAI/INDEX.JSP,HTTP://LOCAL.LLOMBAI.ES/BIBLIO/,BIBLIOTECA@LLOMBAI.ES,N,PU,PÚBLICA,N,39.2813939,-0.5723376
372,46,VALENCIA,157,AGENCIA DE LECTURA,AGENCIA DE LECTURA  LLOSA DE RANES (LA),PLAZA PINTOR DIES Nº 3 BAJ,", CP 46815", TELF.670959661, FAX.962230409 AYTO,HTTP://XLPV.CULT.GVA.ES/CGINET-BIN/ABNETOP?SUBC=0136,HTTP://XLPV.CULT.GVA.ES/CGINET-BIN/ABNETOP?SUBC=0136,LLOSARANES.ALE@GMAIL.COM,N,PU,PÚBLICA,N,39.0035636,-0.5281534
373,46,VALENCIA,158,AGENCIA DE LECTURA,AGENCIA DE LECTURA  MACASTRE,PLAZA LOS ÁRBOLES Nº 1,", CP 46368", TELF.962516356 AYTO, FAX.962508209 AYTO, , , ,N,PU,PÚBLICA,N,39.3817143,-0.7855620999999999
374,46,VALENCIA,159,AGENCIA DE LECTURA,AGENCIA DE LECTURA SANT FRANCESC MANISES,CALLE SIMETES Nº S/N,", CP 46940", TELF.961848368, FAX.961531251,HTTP://WWW.MANISES.ES,HTTP://XLPV.CULT.GVA.ES/CGINET-BIN/ABNETOP?SUBC=0010,SANTFRANCESC@MANISES.ES,N,PU,PÚBLICA,N,39.4840108,-0.7532808999999999
375,46,VALENCIA,159,BIBLIOTECA PUBLICA MUNICIPAL,BIBLIOTECA PUBLICA MUNICIPAL ENRIC VALOR MANISES,CALLE MAJOR Nº 91,", CP 46940", TELF.961534310, FAX.961531251,HTTP://WWW.MANISES.ES,HTTP://XLPV.CULT.GVA.ES/CGINET-BIN/ABNETOP?SUBC=0010,BIBLIOTECA@MANISES.ES,S,PU,PÚBLICA,N,39.6688362,-0.3406423
376,46,VALENCIA,159,AGENCIA DE LECTURA,AGENCIA DE LECTURA EL CARME-SOCUSA MANISES,CALLE VALENCIA Nº 44,", CP 46940", TELF.961848016, FAX.961531251,HTTP://WWW.MANISES.ES,HTTP://XLPV.CULT.GVA.ES/CGINET-BIN/ABNETOP?SUBC=0010,CARME-SOCUSA@MANISES.ES,N,PU,PÚBLICA,N,38.9070778,-0.4261041
377,46,VALENCIA,16,AGENCIA DE LECTURA,AGENCIA DE LECTURA  ALCÀNTERA DE XÚQUER,CALLE MARE DE DÉU DEL PUIG Nº 4-BAJ,", CP 46293", TELF.962580501, FAX.962580679 AYTO, , ,ALCANTERA_BIB@GVA.ES,N,PU,PÚBLICA,N,39.4615865,-0.336358
378,46,VALENCIA,160,AGENCIA DE LECTURA,AGENCIA DE LECTURA  MANUEL,CALLE ANGEL Nº 28,", CP 46660", TELF.962265491/673992466, FAX.962235454 AYTO,HTTP://WWW.BIBLIOTECASPUBLICAS.ES/MANUEL/INDEX.JSP,HTTP://XLPV.CULT.GVA.ES/CGINET-BIN/ABNETOP?SUBC=0183 ,BIBLIOTECADEMANUEL@HOTMAIL.COM,N,PU,PÚBLICA,S,39.4290059,-0.5815332
379,46,VALENCIA,161,AGENCIA DE LECTURA,AGENCIA DE LECTURA JOSEFINA ESCRIG MARINES,CALLE DOCTOR FLEMING Nº S/N,", CP 46169", TELF.960019606/66333253, FAX.961648002 AYTO,HTTP://SITES.GOOGLE.COM/SITE/AGENCIADELECTURAJOSEFINAESCRIG, ,BIBLIOTECAMARINES@GMAIL.COM / AGENCIALECTURA@MARINES.ES,N,PU,PÚBLICA,N,39.4215545,-0.4851497
380,46,VALENCIA,162,AGENCIA DE LECTURA,AGENCIA DE LECTURA  MASSALAVÉS,PLAZA MÉNDEZ NÚÑEZ Nº 7,", CP 46292", TELF.962443118, FAX.962442103 AYTO, , ,BIBLIOTECAMASALAVES@HOTMAIL.COM,N,PU,PÚBLICA,N,39.1401606,-0.5212577
381,46,VALENCIA,163,AGENCIA DE LECTURA,AGENCIA DE LECTURA  MASSALFASSAR,AVENIDA BLASCO IBÁÑEZ Nº S/N PISO 2,", CP 46560", TELF.961401012, FAX.961401363 AYTO, , ,MERCHEBERFE@GMAIL.COM,N,PU,PÚBLICA,N,39.478396,-0.3588142
382,46,VALENCIA,164,BIBLIOTECA PUBLICA MUNICIPAL,BIBLIOTECA PUBLICA MUNICIPAL  MASSAMAGRELL,PASEO REI EN JAUME Nº 4 PISO 2,", CP 46130", TELF.961451301, FAX.961444523,HTTP://WWW.BIBLIOTECASPUBLICAS.ES/MASSAMAGRELL,HTTP://XLPV.CULT.GVA.ES/CGINET-BIN/ABNETOP?SUBC=0170,BIBLIOTECA@MASSAMAGRELL.ES,N,PU,PÚBLICA,S,39.4755467,-0.3810271
383,46,VALENCIA,165,BIBLIOTECA PUBLICA MUNICIPAL,BIBLIOTECA PUBLICA MUNICIPAL  MASSANASSA,PLAZA DEL PAIS VALENCIA Nº 5,", CP 46470", TELF.961251961, FAX.961250251,HTTP://WWW.MASSANASSA.ORG/VER/300/BIBLIOTECA.HTML,HTTP://XLPV.CULT.GVA.ES/CGINET-BIN/ABNETOP?SUBC=0019,BIBLIOTECA@MASSANASSA.ES,N,PU,PÚBLICA,S,39.9806458,-0.0414225
384,46,VALENCIA,166,BIBLIOTECA PUBLICA MUNICIPAL,BIBLIOTECA PUBLICA MUNICIPAL  MELIANA,PLAZA DE LA CULTURA Nº 4,", CP 46133", TELF.961480906, FAX.961480001,HTTP://XLPV.CULT.GVA.ES/CGINET-BIN/ABNETOP?SUBC=0083,HTTP://XLPV.CULT.GVA.ES/CGINET-BIN/ABNETOP?SUBC=0083,BIBLIOTECA@IMCMELIANA.COM,N,PU,PÚBLICA,S,39.5293108,-0.3484606
385,46,VALENCIA,168,AGENCIA DE LECTURA,AGENCIA DE LECTURA  MIRAMAR,AVENIDA DEL MAR Nº 25 PISO 1,", CP 46711", TELF.600430830/962819101, FAX.962809073 AYTO,HTTP://XLPV.CULT.GVA.ES/CGINET-BIN/ABNETOP?SUBC=0164,HTTP://XLPV.CULT.GVA.ES/CGINET-BIN/ABNETOP?SUBC=0164,REGISTRE@AJUMIRAMAR.ORG,N,PU,PÚBLICA,S,39.9853609,-0.0313771
386,46,VALENCIA,169,BIBLIOTECA PUBLICA MUNICIPAL,BIBLIOTECA PUBLICA MUNICIPAL CENTRAL MISLATA,PLAZA 9 D'OCTUBRE Nº S/N,", CP 46920", TELF.963990270, FAX.963797313,HTTP://WWW.BIBLIOTECASPUBLICAS.ES/MISLATA-VAL/INDEX.JSP,HTTP://XLPV.CULT.GVA.ES/CGINET-BIN/ABNETOP?SUBC=0084,BIBLIOTECA@MISLATA.ES,S,PU,PÚBLICA,S,39.4840108,-0.7532808999999999
387,46,VALENCIA,169,AGENCIA DE LECTURA,AGENCIA DE LECTURA EL QUINT MISLATA,CALLE QUINT Nº 17,", CP 46920", TELF.963990276, ,HTTP://WWW.BIBLIOTECASPUBLICAS.ES/MISLATA-VAL/INDEX.JSP,HTTP://XLPV.CULT.GVA.ES/CGINET-BIN/ABNETOP?SUBC=0084,BIBLIOTECA@MISLATA.ES,N,PU,PÚBLICA,S,39.4794509,-0.4233625
388,46,VALENCIA,169,AGENCIA DE LECTURA,AGENCIA DE LECTURA SANTA CECILIA MISLATA,CALLE SANTA CECILIA Nº 4,", CP 46920", TELF.963794660, ,HTTP://WWW.BIBLIOTECASPUBLICAS.ES/MISLATA-VAL/INDEX.JSP,HTTP://XLPV.CULT.GVA.ES/CGINET-BIN/ABNETOP?SUBC=0084,BIBLIOTECA@MISLATA.ES,N,PU,PÚBLICA,N,39.4715749,-0.4198454
389,46,VALENCIA,17,BIBLIOTECA UNIVERSITARIA,BIBLIOTECA UNIVERSITARIA FRANCISCO TOMÁS Y VALIENTE-UNED ALZIRA,CARRETERA GANDIA Nº S/N,", CP 46600", TELF.962411208, FAX.962419080,HTTP://WWW.UNED-VALENCIA.NET/,HTTP://BIBLIO15.UNED.ES/,BIBLIOTECA@ALZIRA.UNED.ES,N,PU,PÚBLICA,N,38.9230287,-0.1244817
390,46,VALENCIA,17,BIBLIOTECA PUBLICA MUNICIPAL,BIBLIOTECA PUBLICA MUNICIPAL  ALZIRA,CALLE PLACA DE LES LLETRES VALENCIANES Nº 5,", CP 46600", TELF.962012981, FAX.962415756,HTTP://XLPV.CULT.GVA.ES/CGINET-BIN/ABNETOP?SUBC=0079,HTTP://XLPV.CULT.GVA.ES/CGINET-BIN/ABNETOP?SUBC=0079,BIBLIOTECA@ALZIRA.ES,N,PU,PÚBLICA,N,39.4699075,-0.3762881
391,46,VALENCIA,170,AGENCIA DE LECTURA,AGENCIA DE LECTURA  MOIXENT,CALLE STAS.RELIQUIAS Nº 3 PISO 1,", CP 46640", TELF.962261030, FAX.962261393,HTTP://XLPV.CULT.GVA.ES/CGINET-BIN/ABNETOP?SUBC=0137,HTTP://XLPV.CULT.GVA.ES/CGINET-BIN/ABNETOP?SUBC=0137,BIBLIOTECA@MOIXENT.ES,N,PU,PÚBLICA,S,38.87414,-0.7547049
392,46,VALENCIA,171,BIBLIOTECA ESPECIALIZADA,BIBLIOTECA ESPECIALIZADA IVIA-INSTITUTO VALENCIANO DE INVESTIGACIONES AGRARIAS MONCADA,"CARRETERA MONCADA-NÁQUERA, KM 4,5",", CP 46113", TELF.963424006, FAX.963424001 ,HTTP://BIBLIOTECA.IVIA.ES/COS.HTM,HTTP://MASTER.IVIA.ES/BIBLIOTECA/CONTENIDOS/BASEDAT/FORMREVISTAS.HTM,CASTELLO_JOSBALL@IVIA.GVA.ES,N,PU,PÚBLICA,N,39.5452518,-0.3960275
393,46,VALENCIA,171,BIBLIOTECA PUBLICA MUNICIPAL,BIBLIOTECA PUBLICA MUNICIPAL  MONCADA,CALLE MAJOR Nº 35,", CP 46113", TELF.961301578, FAX.961395663 AYTO,HTTP://WWW.MONCADA.ES,HTTP://XLPV.CULT.GVA.ES/CGINET-BIN/ABNETOP?SUBC=0012,BIBLIOTECA@MONCADA.ES,N,PU,PÚBLICA,S,39.6688362,-0.3406423
394,46,VALENCIA,172,BIBLIOTECA PUBLICA MUNICIPAL,BIBLIOTECA PUBLICA MUNICIPAL  MONTSERRAT,CALLE DOS DE MAIG Nº 6,", CP 46192", TELF.962986027, ,HTTP://XLPV.CULT.GVA.ES/CGINET-BIN/ABNETOP?SUBC=0054,HTTP://XLPV.CULT.GVA.ES/CGINET-BIN/ABNETOP?SUBC=0054,BIBLIOTECA@MONTSERRAT.ES,N,PU,PÚBLICA,S,39.4706585,-0.416282
395,46,VALENCIA,173,AGENCIA DE LECTURA,AGENCIA DE LECTURA  MONTAVERNER,CALLE NOU Nº 14 PISO 1,", CP 46892", TELF.962298632, FAX.962298632,HTTP://WWW.BIBLIOTECASPUBLICAS.ES/MONTAVERNER ,HTTP://XLPV.CULT.GVA.ES/CGINET-BIN/ABNETOP?SUBC=0049,BIBLIOTECA@MONTAVERNER.COM,N,PU,PÚBLICA,S,39.8887317,-0.08460530000000001
396,46,VALENCIA,175,OTRAS PÚBLICAS,OTRAS PÚBLICAS  MONTITXELVO,CALLE DE D'ALT Nº 25,", CP 46842", TELF.962897000 AYTO, FAX.962897249 AYTO, , ,MONTICHELVO_ADL@GVA.ES,N,PU,PÚBLICA,N,40.229126,-0.07799969999999999
397,46,VALENCIA,176,AGENCIA DE LECTURA,AGENCIA DE LECTURA  MONTROI,PLAZA AJUNTAMENT Nº 11,", CP 46193", TELF.671644437, FAX.962556140 AYTO, , ,MONTROY_ALM@GVA.ES,N,PU,PÚBLICA,N,39.4717498,-0.3765094
398,46,VALENCIA,177,BIBLIOTECA PUBLICA MUNICIPAL,BIBLIOTECA PUBLICA MUNICIPAL JUAN BAUTISTA MUÑOZ FERRANDIS MUSEROS,CALLE ESCOLES VELLES Nº S/N,", CP 46136", TELF.961440969, FAX.961444830 AYTO, , ,BIBLIOTECA@AJUNT-MUSEROS.COM,N,PU,PÚBLICA,N,39.5639824,-0.3404758
399,46,VALENCIA,178,BIBLIOTECA PUBLICA MUNICIPAL,BIBLIOTECA PUBLICA MUNICIPAL  NÁQUERA,CALLE VINYES PERDUDES Nº 16,", CP 46119", TELF.961680381 , FAX.961681317 AYTO,HTTP://HTTP://WWW.BIBLIOTECASPUBLICAS.ES/NAQUERA/INDEX.JSP ,HTTP://XLPV.CULT.GVA.ES/CGINET-BIN/ABNETOP?SUBC=0161,BIBLIOTECA@NAQUERA.COM,N,PU,PÚBLICA,S,39.66093,-0.42459
400,46,VALENCIA,18,AGENCIA DE LECTURA,AGENCIA DE LECTURA  ALCUBLAS,CALLE VIRGEN DE LA SALUD Nº 10-12,", CP 46172", TELF.961654034, FAX.962704106 AYTO, , ,BIBLIO_ALCUBLAS@HOTMAIL.COM,N,PU,PÚBLICA,N,39.4692735,-0.3979085
401,46,VALENCIA,180,OTRAS PÚBLICAS,OTRAS PÚBLICAS  NOVETLÈ,CALLE MIGUEL HERNÁNDEZ Nº 2,", CP 46800", TELF.962270589 AYTO, FAX.962281133 AYTO, , ,BIBLIOTECA@NOVETLE.ES,N,PU,PÚBLICA,N,39.4579776,-0.4562359
402,46,VALENCIA,181,AGENCIA DE LECTURA,AGENCIA DE LECTURA DE L'ENVIC OLIVA,PASEO GREGORI MAIANS Nº 36,", CP 46780", TELF.962963394, ,HTTP://WWW.BIBLIOTECASPUBLICAS.ES/OLIVA ,HTTP://XLPV.CULT.GVA.ES/CGINET-BIN/ABNETOP?SUBC=0085,BIBLIOTECAENVIC@OLIVA.ES,N,PU,PÚBLICA,S,38.9680811,-0.1924713
403,46,VALENCIA,181,BIBLIOTECA PUBLICA MUNICIPAL,BIBLIOTECA PUBLICA MUNICIPAL  OLIVA,CALLE TAMARIT Nº 6 PISO 1,", CP 46780", TELF.962963740, ,HTTP://WWW.BIBLIOTECASPUBLICAS.ES/OLIVA ,HTTP://XLPV.CULT.GVA.ES/CGINET-BIN/ABNETOP?SUBC=0085,BIBLIOTECATAMARIT@GMAIL.COM,N,PU,PÚBLICA,S,39.7455741,-0.1744052
404,46,VALENCIA,183,BIBLIOTECA PUBLICA MUNICIPAL,BIBLIOTECA PUBLICA MUNICIPAL MUNICIPAL - AJUNTAMENT OLLERIA (L'),CALLE AURORA Nº 7,", CP 46850", TELF.962200098, FAX.962200011 AYTO,HTTP://WWW.BIBLIOTECASPUBLICAS.ES/LOLLERIA/,HTTP://XLPV.CULT.GVA.ES/CGINET-BIN/ABNETOP?SUBC=0138,BIBLIOTECA@LOLLERIA.ORG,N,PU,PÚBLICA,S,39.4298748,-0.3642894
405,46,VALENCIA,184,AGENCIA DE LECTURA,AGENCIA DE LECTURA SANT RAFEL ONTINYENT,CALLE CARLOS DIAZ Nº S/N,", CP 46870", TELF.962910303, ,HTTP://HTTP://WWW.BIBLIOTECASPUBLICAS.ES/ONTINYENT/INDEX.JSP ,HTTP://XLPV.CULT.GVA.ES/CGINET-BIN/ABNETOP?SUBC=0001,ONTIBIBLIOTECASR@YAHOO.ES,N,PU,PÚBLICA,S,38.8243672,-0.6122048
406,46,VALENCIA,184,BIBLIOTECA UNIVERSITARIA,BIBLIOTECA UNIVERSITARIA FRANCISCO TOMÁS Y VALIENTE-UNED ONTINYENT,N/C C.SOCIAL SAN RAFAEL-GRUPO RAMÓN LLIN Nº S/N,", CP 46870", TELF.962387496, FAX.962914152,HTTP://WWW.UNED-VALENCIA.NET/,HTTP://BIBLIO15.UNED.ES/,BIBLIOTECA@ONTINYENT.UNED.ES,N,PU,PÚBLICA,N,37.9735346,-122.5310874
407,46,VALENCIA,184,BIBLIOTECA AUXILIAR ARCHIVO,BIBLIOTECA AUXILIAR ARCHIVO  ONTINYENT,CALLE DE TOMÁS VALLS Nº 16,", CP 46870", TELF.962911955, FAX.962918202, , ,ONTIARXIU@CV.GVA.ES,N,PU,PÚBLICA,N,38.8214143,-0.6082544999999999
408,46,VALENCIA,184,BIBLIOTECA PUBLICA MUNICIPAL,BIBLIOTECA PUBLICA MUNICIPAL PARE LLUIS GALIANA/CASA VELAZQUEZ ONTINYENT,CALLE D.TOMAS VALLS Nº 16,", CP 46870", TELF.962911955, FAX.962918202,HTTP://HTTP://WWW.BIBLIOTECASPUBLICAS.ES/ONTINYENT/INDEX.JSP ,HTTP://XLPV.CULT.GVA.ES/CGINET-BIN/ABNETOP?SUBC=0001,ONTIBIBLIOTECA@CV.GVA.ES,N,PU,PÚBLICA,S,38.8214143,-0.6082544999999999
409,46,VALENCIA,184,AGENCIA DE LECTURA,AGENCIA DE LECTURA SANT JOSEP ONTINYENT,AVENIDA MANUEL SANCHIS GUARNER Nº S/N,", CP 46870", TELF.962386737, ,HTTP://HTTP://WWW.BIBLIOTECASPUBLICAS.ES/ONTINYENT/INDEX.JSP ,HTTP://XLPV.CULT.GVA.ES/CGINET-BIN/ABNETOP?SUBC=0001,ONTIBIBLIOTECAG@YAHOO.ES ,N,PU,PÚBLICA,S,39.456744,-0.3760925
410,46,VALENCIA,186,BIBLIOTECA PUBLICA MUNICIPAL,BIBLIOTECA PUBLICA MUNICIPAL MARÍA MOLINER RUIZ PAIPORTA,PLAZA ESGLESIA DE SANT JORDI Nº 10,", CP 46200", TELF.963971533, ,HTTP://XLPV.CULT.GVA.ES/CGINET-BIN/ABNETOP?SUBC=0037,HTTP://XLPV.CULT.GVA.ES/CGINET-BIN/ABNETOP?SUBC=0037,BIBLIOTECA@PAIPORTA.ES,N,PU,PÚBLICA,S,39.005555,-0.5633829
411,46,VALENCIA,187,AGENCIA DE LECTURA,AGENCIA DE LECTURA  PALMA DE GANDÍA,AVENIDA CONSTITUCION Nº 100,", CP 46724", TELF.962808001 EXT. 7, ,HTTP://WWW.BIBLIOTECASPUBLICAS.ES/PALMAGANDIA/INDEX.JSP,HTTP://XLPV.CULT.GVA.ES/CGINET-BIN/ABNETOP?SUBC=0163,BIBLIOPALMAGANDIA@GMAIL.COM,N,PU,PÚBLICA,S,39.4624674,-0.4346124
412,46,VALENCIA,188,AGENCIA DE LECTURA,AGENCIA DE LECTURA  PALMERA,PROLONGACIÓN C/L'ESGLÉSIA Nº 8 PISO 1,", CP 46714", TELF.962893286 AYTO, FAX.962894217 AYTO,HTTP://BIBLIOTECAPALMERA.BLOGSPOT.COM/, ,BIBLIOTECA@AJUNTAMENTPALMERA.ES,N,PU,PÚBLICA,N,39.48237340000001,-0.3974435
413,46,VALENCIA,189,AGENCIA DE LECTURA,AGENCIA DE LECTURA  PALOMAR [EL],AVENIDA VALENCIA Nº 61,", CP 46891", TELF.962391096 AYTO, FAX.962390903 AYTO, , ,ELPALOMAR_ADL@GVA.ES,N,PU,PÚBLICA,S,39.9763111,-0.0477529
414,46,VALENCIA,19,BIBLIOTECA PUBLICA MUNICIPAL,BIBLIOTECA PUBLICA MUNICIPAL  ALCÚDIA (L'),CALLE PINTOR VERGARA Nº 28,", CP 46250", TELF.962997265, FAX.962996957 AYTO,HTTP://XLPV.CULT.GVA.ES/CGINET-BIN/ABNETOP?SUBC=0077,HTTP://XLPV.CULT.GVA.ES/CGINET-BIN/ABNETOP?SUBC=0077,BIBLIOTECALCUDIA@YAHOO.ES,N,PU,PÚBLICA,S,39.1940362,-0.5071937
415,46,VALENCIA,190,CENTRO DE DOCUMENTACION,CENTRO DE DOCUMENTACION ITENE PATERNA,"CALLE ALBERT EINSTEIN-PARQUE TECNOLÓGICO Nº 1,3,5",", CP 46980", TELF.963905400, FAX.963905401,HTTP://WWW.ITENE.COM/HTML_ES/ES_HOME.HTM,HTTP://WWW.ENVASEYEMBALAJE.COM,DVIVO@ITENE.COM,N,PR,PRIVADA,N,39.4840108,-0.7532808999999999
416,46,VALENCIA,190,CENTRO DE DOCUMENTACION,CENTRO DE DOCUMENTACION AINIA PATERNA,AVENIDA BENJAMÍN FRANKLIN - PARQUE TECNOLÓGICO Nº 5-11,", CP 46980", TELF.961366090, FAX.961318008,HTTP://WWW.AINIA.ES, ,BIBLIOTECA@AINIA.ES,N,PR,PRIVADA,N,39.54566459999999,-0.4590851
417,46,VALENCIA,190,CENTRO DE DOCUMENTACION,CENTRO DE DOCUMENTACION AIMPLAS-INSTITUTO TECNOLÓGICO DEL PLÁSTICO PATERNA,CALLE GUSTAVE EIFFEL-VALÈNCIA PARC TECNOLÒGIC Nº 4,", CP 46980", TELF.961366040, FAX.961366041,HTTP://WWW.AIMPLAS.ES/GENERADORHTML.PHP?PAGINA=/ES/INDICE/DOCUMENTACION, ,DIT@AIMPLAS.ES,N,PR,PRIVADA,N,39.5471494,-0.4569998
418,46,VALENCIA,190,AGENCIA DE LECTURA,AGENCIA DE LECTURA TERRAMELAR PATERNA,CALLE ALGINET Nº S/N,", CP 46980", TELF.961388621, ,HTTP://WWW.BIBLIOTECASPUBLICAS.ES/PATERNA/INDEX.JSP,HTTP://XLPV.CULT.GVA.ES/CGINET-BIN/ABNETOP?SUBC=0112,BTERRAMELAR@AYTO-PATERNA.ES,N,PU,PÚBLICA,N,39.4727215,-0.358616
419,46,VALENCIA,190,AGENCIA DE LECTURA,"AGENCIA DE LECTURA LA COMA CENTRO JUAN A  VILA BLASCO ""EL CURA"" PATERNA",CALLE PICANYA Nº S/N,", CP 46980", TELF.963053523, ,HTTP://WWW.BIBLIOTECASPUBLICAS.ES/PATERNA/INDEX.JSP,HTTP://XLPV.CULT.GVA.ES/CGINET-BIN/ABNETOP?SUBC=0112,BCOMA@AYTO-PATERNA.ES,N,PU,PÚBLICA,S,39.4383893,-0.4540555999999999
420,46,VALENCIA,190,BIBLIOTECA PUBLICA MUNICIPAL,BIBLIOTECA PUBLICA MUNICIPAL VICENTE MIGUEL CARCELLER PATERNA,CALLE SAN VICENTE FERRER Nº 6-8,", CP 46182", TELF.961321774, ,HTTP://WWW.BIBLIOTECASPUBLICAS.ES/PATERNA/INDEX.JSP,HTTP://XLPV.CULT.GVA.ES/CGINET-BIN/ABNETOP?SUBC=0112,BIBLICANYADA@AYTO-PATERNA.ES,N,PU,PÚBLICA,N,39.4680898,-0.369269
421,46,VALENCIA,190,BIBLIOTECA PUBLICA MUNICIPAL,BIBLIOTECA PUBLICA MUNICIPAL 'LA COVA GRAN' PATERNA,CALLE GODELLA Nº 30,", CP 46980", TELF.963053139, FAX.961389264,HTTP://WWW.BIBLIOTECASPUBLICAS.ES/PATERNA/INDEX.JSP,HTTP://XLPV.CULT.GVA.ES/CGINET-BIN/ABNETOP?SUBC=0112,BCOVAGRAN@AYTO-PATERNA.ES,S,PU,PÚBLICA,S,39.5867769,-0.4528975
422,46,VALENCIA,190,CENTRO DE DOCUMENTACION,CENTRO DE DOCUMENTACION AIMME PATERNA,AVENIDA LEONARDO DA VINCI - PARQUE TECNOLÓGICO Nº 38,", CP 46980", TELF.961318559, FAX.961318168,HTTP://WWW.AIMME.ES, ,CPLANES@AIMME.ES,N,PR,PRIVADA,N,39.545753,-0.4552903
423,46,VALENCIA,190,CENTRO DE DOCUMENTACION,CENTRO DE DOCUMENTACION AIDIMA PATERNA,AVENIDA BENJAMÍN FRANKLIN - PARQUE TECNOLÓGICO Nº 13,", CP 46980", TELF.961366070, FAX.961366185,HTTP://WWW.AIDIMA.ES/AIDIMA/, ,CFUERTES@AIDIMA.ES,N,PR,PRIVADA,N,39.54646899999999,-0.459934
424,46,VALENCIA,190,CENTRO DE DOCUMENTACION,CENTRO DE DOCUMENTACION AIDICO PATERNA,AVENIDA BENJAMÍN FRANKLIN - PARQUE TECNOLÓGICO Nº 17,", CP 46980", TELF.961318278, FAX.961318033,HTTP://WWW.AIDICO.ES, ,DOCUMENTACION@AIDICO.ES,N,PR,PRIVADA,N,39.5509115,-0.4648053
425,46,VALENCIA,190,CENTRO DE DOCUMENTACION,CENTRO DE DOCUMENTACION AIDO PATERNA,CALLE NICOLÁS COPÉRNICO - PARQUE TECNOLÓGICO Nº 7-13,", CP 46980", TELF.961318051, FAX.961318007,HTTP://WWW.AIDO.ES,HTTP://WWW.AIDO.ES/WEBTEST/BASEDAT3.HTML,INFO@AIDO.ES,N,PR,PRIVADA,N,39.5460229,-0.4560403
426,46,VALENCIA,190,CENTRO DE DOCUMENTACION,CENTRO DE DOCUMENTACION ITE-INSTITUTO TECNOLÓGICO DE LA ENERGÍA PATERNA,AVENIDA JUAN DE LA CIERVA-PARQUE TECNOLÓGICO Nº 24,", CP 46980", TELF.961366670, FAX.961366680,HTTP://WWW.ITE.ES, ,ITE@ITE.ES / FORMACION@ITE.ES,N,PR,PRIVADA,N,39.5460984,-0.4532698
427,46,VALENCIA,191,AGENCIA DE LECTURA,AGENCIA DE LECTURA  PEDRALBA,CALLE ROCHETA Nº 2,", CP 46164", TELF.962707353, FAX.962707536 AYTO,HTTP://XLPV.CULT.GVA.ES/CGINET-BIN/ABNETOP?SUBC=0139,HTTP://XLPV.CULT.GVA.ES/CGINET-BIN/ABNETOP?SUBC=0139,BIBLIOTECA@PEDRALBA.ES,N,PU,PÚBLICA,N,39.6043613,-0.7268298999999999
428,46,VALENCIA,193,BIBLIOTECA PUBLICA MUNICIPAL,BIBLIOTECA PUBLICA MUNICIPAL  PICANYA,PLAZA MAJOR Nº 16,", CP 46210", TELF.961592686 , FAX.961591846 AYTO, ,HTTP://XLPV.CULT.GVA.ES/CGINET-BIN/ABNETOP?SUBC=0178,BIBLIOTECA@PICANYA.ORG ,N,PU,PÚBLICA,S,39.4227398,-0.3393306
429,46,VALENCIA,194,BIBLIOTECA PENITENCIARIA,BIBLIOTECA PENITENCIARIA CENTRO PREVENTIVOS PICASSENT,"CARRETERA NACIONAL 340, KM 225",", CP 46220", TELF.961975038/9619750, , , , ,N,PU,PÚBLICA,N,39.3141215,-0.4354836
430,46,VALENCIA,194,BIBLIOTECA PENITENCIARIA,BIBLIOTECA PENITENCIARIA CENTRO DE CUMPLIMIENTO PICASSENT,"CARRETERA NACIONAL 340, KM 225",", CP 46220", TELF.961975085, FAX.961234560, , , ,N,PU,PÚBLICA,N,39.3141215,-0.4354836
431,46,VALENCIA,194,BIBLIOTECA PUBLICA MUNICIPAL,BIBLIOTECA PUBLICA MUNICIPAL CASA DE CULTURA PICASSENT,CALLE JAUME I Nº 15,", CP 46220", TELF.961235859, FAX.961241745,HTTP://WWW.BIBLIOTECASPUBLICAS.ES/PICASSENT,HTTP://XLPV.CULT.GVA.ES/CGINET-BIN/ABNETOP?SUBC=0064,PURA.NAVARRO@PICASSENT.ES / ANA.BONO@PICASSENT.ES,N,PU,PÚBLICA,N,39.4517464,-0.4688998
432,46,VALENCIA,195,AGENCIA DE LECTURA,AGENCIA DE LECTURA  PILES,PLAZA MORERES Nº 3 PISO 2,", CP 46712", TELF.962831087/962831115, , , ,BIBLIOPILES@GMAIL.COM,N,PU,PÚBLICA,S,39.4516789,-0.3397034
433,46,VALENCIA,197,AGENCIA DE LECTURA,AGENCIA DE LECTURA  POLINYÀ DE XÚQUER,CALLE CANONGE HERNANDIS Nº 6,", CP 46688", TELF.962973727, FAX.962973052 AYTO,HTTP://XLPV.CULT.GVA.ES/CGINET-BIN/ABNETOP?SUBC=0126,HTTP://XLPV.CULT.GVA.ES/CGINET-BIN/ABNETOP?SUBC=0126,BIBLIOPOLINYA@HOTMAIL.COM,N,PU,PÚBLICA,N,39.1954534,-0.3694275
434,46,VALENCIA,198,AGENCIA DE LECTURA,AGENCIA DE LECTURA  POTRIES,CALLE JAUME I Nº 57,", CP 46721", TELF.962899429 , FAX.962801162 AYTO,HTTP://WWW.BIBLIOTECASPUBLICAS.ES/POTRIES/INDEX.JSP,HTTP://XLPV.CULT.GVA.ES/CGINET-BIN/ABNETOP?SUBC=0151,BIBLIOTECA@POTRIES.ORG,N,PU,PÚBLICA,S,39.4513975,-0.4717301
435,46,VALENCIA,199,BIBLIOTECA PUBLICA MUNICIPAL,BIBLIOTECA PUBLICA MUNICIPAL  POBLA DE FARNALS (LA),CALLE MIGUEL MARQUES Nº 9 ESC. A,", CP 46139", TELF.96 144 39 44, FAX.961452818,HTTP://XLPV.CULT.GVA.ES/CGINET-BIN/ABNETOP?SUBC=0099,HTTP://XLPV.CULT.GVA.ES/CGINET-BIN/ABNETOP?SUBC=0099,BIBLIOTECA@LAPOBLADEFARNALS.ES,N,PU,PÚBLICA,S,39.5792908,-0.3253844
436,46,VALENCIA,2,AGENCIA DE LECTURA,AGENCIA DE LECTURA  ADOR,CALLE JOAN MARTORELL Nº 1,", CP 46724", TELF.962808008 AYTO, FAX.962808159 AYTO,HTTP://XLPV.CULT.GVA.ES/CGINET-BIN/ABNETOP?SUBC=0152,HTTP://XLPV.CULT.GVA.ES/CGINET-BIN/ABNETOP?SUBC=0152,ADOR_CULTURA@CV.GVA.ES,N,PU,PÚBLICA,S,39.6722779,-0.2423928
437,46,VALENCIA,20,BIBLIOTECA PUBLICA MUNICIPAL,BIBLIOTECA PUBLICA MUNICIPAL  ALCÚDIA DE CRESPINS (L'),PLAZA GENERALITAT Nº S/N,", CP 46690", TELF.962241411, , , ,TELECENTRO_ACRESPINS@GVA.ES / BP_ACRESPINS@HOTMAIL.COM,N,PU,PÚBLICA,N,39.2005576,-0.5076205
438,46,VALENCIA,200,AGENCIA DE LECTURA,AGENCIA DE LECTURA  POBLA DEL DUC (LA),AVENIDA CONSTITUCIÓ Nº 10,", CP 46840", TELF.962250066-654619060, FAX.962927155 AYTO, , ,BIBLIOTECA@LAPOBLADELDUC.COM,N,PU,PÚBLICA,N,39.4844164,-0.3786502
439,46,VALENCIA,202,BIBLIOTECA PUBLICA MUNICIPAL,BIBLIOTECA PUBLICA MUNICIPAL  POBLA DE VALLBONA (LA),CALLE COLON  Nº 95,", CP 46185", TELF.962760233, FAX.962760233,HTTP://XLPV.CULT.GVA.ES/CGINET-BIN/ABNETOP?SUBC=0081,HTTP://XLPV.CULT.GVA.ES/CGINET-BIN/ABNETOP?SUBC=0081,BIBLIOTECA@LAPOBLADEVALLBONA.ES,N,PU,PÚBLICA,N,39.47127589999999,-0.369654
440,46,VALENCIA,203,AGENCIA DE LECTURA,AGENCIA DE LECTURA  POBLA LLARGA (LA),PASEO DE LA GLORIETA Nº S/N,", CP 46670", TELF.962970434, FAX.962970462 AYTO,HTTP://XLPV.CULT.GVA.ES/CGINET-BIN/ABNETOP?SUBC=0036,HTTP://XLPV.CULT.GVA.ES/CGINET-BIN/ABNETOP?SUBC=0036,BIBLIOTECA@LAPOBLALLARGA.ES,N,PU,PÚBLICA,S,39.75098029999999,-0.3638917
441,46,VALENCIA,204,BIBLIOTECA PUBLICA MUNICIPAL,BIBLIOTECA PUBLICA MUNICIPAL  PUIG DE SANTA MARIA [EL],CALLE DE L'ESTACIO Nº S/N,", CP 46540", TELF.960017017, FAX.961470860 ,HTTP://WWW.ELPUIG.ES  ,HTTP://XLPV.CULT.GVA.ES/CGINET-BIN/ABNETOP?SUBC=0185,BIBLIOTECA@ELPUIG.ORG / CULTURA@ELPUIG.ORG,N,PU,PÚBLICA,S,38.932369,-0.184884
442,46,VALENCIA,205,BIBLIOTECA PUBLICA MUNICIPAL,BIBLIOTECA PUBLICA MUNICIPAL  PUÇOL,CALLE SANTA TERESA DE JESUS Nº 10,", CP 46530", TELF.961424086/687501419, FAX.961464321,HTTP://XLPV.CULT.GVA.ES/CGINET-BIN/ABNETOP?SUBC=0086,HTTP://XLPV.CULT.GVA.ES/CGINET-BIN/ABNETOP?SUBC=0086,BIBLIO.ROSA@PUCOL.ES,N,PU,PÚBLICA,N,39.4953249,-0.4633031
443,46,VALENCIA,206,OTRAS PÚBLICAS,OTRAS PÚBLICAS  QUESA,CALLE HERNÁN CORTÉS Nº 4,", CP 46824", TELF.962256001 AYTO, FAX.962256092 AYTO, , ,AYUNTAMIENTODEQUESA@GMAIL.COM,N,PU,PÚBLICA,N,39.4688101,-0.371889
444,46,VALENCIA,207,BIBLIOTECA PUBLICA MUNICIPAL,BIBLIOTECA PUBLICA MUNICIPAL  RAFELBUNYOL,CALLE JOSEP Mª LLOPIS Nº 4,", CP 46138", TELF.961414224, FAX.961410049,HTTP://WWW.RAFELBUNYOL.ANCLASOFT.ES/CONSULTA,HTTP://WWW.RAFELBUNYOL.ANCLASOFT.ES/CONSULTA,BIBLIOTECA@RAFELBUNYOL.ES,N,PU,PÚBLICA,N,39.5874714,-0.3361233
445,46,VALENCIA,208,AGENCIA DE LECTURA,AGENCIA DE LECTURA  RAFELCOFER,CALLE LA PAU Nº 16,", CP 46716", TELF.648278077, FAX.962800282 AYTO, ,HTTP://XLPV.CULT.GVA.ES/CGINET-BIN/ABNETOP?SUBC=0184 ,RAFELCULTURA@GMAIL.COM,N,PU,PÚBLICA,S,39.4733687,-0.3739343
446,46,VALENCIA,209,AGENCIA DE LECTURA,AGENCIA DE LECTURA  RAFELGUARAF,CALLE JUAN SILVESTRE Nº 1,", CP 46666", TELF.962979040, FAX.962979089 AYTO, , ,BIBLIORAFEL@HOTMAIL.COM,N,PU,PÚBLICA,N,39.0520127,-0.4547865
447,46,VALENCIA,21,BIBLIOTECA PUBLICA MUNICIPAL,BIBLIOTECA PUBLICA MUNICIPAL JUAN GIL ALBERT ALDAIA,PLAZA DE LA CULTURA Nº S/N,", CP 46960", TELF.961988786/1988797, ,HTTP://HTTP://WWW.BIBLIOTECASPUBLICAS.ES/ALDAIA/INDEX.JSP,HTTP://XLPV.CULT.GVA.ES/CGINET-BIN/ABNETOP?SUBC=0027,BIBLIOTECA@AJUNTAMENTALDAIA.ORG,N,PU,PÚBLICA,N,39.5292046,-0.3486187
448,46,VALENCIA,210,AGENCIA DE LECTURA,AGENCIA DE LECTURA  RÁFOL DE SALEM,CARRETERA BENIATJAR Nº S/N PISO 1,", CP 46843", TELF.962813072 AYTO, FAX.962814021 AYTO, , , ,N,PU,PÚBLICA,N,38.8658485,-0.3964921
449,46,VALENCIA,211,AGENCIA DE LECTURA,AGENCIA DE LECTURA AUSIAS MARCH EL REAL DE GANDIA,CALLE PARROCO BERENGUER Nº 14 PISO 1,", CP 46727", TELF.649934626, , ,HTTP://XLPV.CULT.GVA.ES/CGINET-BIN/ABNETOP?SUBC=0192,BIBLIOTECA@ELREALDEGANDIA.ORG,N,PU,PÚBLICA,S,38.9483866,-0.1929309
450,46,VALENCIA,212,OTRAS PÚBLICAS,OTRAS PÚBLICAS  REAL,CALLE RIU MAGRE Nº S/N,", CP 46194", TELF.962555006 AYTO, FAX.962555503 AYTO, , ,REAL_PAD@GVA.ES/BIBLIOTECA_REALMONTROI@HOTMAIL.COM/REAL_ALC@GVA.ES,N,PU,PÚBLICA,N,38.8770274,-0.0265879
451,46,VALENCIA,213,BIBLIOTECA AUXILIAR ARCHIVO,BIBLIOTECA AUXILIAR ARCHIVO DE REQUENA REQUENA,CALLE SANTA MARÍA Nº 24,", CP 46340", TELF.962304228, ,HTTP://WWW.BIBLIOTECASPUBLICAS.ES/REQUENA/,HTTP://WWW.BIBLIOTECASPUBLICAS.ES/REQUENA/CATALOGO_NTRO.HTM,ARCHIVO_REQUENA@YAHOO.ES,N,PU,PÚBLICA,N,39.4718336,-0.3929587
452,46,VALENCIA,213,BIBLIOTECA PUBLICA MUNICIPAL,BIBLIOTECA PUBLICA MUNICIPAL  REQUENA,AVENIDA ARRABAL Nº 13,", CP 46340", TELF.962302371, FAX.962303553 AYTO,HTTP://WWW.BIBLIOTECASPUBLICAS.ES/REQUENA/,HTTP://XLPV.CULT.GVA.ES/CGINET-BIN/ABNETOP?SUBC=0141,BIBLIOTECA@REQUENA.ES ,N,PU,PÚBLICA,N,39.4880424,-1.1023791
453,46,VALENCIA,213,OTRAS PÚBLICAS,OTRAS PÚBLICAS SAN ANTONIO DE REQUENA REQUENA,CALLE VALENCIA Nº 1,", CP 46390", , , , , ,N,PU,PÚBLICA,N,39.47379189999999,-0.4117183
454,46,VALENCIA,214,BIBLIOTECA PUBLICA MUNICIPAL,BIBLIOTECA PUBLICA MUNICIPAL I RIBA-ROJA DE TÚRIA,CALLE TRINQUETE Nº 1,", CP 46190", TELF.962770552, FAX.962772462 AYTO,HTTP://WWW.BIBLIOTECASPUBLICAS.ES/RIBARROJA/,HTTP://XLPV.CULT.GVA.ES/CGINET-BIN/ABNETOP?SUBC=0052,BIBLIOTECAS@RIBARROJA.ES,S,PU,PÚBLICA,S,39.4740192,-0.3727736
455,46,VALENCIA,214,AGENCIA DE LECTURA,AGENCIA DE LECTURA II RIBA-ROJA DE TÚRIA,CALLE CERVANTES Nº S/N,", CP 46190", TELF.961653513, ,HTTP://WWW.BIBLIOTECASPUBLICAS.ES/RIBARROJAC,HTTP://XLPV.CULT.GVA.ES/CGINET-BIN/ABNETOP?SUBC=0052,BIBLIOTECAS@RIBARROJA.ES,N,PU,PÚBLICA,S,38.3447152,-0.4805903
456,46,VALENCIA,215,AGENCIA DE LECTURA,AGENCIA DE LECTURA  RIOLA,PLAZA PAÍS VALENCIÀ Nº 1,", CP 46418", TELF.961702201 AYTO, FAX.961710327 AYTO, , ,BIBLIORIOLA@GMAIL.COM,N,PU,PÚBLICA,N,39.482851,-0.4424179
457,46,VALENCIA,216,BIBLIOTECA PUBLICA MUNICIPAL,BIBLIOTECA PUBLICA MUNICIPAL  ROCAFORT,CALLE MAJOR Nº S/N,", CP 46111", TELF.961312108/1312297, FAX.961312417,HTTP://WWW.AJUNTAMENT-ROCAFORT.ORG,HTTP://XLPV.CULT.GVA.ES/CGINET-BIN/ABNETOP?SUBC=0022,BIBLIOTECACC@HOTMAIL.COM,N,PU,PÚBLICA,N,39.4740331,-0.4146675
458,46,VALENCIA,218,OTRAS PÚBLICAS,OTRAS PÚBLICAS CENTRO POLIVALENTE RÓTOVA,PLAZA MAYOR Nº 7,", CP 46725", TELF.962835316, FAX.962957009 AYTO, , ,CPAS.ROTOVA@GMAIL.COM,N,PU,PÚBLICA,N,38.6429386,0.0465465
459,46,VALENCIA,219,OTRAS PÚBLICAS,OTRAS PÚBLICAS  RUGAT,CALLE SANTA RITA Nº 4,", CP 46842", TELF.962813603, , , ,RUGAT_ALC@GVA.ES,N,PU,PÚBLICA,N,37.9385763,-0.7230841
460,46,VALENCIA,22,BIBLIOTECA PUBLICA MUNICIPAL,BIBLIOTECA PUBLICA MUNICIPAL  ALFAFAR,CALLE ORTEGA Y GASSET Nº 2,", CP 46910", TELF.963182439, FAX.963182157 AYTO,HTTP://REDALFAFAR.BLOGSPOT.COM   ,HTTP://XLPV.CULT.GVA.ES/CGINET-BIN/ABNETOP?SUBC=0013,REDALFAFAR@GMAIL.COM,S,PU,PÚBLICA,N,39.421943,-0.3903152
461,46,VALENCIA,22,AGENCIA DE LECTURA,AGENCIA DE LECTURA PARQUE ALCOSA  BARRIO ORBA ALFAFAR,CALLE ALDAIA Nº 8,", CP 46910", TELF.963753283, FAX.963182157 AYTO,HTTP://REDALFAFAR.BLOGSPOT.COM   ,HTTP://XLPV.CULT.GVA.ES/CGINET-BIN/ABNETOP?SUBC=0013,REDALFAFAR@GMAIL.COM,N,PU,PÚBLICA,N,39.5058526,-0.4428302
462,46,VALENCIA,220,BIBLIOTECA PUBLICA MUNICIPAL,BIBLIOTECA PUBLICA MUNICIPAL CRONISTA CHABRET SAGUNT,PLAZA CRONISTA CHABRET Nº 20,", CP 46500", TELF.962664521, FAX.962663711,HTTP://WWW.AYTOSAGUNTO.ES/ES-ES/AYUNTAMIENTO/SERVICIOS/CULTURAEDUCACION/BIBLIOTECAS/PAGINAS/DEFAULT.ASPX,HTTP://WWW.AYTOSAGUNTO.ES/BIBLIOTECA,BIBLIOTECA.CRONISTACHABRET@AYTOSAGUNTO.ES,N,PU,PÚBLICA,S,39.6805786,-0.278955
463,46,VALENCIA,220,BIBLIOTECA UNIVERSITARIA,BIBLIOTECA UNIVERSITARIA FRANCISCO TOMÁS Y VALIENTE-UNED PUERTO SAGUNTO (EL),AVENIDA FAUSTO CARUANA-I.E.S.CAMP DE MORVEDRE Nº S/N,", CP 46520", TELF.962675831, FAX.962671265,HTTP://WWW.UNED-VALENCIA.NET/,HTTP://BIBLIO15.UNED.ES/,SAGUNT@VALENCIA.UNED.ES,N,PU,PÚBLICA,N,39.67125619999999,-0.2455602
464,46,VALENCIA,220,BIBLIOTECA PUBLICA MUNICIPAL,BIBLIOTECA PUBLICA MUNICIPAL CENTRO CIVICO PUERTO SAGUNTO (EL),JARDINES  ANTIGUO SANATORIO    AHM Nº S/N,", CP 46520", TELF.962655896, ,HTTP://WWW.AYTOSAGUNTO.ES/APLICACION/GRUPO.ASP?S=INFOSER&SS=ARCBIB,HTTP://WWW.AYTOSAGUNTO.ES/BIBLIOTECA,BIBLIOTECA.CENTROCIVICO@AYTOSAGUNTO.ES,S,PU,PÚBLICA,S,39.6644675,-0.2286801
465,46,VALENCIA,221,AGENCIA DE LECTURA,AGENCIA DE LECTURA  SALEM,PLAZA REI EN JAUME I Nº 9,", CP 46843", TELF.962813331 AYTO, FAX.962814074 AYTO, , ,BIBLIOTECASALEM@GMAIL.COM,N,PU,PÚBLICA,N,38.9662376,-0.1818583
466,46,VALENCIA,223,BIBLIOTECA PUBLICA MUNICIPAL,BIBLIOTECA PUBLICA MUNICIPAL  SEDAVÍ,AVENIDA DR.GOMEZ FERRER Nº 32,", CP 46910", TELF.963962293, FAX.963962293,HTTP://XLPV.CULT.GVA.ES/CGINET-BIN/ABNETOP?SUBC=0039,HTTP://XLPV.CULT.GVA.ES/CGINET-BIN/ABNETOP?SUBC=0039,BIBLIOTECA@SEDAVI.ES,N,PU,PÚBLICA,N,39.4256094,-0.3884708000000001
467,46,VALENCIA,227,AGENCIA DE LECTURA,AGENCIA DE LECTURA  SENYERA,CALLE MAYOR Nº 7 PISO 1,", CP 46669", TELF.962452625, FAX.962452281 AYTO, , ,BIBLIOTECASENY@GMAIL.COM,N,PU,PÚBLICA,N,39.6690405,-0.3395591000000001
468,46,VALENCIA,228,BIBLIOTECA HOSPITALARIA,BIBLIOTECA HOSPITALARIA HOSPITAL DR MOLINER SERRA,CALLE PORTA-COELI Nº S/N,", CP 46118", TELF.961687923, FAX.961601002, , , ,N,PU,PÚBLICA,N,39.4898478,-0.3694891
469,46,VALENCIA,228,BIBLIOTECA ESPECIALIZADA,BIBLIOTECA ESPECIALIZADA HOSPITAL DR  MOLINER SERRA,CALLE PORTA-COELI Nº S/N,", CP 46118", TELF.961687912, , , , ,N,PU,PÚBLICA,N,39.4898478,-0.3694891
470,46,VALENCIA,228,AGENCIA DE LECTURA,AGENCIA DE LECTURA  SERRA,CALLE EMPEDRADO Nº 17BAJ,", CP 46118", TELF.961689505/961688443, FAX.961688520 AYTO,HTTP://XLPV.CULT.GVA.ES/CGINET-BIN/ABNETOP?SUBC=0153,HTTP://XLPV.CULT.GVA.ES/CGINET-BIN/ABNETOP?SUBC=0153,BIBLIOTECA@SERRA.ES,N,PU,PÚBLICA,N,39.2629855,-0.4701613
471,46,VALENCIA,229,AGENCIA DE LECTURA,AGENCIA DE LECTURA  SIETE AGUAS,CALLE ARRABAL Nº 2,", CP 46392", TELF.962340300 AYTO, FAX.962340300 AYTO, , ,ALEGRELLORENS@GMAIL.COM,N,PU,PÚBLICA,N,39.6561174,-0.8920872000000001
472,46,VALENCIA,230,BIBLIOTECA PUBLICA MUNICIPAL,BIBLIOTECA PUBLICA MUNICIPAL  SILLA,AVENIDA ALACANT Nº 45 PISO 2,", CP 46460", TELF.961203713, FAX.961212223 AYTO,HTTP://WWW.SILLACULTURAL.COM/BIBLIOTECA,HTTP://XLPV.CULT.GVA.ES/CGINET-BIN/ABNETOP?SUBC=0024,BIBLIOTECA@SILLA.ES,S,PU,PÚBLICA,S,38.9682126,-0.1780367
473,46,VALENCIA,231,AGENCIA DE LECTURA,AGENCIA DE LECTURA  SIMAT DE LA VALLDIGNA,PLAZA RAMIRO CALATAYUD Nº 5,", CP 46750", TELF.962811828/2810226, FAX.962811984 AYTO,HTTP://XLPV.CULT.GVA.ES/CGINET-BIN/ABNETOP?SUBC=0053,HTTP://XLPV.CULT.GVA.ES/CGINET-BIN/ABNETOP?SUBC=0053,BIBLIOTECA@SIMAT.ORG / BIBLIOTECA_SIMAT@HOTMAIL.COM,N,PU,PÚBLICA,S,39.0430977,-0.3107274
474,46,VALENCIA,232,OTRAS PÚBLICAS,OTRAS PÚBLICAS  SINARCAS,CALLE EUGENIO CAÑIZARES Nº 17,", CP 46320", TELF.962315411 AYTO, FAX.962315062 AYTO, , ,SINARCAS@GVA.ES,N,PU,PÚBLICA,N,39.732042,-1.2312261
475,46,VALENCIA,233,AGENCIA DE LECTURA,AGENCIA DE LECTURA  SOLLANA,CALLE DOCTOR LÓPEZ IBOR Nº 29,", CP 46430", TELF.961741280, FAX.961740797,HTTP://WWW.BIBLIOTECASPUBLICAS.ES/SOLLANA/INDEX.JSP,HTTP://XLPV.CULT.GVA.ES/CGINET-BIN/ABNETOP?SUBC=0154,BIBLIOTECA@SOLLANA.ES,N,PU,PÚBLICA,N,39.2786609,-0.3828454
476,46,VALENCIA,235,BIBLIOTECA ESPECIALIZADA,BIBLIOTECA ESPECIALIZADA SUECANA SUECA,CALLE SANT JOSEP Nº 8,", CP 46410", TELF.961710936, FAX.961710936, , , ,N,PU,PÚBLICA,N,39.4749726,-0.4145091
477,46,VALENCIA,235,BIBLIOTECA PUBLICA MUNICIPAL,BIBLIOTECA PUBLICA MUNICIPAL  SUECA,PLAZA DELS MOLINS DE LA VILA Nº 9,", CP 46410", TELF.961711671, FAX.961711671,HTTP://WWW.BIBLIOTECASPUBLICAS.ES/SUECA,HTTP://XLPV.CULT.GVA.ES/CGINET-BIN/ABNETOP?SUBC=0065,SUECA_BIB@GVA.ES,N,PU,PÚBLICA,S,38.3552203,-0.4715856999999999
478,46,VALENCIA,235,AGENCIA DE LECTURA,AGENCIA DE LECTURA ESCOLES MARENY DE BARRAQUETES,CALLE L'ALTER Nº 1,", CP 46419", TELF.961760245 AYTO, , , ,TELECENTRO_MARENY@GVA.ES,N,PU,PÚBLICA,N,39.2462782,-0.2650132
479,46,VALENCIA,235,AGENCIA DE LECTURA,AGENCIA DE LECTURA  PERELLÓ (EL),CALLE BARON DE RUAYA Nº 1,", CP 46420", TELF.961771046, ,HTTP://BIBLIOTECAPERELLO.JIMDO.COM/,HTTP://XLPV.CULT.GVA.ES/CGINET-BIN/ABNETOP?SUBC=0174,YSABEL_US@YAHOO.COM,N,PU,PÚBLICA,S,39.4850371,-0.3745731
480,46,VALENCIA,237,BIBLIOTECA PUBLICA MUNICIPAL,BIBLIOTECA PUBLICA MUNICIPAL  TAVERNES BLANQUES,CALLE CASTELLON Nº 2 PISO 1,", CP 46016", TELF.961862963, FAX.961859633 AYTO,HTTP://WWW.TAVERNESBLANQUES.ES,HTTP://XLPV.CULT.GVA.ES/CGINET-BIN/ABNETOP?SUBC=0103,TBLANQUES_BIB@GVA.ES,N,PU,PÚBLICA,S,39.466058,-0.3766876
481,46,VALENCIA,238,BIBLIOTECA PUBLICA MUNICIPAL,BIBLIOTECA PUBLICA MUNICIPAL  TAVERNES DE LA VALLDIGNA,PASEO DE LEPANT Nº S/N,", CP 46760", TELF.962823176, FAX.962822027 AYTO,HTTP://WWW.BIBLIOTECASPUBLICAS.ES/TAVERNESDELAVALLDIGNA/INDEX.JSP,HTTP://XLPV.CULT.GVA.ES/CGINET-BIN/ABNETOP?SUBC=0104,BIBLIOTECA@TAVERNES.ORG,N,PU,PÚBLICA,S,39.4840108,-0.7532808999999999
482,46,VALENCIA,24,AGENCIA DE LECTURA,AGENCIA DE LECTURA CASA ABADÍA ALFARA DE LA BARONIA,PLAZA DE LA IGLESIA Nº 3,", CP 46148", TELF.962626336, FAX.962627225, , ,ALFARABARONIA_ALC@GVA.ES,N,PU,PÚBLICA,N,39.4826024,-0.3972511
483,46,VALENCIA,241,AGENCIA DE LECTURA,AGENCIA DE LECTURA  TITAGUAS,PLAZA DE LA IGLESIA Nº 7,", CP 46178", TELF.961634001 AYTO, FAX.961634093 AYTO, ,HTTP://WWW.BIBLIOTECADETITAGUAS.ES/OPAC_CSS/,TITAGUAS_OFI@GVA.ES,N,PU,PÚBLICA,N,39.4824224,-0.3974523
484,46,VALENCIA,244,BIBLIOTECA PUBLICA MUNICIPAL,BIBLIOTECA PUBLICA MUNICIPAL 1 TORRENT,CALLE SAGRA Nº 17,", CP 46900", TELF.961111850, FAX.961581207,HTTP://WWW.TORRENT.ES/TORRENTPUBLIC/INICIO/CONEIXER/BIBLIOTEQUES.HTML ,HTTP://XLPV.CULT.GVA.ES/CGINET-BIN/ABNETOP?SUBC=0008,CASACULTURA@ATORRENT.ES / BIBLIOTECA@TORRENT.ES,S,PU,PÚBLICA,N,39.43677599999999,-0.4640409
485,46,VALENCIA,244,BIBLIOTECA ESPECIALIZADA,BIBLIOTECA ESPECIALIZADA CEFIRE TORRENT,CALLE POLICIA LOCAL Nº S/N,", CP 46900", TELF.961572061, FAX.961561369,HTTP://INTERCENTRES.CULT.GVA.ES/CEFIRE/46401751/,HTTP://WWW.BEGV.GVA.ES/CEFIRE/VAL_TLPCEF.HTML,BIBLIOTORRENT@EDU.GVA.ES,N,PU,PÚBLICA,N,39.4336491,-0.462583
486,46,VALENCIA,244,BIBLIOTECA PUBLICA MUNICIPAL,BIBLIOTECA PUBLICA MUNICIPAL 2 TORRENT,AVENIDA AL VEDAT Nº 103,", CP 46900", TELF.961111851, FAX.961573878,HTTP://WWW.TORRENT.ES/TORRENTPUBLIC/INICIO/CONEIXER/BIBLIOTEQUES.HTML ,HTTP://XLPV.CULT.GVA.ES/CGINET-BIN/ABNETOP?SUBC=0008,BIBLIOMETRO@TORRENT.ES / BIBLIOTECA@TORRENT.ES,N,PU,PÚBLICA,N,39.43207400000001,-0.4723703
487,46,VALENCIA,246,AGENCIA DE LECTURA,AGENCIA DE LECTURA  TOUS,CALLE SANTA BÁRBARA Nº S/N,", CP 46269", TELF.962449135, FAX.962449320 AYTO, , ,BIBLIOTECA_TOUS@HOTMAIL.COM,N,PU,PÚBLICA,N,38.3489719,-0.4780289
488,46,VALENCIA,247,AGENCIA DE LECTURA,AGENCIA DE LECTURA MAESTRO AGUILAR TUÉJAR,CALLE MAESTRE AGUILAR Nº 5 PISO 1º,", CP 46177", TELF.961635803, FAX.961635151 AYTO,HTTP://BIBLIOTECAMAESTROAGUILAR.WORDPRESS.COM/, ,BIBLIOTECADETUEJAR@GMAIL.COM,N,PU,PÚBLICA,N,39.46165269999999,-0.3703311
489,46,VALENCIA,248,BIBLIOTECA PUBLICA MUNICIPAL,BIBLIOTECA PUBLICA MUNICIPAL CASA DE LA CULTURA TURÍS,PLAZA VICENT RIBES Nº 6,", CP 46389", TELF.962526036 AYTO, FAX.962526761 AYTO, , ,BIBLIOTECA@TURIS.ES,N,PU,PÚBLICA,N,39.3901255,-0.7114539999999999
490,46,VALENCIA,249,BIBLIOTECA PUBLICA MUNICIPAL,BIBLIOTECA PUBLICA MUNICIPAL  UTIEL,CALLE CAMINO Nº 1,", CP 46300", TELF.962170879, FAX.962170879,HTTP://XLPV.CULT.GVA.ES/CGINET-BIN/ABNETOP?SUBC=0089,HTTP://XLPV.CULT.GVA.ES/CGINET-BIN/ABNETOP?SUBC=0089,BIBLIOTECA@UTIEL.ES,N,PU,PÚBLICA,N,39.5660817,-1.2041133
491,46,VALENCIA,25,AGENCIA DE LECTURA,AGENCIA DE LECTURA  ALFARA DEL PATRIARCA,CALLE EMILIO RAMON LLIN Nº S/N,", CP 46115", TELF.961393382, FAX.961395661 AYTO,HTTP://WWW.BIBLIOTECASPUBLICAS.ES/ALFARADELPATRIARCA,HTTP://XLPV.CULT.GVA.ES/CGINET-BIN/ABNETOP?SUBC=0193,BIBLIOTECA@ALFARADELPATRIARCA.ES,N,PU,PÚBLICA,S,39.5462609,-0.3894034
492,46,VALENCIA,25,BIBLIOTECA UNIVERSITARIA,BIBLIOTECA UNIVERSITARIA UNIVERSIDAD CEU CARDENAL HERRERA ALFARA DEL PATRIARCA,CALLE LLUIS VIVES Nº 2,", CP 46115", TELF.961369031, FAX.961369030,HTTP://WWW.UCHCEU.ES/SERVICIOS/BIBLIOTECA.ASPX?OP=INICIO,HTTP://WWW.UCHCEU.ES/SERVICIOS/BIBLIOTECA.ASPX?OP=CATALOGO,BIBLIO@UCH.CEU.ES,N,PR,PRIVADA,N,39.5056799,-0.4141851
493,46,VALENCIA,250,BIBLIOTECA UNIVERSITARIA,BIBLIOTECA UNIVERSITARIA DE CIENCIAS SOCIALES-GREGORI MAIANS-UV VALÈNCIA,AVENIDA DE LOS NARANJOS-CAMPUS Nº S/N,", CP 46022", TELF.963828914/963828734, FAX.963828735,HTTP://BIBLIOTECA.UV.ES/CASTELLANO//BIBLIOTECAS/DE_CAMPUS/B_SOCIALS/B_CIENCIAS_SOC.PHP,HTTP://TROBES.UV.ES/,INFOBIBSOC@UV.ES,N,PU,PÚBLICA,N,39.4780267,-0.3435895
494,46,VALENCIA,250,BIBLIOTECA UNIVERSITARIA,"BIBLIOTECA UNIVERSITARIA DE PSICOLOGIA I ESPORT ""LLUIS VIVES""-UV VALÈNCIA",AVENIDA BLASCO IBÁÑEZ Nº 21,", CP 46010", TELF.963864955/963864980, FAX.963864956 ,HTTP://BIBLIOTECA.UV.ES/VALENCIANO/BIBLIOTECAS/DE_CAMPUS/B_PSICOLOGIA/B_CIENCIAS_SOC_PSICO.PHP,HTTP://TROBES.UV.ES/,PSICOESPAD@UV.ES,N,PU,PÚBLICA,N,39.4784344,-0.3596941
495,46,VALENCIA,250,BIBLIOTECA PRIVADA,BIBLIOTECA PRIVADA SAN JUAN DE RIBERA-CORPUS CHRISTI VALÈNCIA,CALLE LA NAVE Nº 1,", CP 46003", TELF.963514176, FAX.963511351,HTTP://WWW.VALENCITY.ES/HTM/BIBPATRI.HTM, , ,N,PR,PRIVADA,N,39.4723354,-0.3730631
496,46,VALENCIA,250,BIBLIOTECA ESPECIALIZADA,BIBLIOTECA ESPECIALIZADA ONUBIB-UV CAMPUS TARONGERS VALÈNCIA,EDIFICIO DE LA BIBLIOTECA DE CIENCIAS SOCIALES PISO 2,", CP 46022", TELF.963828742, FAX.963828743,HTTP://WWW.UV.ES/ONUBIB,HTTP://ONUBIB.UV.ES,CHELO.PONS@UV.ES  /  PONSC@UV.ES,N,PU,PÚBLICA,N,39.4548751,-0.3504904
497,46,VALENCIA,250,BIBLIOTECA PUBLICA MUNICIPAL,BIBLIOTECA PUBLICA MUNICIPAL TOMAS VICENT TOSCA  BARRIO DE LA AMISTAD VALÈNCIA,CALLE YECLA Nº 12,", CP 46021", TELF.963525478 EXT-2741, ,HTTP://WWW.VALENCIA.ES/,HTTP://XLPV.CULT.GVA.ES/CGINET-BIN/ABNETOP?SUBC=0171,BTOMASVICENTE@VALENCIA.ES,N,PU,PÚBLICA,S,39.4724155,-0.3509492
498,46,VALENCIA,250,BIBLIOTECA ESPECIALIZADA,BIBLIOTECA ESPECIALIZADA COMPOSITORES VALENCIANOS VALÈNCIA,PLAZA MAGUNCIA Nº 1,", CP 46018", TELF.963525478/4534/4588, FAX.963501321,HTTP://WWW.VALENCIA.ES, ,BCENTRAL@VALENCIA.ES,N,PU,PÚBLICA,N,39.46532,-0.40205
499,46,VALENCIA,250,BIBLIOTECA ESPECIALIZADA,BIBLIOTECA ESPECIALIZADA DEPORTIVA VALÈNCIA,PLAZA MAGUNCIA Nº 1,", CP 46018", TELF.963525478/4534/4588, FAX.963501321,HTTP://WWW.VALENCIA.ES, ,BCENTRAL@VALENCIA.ES,N,PU,PÚBLICA,N,39.46532,-0.40205
500,46,VALENCIA,250,BIBLIOTECA PUBLICA MUNICIPAL,BIBLIOTECA PUBLICA MUNICIPAL PALACIO DE LA EXPOSICION VALÈNCIA,PLAZA DE GALICIA Nº 3,", CP 46010", TELF.963981791, ,HTTP://WWW.VALENCIA.ES/,HTTP://XLPV.CULT.GVA.ES/CGINET-BIN/ABNETOP?SUBC=0171,BPALACIOEXPOSICION@VALENCIA.ES,N,PU,PÚBLICA,S,39.4732422,-0.362356
501,46,VALENCIA,250,BIBLIOTECA UNIVERSITARIA,BIBLIOTECA UNIVERSITARIA FRANCISCO TOMÁS Y VALIENTE-UNED VALÈNCIA,CALLE CASA DE LA MISERICORDIA Nº 34,", CP 46014", TELF.963707812 EXT-261, FAX.963502711,HTTP://WWW.UNED-VALENCIA.NET/,HTTP://BIBLIO15.UNED.ES/,BIBLIO2@VALENCIA.UNED.ES,N,PU,PÚBLICA,N,39.4644571,-0.4113773
502,46,VALENCIA,250,CENTRO DE DOCUMENTACION,CENTRO DE DOCUMENTACION ITI-INSTITUTO TECNOLÓGICO DE INFORMÁTICA VALÈNCIA,CAMINO DE VERA Nº S/N,", CP 46022", TELF.963877069, FAX.963877239,HTTP://WWW.ITI.UPV.ES, ,ITI@ITI.UPV.ES  /  LOLCINA@ITI.UPV.ES,N,PU,PÚBLICA,N,39.482737,-0.347678
503,46,VALENCIA,250,CENTRO DE DOCUMENTACION,CENTRO DE DOCUMENTACION IBV-INSTITUTO TECNOLÓGICO DE BIOMECÁNICA VALÈNCIA,CAMINO DE VERA-EDIFICIO 9-C U.P.V. Nº S/N,", CP 46022", TELF.963879160, FAX.963879169,HTTP://WWW.IBV.ORG, ,CCORTES@IBV.UPV.ES  / IBV@IBV.UPV.ES,N,PU,PÚBLICA,N,39.4807985,-0.3406299
504,46,VALENCIA,250,BIBLIOTECA UNIVERSITARIA,BIBLIOTECA UNIVERSITARIA HISTORICOMÉDICA VICENT PESET LLORCA-PALAU DE CERVERÓ VALÈNCIA,PLAZA CISNEROS Nº 4,", CP 46003", TELF.963926263, FAX.963919691,HTTP://BIBLIOTECA.UV.ES/CASTELLANO/BIBLIOTECAS/DE_CAMPUS/B_HIS_MED/B_HIS_MED.PHP,HTTP://TROBES.UV.ES/,BIBHISMED@UV.ES,N,PU,PÚBLICA,N,39.4779989,-0.3760519
505,46,VALENCIA,250,BIBLIOTECA UNIVERSITARIA,BIBLIOTECA UNIVERSITARIA DE EDUCACIÓN MARÍA MOLINER-CAMPUS TARONGERS-UV VALÈNCIA,CALLE RAMÓN LLULL Nº S/N,", CP 46022", TELF.963983123, ,HTTP://BIBLIOTECA.UV.ES/CASTELLANO/BIBLIOTECAS/DE_CAMPUS/B_EDUCACIO/ESCOLA.PHP,HTTP://TROBES.UV.ES/,EDUBIB@UV.ES,N,PU,PÚBLICA,N,39.4771068,-0.3466349
506,46,VALENCIA,250,BIBLIOTECA UNIVERSITARIA,BIBLIOTECA UNIVERSITARIA FACULTAD DE TEOLOGÍA-SAN VICENTE FERRER VALÈNCIA,CALLE TRINITARIOS Nº 3,", CP 46003", TELF.963155800, ,HTTP://WWW.TEOLOGIAVALENCIA.ES/TEOLOGIA.HTM,HTTP://213.129.161.107:8080/ABSYS7/ABWEBP.EXE/G0,BIBLIOTECA@TEOLOGIAVALENCIA.ES,N,PR,PRIVADA,N,39.4770451,-0.3734154
507,46,VALENCIA,250,BIBLIOTECA UNIVERSITARIA,BIBLIOTECA UNIVERSITARIA DE ADE-TOPOGRAFIA-UPV VALÈNCIA,EDIFICIO 7-CAMINO DE VERA  Nº S/N,", CP 46022", TELF.963879926 EXT-79926, ,HTTP://WWW.UPV.ES/CONTENIDOS/BIBADE/,HTTP://WWW.UPV.ES/PLS/OBIB/SIC_OPAC.FORMCONSULTA,BIBADE-TOPOGRAFIA@BIB.UPV.ES,N,PU,PÚBLICA,N,39.4837245,-0.3410161
508,46,VALENCIA,250,AGENCIA DE LECTURA,AGENCIA DE LECTURA CARMELINA SANCHEZ-CUTILLAS VALÈNCIA,CALLE POETA SERRANO CLAVERO Nº 40,", CP 46025", TELF.96 352 54 58, ,HTTP://WWW.VALENCIA.ES/,HTTP://XLPV.CULT.GVA.ES/CGINET-BIN/ABNETOP?SUBC=0171,BCARMELINASANCHEZ@VALENCIA.ES,N,PU,PÚBLICA,S,39.4939653,-0.3871225
509,46,VALENCIA,250,AGENCIA DE LECTURA,AGENCIA DE LECTURA CLARA SANTIRO VALÈNCIA,CALLE PIO XI Nº 2,", CP 46017", TELF.962082717/96208271, ,HTTP://WWW.VALENCIA.ES/,HTTP://XLPV.CULT.GVA.ES/CGINET-BIN/ABNETOP?SUBC=0171,BCLARASANTIRO@VALENCIA.ES,N,PU,PÚBLICA,S,39.4600991,-0.3922064
510,46,VALENCIA,250,AGENCIA DE LECTURA,AGENCIA DE LECTURA VICENT TORTOSA I BIOSCA VALÈNCIA,CALLE DEL NINOT Nº 24,", CP 46025", TELF.961935064, ,HTTP://WWW.VALENCIA.ES/,HTTP://XLPV.CULT.GVA.ES/CGINET-BIN/ABNETOP?SUBC=0171,BVTORTOSA@VALENCIA.ES,N,PU,PÚBLICA,N,39.5000959,-0.3926877
511,46,VALENCIA,250,BIBLIOTECA ESPECIALIZADA,BIBLIOTECA ESPECIALIZADA COLEGIO DE ABOGADOS VALÈNCIA,PLAZA DE TETUÁN Nº 16,", CP 46003", TELF.963941880 EXT-1413, FAX.963940812,HTTP://WWW.ICAV.ES, ,BIBLIOTECA@ICAV.ES,N,PR,PRIVADA,N,39.4752224,-0.369576
512,46,VALENCIA,250,BIBLIOTECA ESPECIALIZADA,BIBLIOTECA ESPECIALIZADA MUSEU DE PREHISTÒRIA DE VALÈNCIA VALÈNCIA,CALLE CORONA Nº 36,", CP 46003", TELF.963883600, FAX.963883536,HTTP://WWW.MUSEUPREHISTORIAVALENCIA.ES/BIBLIOTECA.HTML, ,BIBLIOTECASIP@DIVAL.ES,N,PU,PÚBLICA,N,39.4788181,-0.3830386
513,46,VALENCIA,250,BIBLIOTECA ESPECIALIZADA,BIBLIOTECA ESPECIALIZADA COLEGIO OFICIAL DE AGENTES COMERCIALES VALÈNCIA,CALLE CRONISTA CARRERES Nº 5 PISO 3,", CP 46003", TELF.963518409, FAX.963528591, , ,EGRAU@COACVALENCIA.ES,N,PR,PRIVADA,N,39.4731102,-0.3681623
514,46,VALENCIA,250,BIBLIOTECA PRIVADA,BIBLIOTECA PRIVADA ATENEO MERCANTIL VALÈNCIA,PLAZA DEL AYUNTAMIENTO Nº 18,", CP 46002", TELF.963521612, FAX.963512275,HTTP://WWW.ATENEOMERCANTILVALENCIA.ORG, ,ATENEO@RETEMAIL.ES,N,PR,PRIVADA,N,39.4708999,-0.3762469
515,46,VALENCIA,250,BIBLIOTECA AUXILIAR ARCHIVO,BIBLIOTECA AUXILIAR ARCHIVO GENERAL Y FOTOGRÁFICO DE LA DIPUTACIÓN VALÈNCIA,CALLE BEATO NICOLÁS FACTOR Nº 1,", CP 46007", TELF.963882587, FAX.963882593,HTTP://WWW.DIVAL.ES/ARCHIVOGENERAL,HTTP://BIBLIOPAC.DIVAL.ES/ABNETOPAC/,ARCHIVO.GENERAL@DIVAL.ES,N,PU,PÚBLICA,N,39.4595092,-0.3888886
516,46,VALENCIA,250,BIBLIOTECA ESPECIALIZADA,BIBLIOTECA ESPECIALIZADA COLEGIO OFICIAL DE APAREJADORES Y ARQUITECTOS TÉCNICOS VALÈNCIA,CALLE COLÓN Nº 42 PISO 3,", CP 46004", TELF.963536002, FAX.963539512,HTTP://WWW.CAATVALENCIA.ES, ,CENTRODOCUMENTACION@CAATVALENCIA.ES,N,PR,PRIVADA,N,39.4690562,-0.3717975
517,46,VALENCIA,250,BIBLIOTECA ESPECIALIZADA,BIBLIOTECA ESPECIALIZADA COLEGIO OFICIAL DE AGENTES DE LA PROPIEDAD INMOBILIARIA VALÈNCIA,CALLE SAN VICENTE Nº 60 PISO 1 PTA. 1,", CP 46002", TELF.963525125, FAX.963514168,HTTP://WWW.COAPIV.COM, ,COAPIV@COAPIV.COM,N,PR,PRIVADA,N,39.4701233,-0.378556
518,46,VALENCIA,250,BIBLIOTECA ESPECIALIZADA,BIBLIOTECA ESPECIALIZADA REAL ACADEMIA DE CULTURA VALENCIANA VALÈNCIA,CALLE AVELLANAS Nº 26,", CP 46003", TELF.963916965, FAX.963915694,HTTP://WWW.RACV.ES,HTTP://WWW.RACV.ES,BIBLIOTECA@RACV.ES,N,PU,PÚBLICA,N,39.4751889,-0.3737504
519,46,VALENCIA,250,BIBLIOTECA ESPECIALIZADA,BIBLIOTECA ESPECIALIZADA COLEGIO DE INGENIEROS TÉCNICOS DE OBRAS PÚBLICAS VALÈNCIA,CALLE LLOSA DE RANES Nº 4-BAJ,", CP 46021", TELF.963392154, FAX.963930388,HTTP://WWW.CITOPCV.COM     /   WWW.CITOP.ES, ,COLEGIO@CITOPCV.COM  /  VALENCIA@CITOP.ES,N,PR,PRIVADA,N,39.4736699,-0.3500752
520,46,VALENCIA,250,BIBLIOTECA ESPECIALIZADA,BIBLIOTECA ESPECIALIZADA COLEGIO OFICIAL DE INGENIEROS INDUSTRIALES VALÈNCIA,AVENIDA DE FRANCIA Nº 55,", CP 46023", TELF.963516835, FAX.963514963, , ,JOSELUIS@IICV.NET,N,PR,PRIVADA,N,39.459157,-0.3453311
521,46,VALENCIA,250,BIBLIOTECA ESPECIALIZADA,BIBLIOTECA ESPECIALIZADA COLEGIO TERRITORIAL DE ARQUITECTOS VALÈNCIA,CALLE HERNÁN CORTÉS Nº 21,", CP 46004", TELF.963510430, FAX.963527269,HTTP://WWW.CTAV.ES, ,BIBLIOTECA@CTAV.ES,N,PR,PRIVADA,N,39.4678799,-0.3710565
522,46,VALENCIA,250,AGENCIA DE LECTURA,AGENCIA DE LECTURA TEODORO LLORENTE  BENIMAMET VALÈNCIA,CALLE CAMPAMENTO Nº 64,", CP 46035", TELF.963642996, ,HTTP://WWW.VALENCIA.ES/,HTTP://XLPV.CULT.GVA.ES/CGINET-BIN/ABNETOP?SUBC=0171,BTEODOROLLORENTE@VALENCIA.ES,N,PU,PÚBLICA,S,39.5018354,-0.4238265
523,46,VALENCIA,250,AGENCIA DE LECTURA,AGENCIA DE LECTURA JOANOT MARTORELL ALQUERIA DE BARRINTO VALÈNCIA,PARQUE MARXALENES-C/REUS Nº S/N,", CP 46009", TELF.963483269, ,HTTP://WWW.VALENCIA.ES/,HTTP://XLPV.CULT.GVA.ES/CGINET-BIN/ABNETOP?SUBC=0171,BJOANOTMARTORELL@VALENCIA.ES,N,PU,PÚBLICA,S,39.4867838,-0.3827811
524,46,VALENCIA,250,AGENCIA DE LECTURA,AGENCIA DE LECTURA GREGORI MAYANS I CISCAR VALÈNCIA,CALLE TRAFALGAR Nº 34 ESC. 1,", CP 46023", TELF.963525478 EXT-2735, ,HTTP://WWW.VALENCIA.ES/,HTTP://XLPV.CULT.GVA.ES/CGINET-BIN/ABNETOP?SUBC=0171,BGREGORIMAYANS@VALENCIA.ES,N,PU,PÚBLICA,N,39.4611233,-0.3451948
525,46,VALENCIA,250,HEMEROTECA,HEMEROTECA MUNICIPAL DE VALENCIA VALÈNCIA,PLAZA MAGUNCIA Nº 1,", CP 46018", TELF.963525478 EXT-4582, FAX.963501321,HTTP://WWW.AYTO-VALENCIA.ES, ,HEMEROTECAM@VALENCIA.ES,N,PU,PÚBLICA,N,39.46532,-0.40205
526,46,VALENCIA,250,BIBLIOTECA ESPECIALIZADA,BIBLIOTECA ESPECIALIZADA DE CONSERVACION VALÈNCIA,PLAZA MAGUNCIA Nº 1,", CP 46018", TELF.963525478 EXT-4534, FAX.963501321,HTTP://WWW.VALENCIA.ES,HTTP://WWW.VALENCIA.ES/CGI-BIN/ABWEBP.EXE/GO,BCENTRAL@VALENCIA.ES,N,PU,PÚBLICA,S,39.46532,-0.40205
527,46,VALENCIA,250,BIBLIOTECA ESPECIALIZADA,BIBLIOTECA ESPECIALIZADA DIRECCIÓN GENERAL DE FAMILIA Y MUJER VALENCIA VALÈNCIA,CALLE NÁQUERA Nº 9,", CP 46003", TELF.961247574, FAX.961247555,HTTP://WWW.BSOCIAL.GVA.ES/WEB/MUJER/BIBLIOTECAS-DE-LA-DGFM-OPAC-7EE,HTTP://WWW.BEGV.GVA.ES/DGM2/TDGM.HTML,BIBLIOTECA.DGMI_VAL@GVA.ES,N,PU,PÚBLICA,N,39.4785212,-0.3760957
528,46,VALENCIA,250,BIBLIOTECA UNIVERSITARIA,BIBLIOTECA UNIVERSITARIA DE HUMANIDADES-JOAN REGLÀ-UV VALÈNCIA,CALLE ARTES GRÁFICAS Nº 13,", CP 46010", TELF.963864557/963864419, FAX.963864558,HTTP://BIBLIOTECA.UV.ES/CASTELLANO//BIBLIOTECAS/DE_CAMPUS/B_HUMANITATS/B_HUMANIDADES.PHP,HTTP://TROBES.UV.ES/,HUMAINFORMACION@UV.ES,N,PU,PÚBLICA,N,39.47695849999999,-0.3622938
529,46,VALENCIA,250,AGENCIA DE LECTURA,AGENCIA DE LECTURA CASTELLAR OLIVERAL-MATILDE RAMOS VALÈNCIA,CALLE POETESSA LEONOR PERALES Nº S/N,", CP 46026", TELF.96710517, ,HTTP://WWW.VALENCIA.ES/,HTTP://XLPV.CULT.GVA.ES/CGINET-BIN/ABNETOP?SUBC=0171,BMATILDERAMOS@VALENCIA.ES,N,PU,PÚBLICA,S,39.4280934,-0.361891
530,46,VALENCIA,250,BIBLIOTECA ESPECIALIZADA,BIBLIOTECA ESPECIALIZADA MUSEU VALENCIÀ D'ETNOLOGIA VALÈNCIA,CALLE CORONA Nº 36,", CP 46003", TELF.963883623, ,HTTP://WWW.MUSEUVALENCIAETNOLOGIA.ES/BIBLIOTECA_INFORMACION.HTML,HTTP://BIBLIOPAC.DIVAL.ES,BIBLIOTECA.ETNOLOGIA@DVA.GVA.ES,N,PU,PÚBLICA,N,39.4788181,-0.3830386
531,46,VALENCIA,250,BIBLIOTECA ESPECIALIZADA,BIBLIOTECA ESPECIALIZADA IVAM VALÈNCIA,CALLE GUILLEM DE CASTRO Nº 118,", CP 46003", TELF.963863000/7668/7655, FAX.963921094,HTTP://WWW.IVAM.ES,HTTP://IVAM.ABSYSNET.COM/CGI-BIN/ABWEBIVAM,BIBLIOTECA@IVAM.ES,N,PU,PÚBLICA,N,39.479614,-0.382762
532,46,VALENCIA,250,BIBLIOTECA PRIVADA,BIBLIOTECA PRIVADA SOCIETAT CORAL EL MICALET VALÈNCIA,AVENIDA GUILLEM DE CASTRO Nº 73,", CP 46008", TELF.963920786, FAX.963913267,HTTP://WWW.SCELMICALET.CAT, ,INFO@SCELMICALET.CAT,N,PR,PRIVADA,N,39.47131359999999,-0.3841607
533,46,VALENCIA,250,BIBLIOTECA ESPECIALIZADA,BIBLIOTECA ESPECIALIZADA TEATRES GENERALITAT VALENCIANA-CENTRO DOCUMENTACIÓN VALÈNCIA,CALLE GARRIGUES Nº 4 PTA. 11,", CP 46001", TELF.963941042, FAX.963941883,HTTP://TEATRES.GVA.ES/DOCUMENTACION/BIBLIOTECA,HTTP://TEATRES.GVA.ES/PERIPECIA.PHP,TEATRES@GVA.ES,N,PU,PÚBLICA,N,39.4709921,-0.3785379
534,46,VALENCIA,250,CENTRO DE DOCUMENTACION,CENTRO DE DOCUMENTACION DE SOCIOLOGIA DE LES LLENGÜES CONSELLERIA CULTURA I ESPORT VALÈNCIA,AVENIDA CAMPANAR Nº 32,", CP 46015", TELF.963184567, FAX.963864580,HTTP://WWW.EDU.GVA.ES/POLIN/ES/SIES/SIES_INICI.HTM, ,SIES@GVA.ES,N,PU,PÚBLICA,N,39.4839898,-0.3926790000000001
535,46,VALENCIA,250,CENTRO DE DOCUMENTACION,CENTRO DE DOCUMENTACION CONSELLERIA DE BENESTAR SOCIAL VALÈNCIA,AVENIDA BARÓN DE CÁRCER Nº 36 PISO 2,", CP 46001", TELF.963867431, FAX.963867401,HTTP://WWW.BSOCIAL.GVA.ES/,HTTP://WWW.BSOCIAL.GVA.ES/PORTAL/PORTAL?ID=5316&SEC=2762006105531&DIRECTO=5316&IDIOMA=C,DOCUMENTACION_WEB@GVA.ES,N,PU,PÚBLICA,N,39.4708688,-0.380007
536,46,VALENCIA,250,BIBLIOTECA PUBLICA MUNICIPAL,BIBLIOTECA PUBLICA MUNICIPAL JOAN TIMONEDA  BENIFERRI VALÈNCIA,CALLE XIPRERS Nº S/N,", CP 46015", TELF.963400896, ,HTTP://WWW.VALENCIA.ES/,HTTP://XLPV.CULT.GVA.ES/CGINET-BIN/ABNETOP?SUBC=0171,BJOANTIMONEDA@VALENCIA.ES,N,PU,PÚBLICA,S,39.4946697,-0.4058548
537,46,VALENCIA,250,BIBLIOTECA ESPECIALIZADA,BIBLIOTECA ESPECIALIZADA COLEGIO OFICIAL DE TITULARES MERCANTILES Y EMPRESARIALES VALÈNCIA,CALLE QUEVEDO Nº 20 PISO 1 PTA. 2,", CP 46001", TELF.963524189, FAX.963524190 ,HTTP://WWW.COMEVA.ES/, ,COLEGIO@COMEVA.ES,N,PR,PRIVADA,N,39.4692035,-0.3809335
538,46,VALENCIA,250,BIBLIOTECA ESPECIALIZADA,BIBLIOTECA ESPECIALIZADA COLEGIO OFICIAL DE DECORADORES Y DISEÑADORES INTERIOR VALÈNCIA,CALLE LA PAZ Nº 6 PISO 2 PTA. 3,", CP 46003", TELF.963524339/3944504, FAX.963524339,HTTP://WWW.CDICV.COM, ,CDICV@CDICV.COM,N,PR,PRIVADA,N,39.4735982,-0.3750754
539,46,VALENCIA,250,BIBLIOTECA ESPECIALIZADA,BIBLIOTECA ESPECIALIZADA HISTÓRICO MILITAR VALÈNCIA,CALLE ARCHER Y ANA HUNTINTONG Nº 1,", CP 46004", TELF.961834507, FAX.961834507,HTTP://WWW.BIBLIODEF.ES ,HTTP://WWW.BIBLIODEF.ES ,CMARRUV@ET.MDE.ES ,N,PU,PÚBLICA,N,39.4723696,-0.3672695
540,46,VALENCIA,250,BIBLIOTECA ESPECIALIZADA,BIBLIOTECA ESPECIALIZADA COLEGIO OFICIAL DE NOTARIOS VALÈNCIA,CALLE PASCUAL Y GENÍS Nº 21 PISO 2,", CP 46002", TELF.963512585 EXT-113, FAX.963516553,HTTP://WWW.CNOTARIAL-VALENCIA.COM, ,BIBLIOTECA@CNOTARIAL-VALENCIA.COM  / JBELTRAN@CNOTARIAL-VALENCIA.COM,N,PR,PRIVADA,N,39.4687066,-0.3737944
541,46,VALENCIA,250,BIBLIOTECA ESPECIALIZADA,BIBLIOTECA ESPECIALIZADA IVAJ GVA JOVE VALÈNCIA,CALLE HOSPITAL Nº 2 PISO 2,", CP 46001", TELF.963985948/963985915 , FAX.963985905,HTTP://WWW.GVAJOVE.ES,HTTP://WWW.BEGV.GVA.ES/IVAJGV/TIVAJ.HTML,BIBLIOTECA_IVAJ@GVA.ES,N,PU,PÚBLICA,N,39.4713871,-0.3802427
542,46,VALENCIA,250,BIBLIOTECA UNIVERSITARIA,BIBLIOTECA UNIVERSITARIA DEL JARDÍ BOTÀNIC-JOSÉ PIZCUETA VALÈNCIA,CALLE QUART Nº 80,", CP 46008", TELF.963156807, FAX.963156826,HTTP://BIBLIOTECA.UV.ES/VALENCIANO/BIBLIOTECAS/DE_CAMPUS/B_BOTANIC/BOTANICO.PHP,HTTP://TROBES.UV.ES/,BIBJARDI@UV.ES,N,PU,PÚBLICA,N,39.47546210000001,-0.3863585
543,46,VALENCIA,250,CENTRO DE DOCUMENTACION,CENTRO DE DOCUMENTACION AMBIENTAL DE LA COMUNITAT VALENCIANA-CIDAM VALÈNCIA,CALLE MARIANO CUBER Nº 14,", CP 46011", TELF.961973819, FAX.963674168,HTTP://WWW.CMA.GVA.ES/CIDAM,HTTP://WWW.BEGV.GVA.ES/CIDAM/TLPCMA.HTML,CIDAM@GVA.ES,N,PU,PÚBLICA,N,39.4639292,-0.3337298
544,46,VALENCIA,250,AGENCIA DE LECTURA,AGENCIA DE LECTURA FRANCESC ALMELA I VIVES  CAMPANAR VALÈNCIA,CALLE ESCULTOR MIQUEL NAVARRO Nº 3-BAJ,", CP 46015", TELF.963482771, ,HTTP://WWW.VALENCIA.ES/,HTTP://XLPV.CULT.GVA.ES/CGINET-BIN/ABNETOP?SUBC=0171,BFRANCESCALMELA@VALENCIA.ES,N,PU,PÚBLICA,S,39.4802641,-0.4007465
545,46,VALENCIA,250,BIBLIOTECA ESPECIALIZADA,BIBLIOTECA ESPECIALIZADA COLEGIO OFICIAL DE VETERINARIOS VALÈNCIA,AVENIDA DEL CID Nº 62 PISO 1,", CP 46018", TELF.963990330 , FAX.963500007,HTTP://WWW.ICOVV.COM, , ,N,PR,PRIVADA,N,39.46873009999999,-0.3977954
546,46,VALENCIA,250,BIBLIOTECA ESPECIALIZADA,BIBLIOTECA ESPECIALIZADA COLEGIO OFICIAL DE ENFERMERÍA VALÈNCIA,CALLE POLO Y PEYROLÓN Nº 59BAJ,", CP 46021", TELF.963937015, FAX.963930428, , ,COENFERMERIA@LA-RED.COM,N,PR,PRIVADA,N,39.475148,-0.3544636
547,46,VALENCIA,250,BIBLIOTECA ESPECIALIZADA,BIBLIOTECA ESPECIALIZADA ACADÈMIA VALENCIANA DE LA LLENGUA VALÈNCIA,AVENIDA CONSTITUCIÓ Nº 284,", CP 46019", TELF.963874084, FAX.963874036,HTTP://WWW.AVL.GVA.ES,HTTP://WWW.BEGV.GVA.ES/AVLGV/TAVL.HTML,BIBLIOTECA_AVL@GVA.ES  /  SARTI_MAR@GVA.ES,N,PU,PÚBLICA,N,39.4995349,-0.3700538
548,46,VALENCIA,250,AGENCIA DE LECTURA,AGENCIA DE LECTURA SOR ISABEL DE VILLENA-TORREFIEL VALÈNCIA,CALLE DOMINGO GOMEZ Nº 35-37,", CP 46025", TELF.963525478 EXT-7350, ,HTTP://WWW.VALENCIA.ES/,HTTP://XLPV.CULT.GVA.ES/CGINET-BIN/ABNETOP?SUBC=0171,BISABELDEVILLENA@VALENCIA.ES,N,PU,PÚBLICA,S,39.4924741,-0.382063
549,46,VALENCIA,250,BIBLIOTECA UNIVERSITARIA,BIBLIOTECA UNIVERSITARIA DE AGROINGENIERÍA-UPV VALÈNCIA,CAMINO DE VERA Nº S/N,", CP 46022", TELF.963877007 EXT-78847, ,HTTP://WWW.UPV.ES/CONTENIDOS/BIBAGRMN/,HTTP://WWW.UPV.ES/PLS/OBIB/EST_BIBLIO.MENU?P_IDIOMA=C&P_ESTILO=300,BIBAGROINGENIERIA@BIB.UPV.ES,N,PU,PÚBLICA,N,39.482737,-0.347678
550,46,VALENCIA,250,BIBLIOTECA UNIVERSITARIA,BIBLIOTECA UNIVERSITARIA DE LA ETS DE INGENIEROS INDUSTRIALES-UPV VALÈNCIA,CAMINO DE VERA-EDIFICIO 5F-PLANTA BAJA Nº S/N,", CP 46022", TELF.963877000 EXT-78848, ,HTTP://WWW.UPV.ES/CONTENIDOS/BIBIND/,HTTP://WWW.UPV.ES/PLS/OBIB/SIC_OPAC.FORMCONSULTA?P_IDIOMA=C,BIBINDUSTRIALES@BIB.UPV.ES,N,PU,PÚBLICA,N,39.4821109,-0.3428962
551,46,VALENCIA,250,BIBLIOTECA PUBLICA MUNICIPAL,BIBLIOTECA PUBLICA MUNICIPAL EDUARD ESCALANTE  ABASTOS VALÈNCIA,CALLE ALBERIQUE Nº 18,", CP 46008", TELF.963525478 EXT-4520, ,HTTP://WWW.VALENCIA.ES/,HTTP://XLPV.CULT.GVA.ES/CGINET-BIN/ABNETOP?SUBC=0171,BEDUARDESCALANTE@VALENCIA.ES,N,PU,PÚBLICA,S,39.4678501,-0.3886052
552,46,VALENCIA,250,AGENCIA DE LECTURA,AGENCIA DE LECTURA GERMANA DE FOIX VALÈNCIA,AVENIDA GIORGETA Nº 18,", CP 46007", TELF.963422744, ,HTTP://WWW.VALENCIA.ES/,HTTP://XLPV.CULT.GVA.ES/CGINET-BIN/ABNETOP?SUBC=0171,BGERMANADEFOIX@VALENCIA.ES,N,PU,PÚBLICA,S,39.460429,-0.3858363
553,46,VALENCIA,250,AGENCIA DE LECTURA,AGENCIA DE LECTURA MARIA BENEYTO VALÈNCIA,CALLE PADRE MANJON Nº 1,", CP 46008", TELF.963922807, ,HTTP://WWW.VALENCIA.ES/,HTTP://XLPV.CULT.GVA.ES/CGINET-BIN/ABNETOP?SUBC=0171,BMARIABENEYTO@VALENCIA.ES,N,PU,PÚBLICA,S,39.4768363,-0.3847961
554,46,VALENCIA,250,AGENCIA DE LECTURA,AGENCIA DE LECTURA VICENTE BOIX I RICARTE  LA FUENSANTA VALÈNCIA,CALLE ESCULTOR SALZILLO Nº 12,", CP 46014", TELF.963791523, ,HTTP://WWW.VALENCIA.ES/,HTTP://XLPV.CULT.GVA.ES/CGINET-BIN/ABNETOP?SUBC=0171,BVICENTBOIX@VALENCIA.ES,N,PU,PÚBLICA,S,39.465926,-0.4093284
555,46,VALENCIA,250,AGENCIA DE LECTURA,AGENCIA DE LECTURA CARLES ROS VALÈNCIA,PLAZA DE LA VIRGEN Nº 1,", CP 46001", TELF.963525478 EXT-4508, ,HTTP://WWW.VALENCIA.ES/,HTTP://XLPV.CULT.GVA.ES/CGINET-BIN/ABNETOP?SUBC=0171,BCARLESROS@VALENCIA.ES,N,PU,PÚBLICA,N,39.4759944,-0.3754573
556,46,VALENCIA,250,AGENCIA DE LECTURA,AGENCIA DE LECTURA CONSTANTI LLOMBART EL GRAU VALÈNCIA,CALLE DOCTOR J.J.DOMINE Nº 19,", CP 46011", TELF.962084296, ,HTTP://WWW.VALENCIA.ES/,HTTP://XLPV.CULT.GVA.ES/CGINET-BIN/ABNETOP?SUBC=0171,BCONSTANTILLOMBART@VALENCIA.ES,N,PU,PÚBLICA,S,39.4626043,-0.330659
557,46,VALENCIA,250,AGENCIA DE LECTURA,AGENCIA DE LECTURA JOAQUIM MARTI I GADEA  LA FONTETA DE SAN LUIS VALÈNCIA,AVENIDA ALCALDE GISBERT Nº 20,", CP 46013", TELF.963525478 EXT-4098, FAX.963539927,HTTP://WWW.VALENCIA.ES/,HTTP://XLPV.CULT.GVA.ES/CGINET-BIN/ABNETOP?SUBC=0171,BJOAQUIMMARTI@VALENCIA.ES,N,PU,PÚBLICA,S,39.4561901,-0.3599863
558,46,VALENCIA,250,BIBLIOTECA PUBLICA MUNICIPAL,BIBLIOTECA PUBLICA MUNICIPAL CENTRAL-LLUIS FULLANA I MIRA VALÈNCIA,PLAZA MAGUNCIA Nº 1,", CP 46018", TELF.963525478 EXT-4585, FAX.963501321,HTTP://WWW.VALENCIA.ES/,HTTP://XLPV.CULT.GVA.ES/CGINET-BIN/ABNETOP?SUBC=0171,BLLUISFULLANA@VALENCIA.ES / JSCBIBLIOTECAS@VALENCIA.ES,S,PU,PÚBLICA,S,39.46532,-0.40205
559,46,VALENCIA,250,BIBLIOTECA ESPECIALIZADA,BIBLIOTECA ESPECIALIZADA SERRANO MORALES VALÈNCIA,PLAZA DE TETUÁN-PALAU DE CERVELLÓ Nº 3,", CP 46003", TELF.963525478 EXT-2651, , , , ,N,PU,PÚBLICA,N,39.4741872,-0.3702706
560,46,VALENCIA,250,AGENCIA DE LECTURA,AGENCIA DE LECTURA VICENT CASP I VERGER VALÈNCIA,CALLE PERIS BRELL Nº 6,", CP 46022", TELF.963301473, ,HTTP://WWW.VALENCIA.ES/,HTTP://XLPV.CULT.GVA.ES/CGINET-BIN/ABNETOP?SUBC=0171,BVICENTCASP@VALENCIA.ES,N,PU,PÚBLICA,S,39.4650117,-0.3475159
561,46,VALENCIA,250,AGENCIA DE LECTURA,AGENCIA DE LECTURA CAROLA REIG SALVA BENIMACLET VALÈNCIA,CALLE FRANCISCO MARTINEZ Nº 32-34,", CP 46020", TELF.963525478 EXT-4302, ,HTTP://WWW.VALENCIA.ES/,HTTP://XLPV.CULT.GVA.ES/CGINET-BIN/ABNETOP?SUBC=0171,BCAROLAREIG@VALENCIA.ES,N,PU,PÚBLICA,N,39.4881447,-0.3582173
562,46,VALENCIA,250,BIBLIOTECA PUBLICA MUNICIPAL,BIBLIOTECA PUBLICA MUNICIPAL JOSEP MARIA BAYARRI ORRIOLS VALÈNCIA,CALLE SAN JUAN BOSCO Nº 71,", CP 46019", TELF.963668085, ,HTTP://WWW.VALENCIA.ES/,HTTP://XLPV.CULT.GVA.ES/CGINET-BIN/ABNETOP?SUBC=0171,BJOSEPMBAYARRI@VALENCIA.ES,N,PU,PÚBLICA,N,39.4954698,-0.3707129
563,46,VALENCIA,250,AGENCIA DE LECTURA,AGENCIA DE LECTURA MARIA MOLINER  BARRIO SAN JOSE VALÈNCIA,CALLE SERPIS Nº 9-11,", CP 46021", TELF.963931333, ,HTTP://WWW.VALENCIA.ES/,HTTP://XLPV.CULT.GVA.ES/CGINET-BIN/ABNETOP?SUBC=0171,BMARIAMOLINER@VALENCIA.ES,N,PU,PÚBLICA,S,39.476276,-0.3491517000000001
564,46,VALENCIA,250,BIBLIOTECA PUBLICA PROVINCIAL,BIBLIOTECA PUBLICA PROVINCIAL DE VALENCIA VALÈNCIA,CALLE HOSPITAL Nº 13,", CP 46001", TELF.962564130, FAX.962564131,HTTP://WWW.BIBLIOTECASPUBLICAS.ES/VALENCIA_VAL/INDEX.JSP,HTTP://XLPV.CULT.GVA.ES/CGINET-BIN/ABNETOP?SUBC=BPEV,BPV@GVA.ES,N,PU,PÚBLICA,S,39.4709053,-0.3816412
565,46,VALENCIA,250,BIBLIOTECA AUTONÓMICA,BIBLIOTECA AUTONÓMICA VALENCIANA VALÈNCIA,AVENIDA DE LA CONSTITUCIÓN Nº 284,", CP 46019", TELF.963874000, FAX.963874037,HTTP://BV.GVA.ES,HTTP://BVAL.CULT.GVA.ES/SCREENS/OPACBV_SPI.HTML,BV@GVA.ES,N,PU,PÚBLICA,N,39.4995349,-0.3700538
566,46,VALENCIA,250,BIBLIOTECA UNIVERSITARIA,BIBLIOTECA UNIVERSITARIA CENTRAL-UPV VALÈNCIA,CAMINO DE VERA-ÁGORA Nº S/N,", CP 46022", TELF.963877084 EXT-78840, FAX.963877089,HTTP://WWW.UPV.ES/BIB/,HTTP://WWW.UPV.ES/BIB/,BIBLIO@BIB.UPV.ES,N,PU,PÚBLICA,N,39.4840797,-0.3419214
567,46,VALENCIA,250,BIBLIOTECA UNIVERSITARIA,BIBLIOTECA UNIVERSITARIA DE BELLAS ARTES DE SAN CARLOS-UPV VALÈNCIA,CAMINO DE VERA Nº S/N,", CP 46022", TELF.963877000 EXT-78860 , FAX.963877089,HTTP://WWW.UPV.ES/BIB/CONTENIDOS/BIBFBA/INDEXV.HTML,HTTP://WWW.UPV.ES/PLS/OBIB/SIC_OPAC.FORMCONSULTA,FCOLLADO@BIB.UPV.ES / BIBBELLASARTES@BIB.UPV.ES,N,PU,PÚBLICA,N,39.482737,-0.347678
568,46,VALENCIA,250,BIBLIOTECA UNIVERSITARIA,BIBLIOTECA UNIVERSITARIA DE LA ETS DE INGENIERIA DEL DISEÑO VALÈNCIA,CAMINO DE VERA Nº S/N,", CP 46022", TELF.963877180 EXT-78829, ,HTTP://WWW.UPV.ES/BIBLIOTECADEDISEÑO,HTTP://WWW.UPV.ES/PLS/OBIB/EST_BIBLIO.MENU?P_IDIOMA=C,BIBETSID@BIB.UPV.ES,N,PU,PÚBLICA,N,39.482737,-0.347678
569,46,VALENCIA,250,BIBLIOTECA UNIVERSITARIA,"BIBLIOTECA UNIVERSITARIA DE INFORMÁTICA Y DOCUMENTACIÓN ""ENRIC VALOR"" VALÈNCIA",CAMINO DE VERA-EDIFICIO MULTIUSOS INFORMATICA  Nº S/N,", CP 46022", TELF.963877007 EXT-78826, ,HTTP://WWW.UPV.ES/BIBLIOTECADEINFORMATICA,HTTP://WWW.UPV.ES/PLS/OBIB/SIC_OPAC.FORMCONSULTA?P_IDIOMA=C,BIBINFORMATICA@BIB.UPV.ES,N,PU,PÚBLICA,N,39.4840797,-0.3419214
570,46,VALENCIA,250,BIBLIOTECA UNIVERSITARIA,BIBLIOTECA UNIVERSITARIA DE LA ETS GESTIÓN EN LA EDIFICACIÓN-UPV VALÈNCIA,CAMINO DE VERA Nº S/N,", CP 46022", TELF.963877120 EXT-78828, ,HTTP://WWW.UPV.ES/CONTENIDOS/BIBGE/,HTTP://WWW.UPV.ES/PLS/OBIB/SIC_OPAC.FORMCONSULTA,BIBEDIFICACION@BIB.UPV.ES,N,PU,PÚBLICA,N,39.482737,-0.347678
571,46,VALENCIA,250,BIBLIOTECA UNIVERSITARIA,"BIBLIOTECA UNIVERSITARIA DE LA ETS DE CAMINOS, CANALES Y PUERTOS-UPV VALÈNCIA",CAMINO DE VERA-EDIFICIO 4H Nº S/N PISO 2,", CP 46022", TELF.963877007/77155, ,HTTP://WWW.UPV.ES/BIBLIOTECADECAMINOS,HTTP://WWW.UPV.ES/PLS/OBIB/SIC_OPAC.FORMCONSULTA?P_IDIOMA=C,BIBCAMINOS@BIB.UPV.ES,N,PU,PÚBLICA,N,39.4840797,-0.3419214
572,46,VALENCIA,250,BIBLIOTECA UNIVERSITARIA,BIBLIOTECA UNIVERSITARIA HISTÓRICA-UV VALÈNCIA,CALLE NAVE 2/CALLE UNIVERSIDAD Nº 2,", CP 46003", TELF.963864556/963864118, FAX.963983454,HTTP://HTTP://TROBES.UV.ES/, ,BIBHISTORICA@UV.ES,N,PU,PÚBLICA,N,39.4719765,-0.3730332
573,46,VALENCIA,250,BIBLIOTECA UNIVERSITARIA,BIBLIOTECA UNIVERSITARIA DE CIENCIAS DE LA SALUD PELEGRÍ CASANOVA-UV VALÈNCIA,AVENIDA BLASCO IBÁÑEZ Nº 15,", CP 46010", TELF.963864013, FAX.963864174,HTTP://BIBLIOTECA.UV.ES/CASTELLANO//BIBLIOTECAS/DE_CAMPUS/B_MEDICINA/B_CIENCIAS_MED.PHP,HTTP://TROBES.UV.ES/, ,N,PU,PÚBLICA,N,39.4794197,-0.3629933
574,46,VALENCIA,250,BIBLIOTECA TERCERA EDAD,BIBLIOTECA TERCERA EDAD  VALÈNCIA,CALLE BORRIANA Nº 39 ESC. 1,", CP 46005", TELF.963334877, FAX.963254137, , ,AULES3EDAT@GMAIL.COM,N,PU,PÚBLICA,N,39.4660686,-0.3647123
575,46,VALENCIA,250,BIBLIOTECA HOSPITALARIA,BIBLIOTECA HOSPITALARIA CONSORCIO HOSPITAL GENERAL UNIVERSITARIO VALÈNCIA,CALLE TRES CRUCES Nº S/N,", CP 46014", TELF.961972082, , , ,CAMPON_JUL@GVA.ES,N,PU,PÚBLICA,N,39.4510747,-0.7357883
576,46,VALENCIA,250,BIBLIOTECA HOSPITALARIA,BIBLIOTECA HOSPITALARIA D´USUARIS-HOSPITAL UNIVERSITARI I POLITÈCNIC LA FE VALÈNCIA,"N/C BULEVAR SUR-TORRE G, PLANT.BAJ.CARA SUR",", CP 46026", TELF.961244399, ,HTTP://WWW.DEP7.SAN.GVA.ES/, ,VELASCO_JAV@GVA.ES,N,PU,PÚBLICA,N,39.4840108,-0.7532808999999999
577,46,VALENCIA,250,AGENCIA DE LECTURA,AGENCIA DE LECTURA ROIC DE CORELLA  MALILLA VALÈNCIA,CALLE ISLA CABRERA Nº 52,", CP 46026", TELF.963737533, ,HTTP://WWW.VALENCIA.ES/,HTTP://XLPV.CULT.GVA.ES/CGINET-BIN/ABNETOP?SUBC=0171,BROISDECORELLA@VALENCIA.ES,N,PU,PÚBLICA,S,39.4487188,-0.377251
578,46,VALENCIA,250,AGENCIA DE LECTURA,AGENCIA DE LECTURA AZORIN CTRO DEPORTIVO Y CULTURAL PATRAIX VALÈNCIA,CALLE AZAGADOR DE LAS MONJAS Nº S/N,", CP 46018", TELF.963577694, ,HTTP://WWW.VALENCIA.ES/,HTTP://XLPV.CULT.GVA.ES/CGINET-BIN/ABNETOP?SUBC=0171,BAZORIN@VALENCIA.ES,N,PU,PÚBLICA,S,39.4643179,-1.3005411
579,46,VALENCIA,250,BIBLIOTECA ESPECIALIZADA,BIBLIOTECA ESPECIALIZADA CEFIRE VALÈNCIA,CALLE PACO PIERRA Nº 20,", CP 46013", TELF.963787052 EXT-22, FAX.963570576,HTTP://MESTREACASA.GVA.ES/WEB/CEFIREVALENCIA/BIBLIOTECA,HTTP://WWW.BEGV.GVA.ES/CEFIREGV/VAL_TCEF.HTML,BIBLIOVALENCIA@EDU.GVA.ES,N,PU,PÚBLICA,N,39.449833,-0.3666339
580,46,VALENCIA,250,CENTRO DE DOCUMENTACION,CENTRO DE DOCUMENTACION EVES-ESCUELA VALENCIANA DE ESTUDIOS PARA LA SALUD VALÈNCIA,CALLE JUAN DE GARAY Nº 21,", CP 46017", TELF.963869382, FAX.963869370,HTTP://WWW.EVES.SAN.GVA.ES/PORTAL/, ,ARRANZ_MAN@GVA.ES,N,PU,PÚBLICA,N,39.4543133,-0.3940836
581,46,VALENCIA,250,BIBLIOTECA AUXILIAR ARCHIVO,BIBLIOTECA AUXILIAR ARCHIVO ARXIU DEL REGNE VALÈNCIA,PASEO DE LA ALAMEDA Nº 22,", CP 46010", TELF.961206735, FAX.963184527, , ,RISUENO_ADE@GVA.ES ,N,PU,PÚBLICA,N,39.4723336,-0.3623684
582,46,VALENCIA,250,BIBLIOTECA ESPECIALIZADA,BIBLIOTECA ESPECIALIZADA INSTITUTO VALENCIANO DE CINEMATOGRAFÍA RICARDO MUÑOZ SUAY VALÈNCIA,PLAZA DEL AYUNTAMIENTO-EDIFICIO RIALTO Nº 17,", CP 46002", TELF.963539295, FAX.963539330,HTTP://WWW.IVAC-LAFILMOTECA.ES/PAGINA.ASP?IDPAG=33,HTTP://OPAC.IVAC-LAFILMOTECA.ES/UHTBIN/WEBCAT,IVAC_DOCUMENTACION@GVA.ES,N,PU,PÚBLICA,N,39.4710995,-0.3761474
583,46,VALENCIA,250,BIBLIOTECA ESPECIALIZADA,BIBLIOTECA ESPECIALIZADA MUSEO DE BELLAS ARTES VALÈNCIA,CALLE SAN PIO V Nº 9,", CP 46010", TELF.963870315/963870316, FAX.963870301,HTTP://MUSEOBELLASARTESVALENCIA.GVA.ES/,HTTP://WWW.BEGV.GVA.ES/MBBAAVGV/TMBA.HTML,ALFARO_ANA@GVA.ES  /  RODRIGUEZ_ROSCAN@GVA.ES,N,PU,PÚBLICA,N,39.4794841,-0.3708623
584,46,VALENCIA,250,CENTRO DE DOCUMENTACION,CENTRO DE DOCUMENTACION PRESIDENCIA DE LA GENERALITAT VALÈNCIA,CALLE CABALLEROS Nº 9,", CP 46001", TELF.963863535, FAX.963866081,HTTP://WWW.PRE.GVA.ES/ARGOS/,HTTP://WWW.BEGV.GVA.ES/GAVINA/TLPPRES.HTML,DOCUS_PRE@GVA.ES ,N,PU,PÚBLICA,N,39.4764868,-0.3764385000000001
585,46,VALENCIA,250,BIBLIOTECA ESPECIALIZADA,BIBLIOTECA ESPECIALIZADA CORTS VALENCIANES - BIBLIOTECA VALÈNCIA,PLAZA SANT LLORENÇ Nº 4,", CP 46003", TELF.963876201, FAX.963876202,HTTP://WWW.CORTSVALENCIANES.ES/CS/SATELLITE/LAYOUT/PAGE/1260974742430/DETALLE.HTML?LANG=CA_VA,HTTP://WWW.CORTSVALENCIANES.ES/OPAC/JSP/TLPCCVV.JSP,BIBLIOTECA@CORTS.ES,N,PU,PÚBLICA,N,39.47804180000001,-0.3749048
586,46,VALENCIA,250,CENTRO DE DOCUMENTACION,CENTRO DE DOCUMENTACION SERVICI DE PUBLICACIONS DE LA GENERALITAT VALÈNCIA,PLAZA NULES (PALAU DELS CATALÀ DE VALERIOLA) Nº 2,", CP 46003", TELF.963425826, FAX.963425796,HTTP://WWW.DOCV.GVA.ES, ,DOCV@GVA.ES,N,PU,PÚBLICA,N,39.4775506,-0.3754215
587,46,VALENCIA,250,BIBLIOTECA AUXILIAR ARCHIVO,BIBLIOTECA AUXILIAR ARCHIVO GENERALITAT VALENCIANA VALÈNCIA,AVENIDA CAMPANAR Nº 32,", CP 46015", TELF.961923551, FAX.961923554,HTTP://WWW.CULT.GVA.ES/DGLAB/, ,FERRIOLS_JAI@GVA.ES,N,PU,PÚBLICA,N,39.4839898,-0.3926790000000001
588,46,VALENCIA,250,BIBLIOTECA ESPECIALIZADA,BIBLIOTECA ESPECIALIZADA DIRECCIÓN GENERAL PATRIMONIO CULTURAL VALÈNCIA,AVENIDA CONSTITUCIÓN Nº 264,", CP 46015", TELF.963874192, FAX.963874189,HTTP://WWW.BEGV.GVA.ES/DGPAGV/TDGPA.HTML,HTTP://WWW.BEGV.GVA.ES/DGPAGV/TDGPA.HTML,GANDIA_MIG@GVA.ES,N,PU,PÚBLICA,N,39.4969038,-0.3706079
589,46,VALENCIA,250,CENTRO DE DOCUMENTACION,CENTRO DE DOCUMENTACION E INFORMACIÓN ESTADÍSTICA (IVE) VALÈNCIA,PLAZA NÁPOLES Y SICILIA Nº 10 PISO 4,", CP 46003", TELF.963869546, FAX.963869420,HTTP://WWW.IVE.ES, ,DOCUMENTACION_IVE@GVA.ES,N,PU,PÚBLICA,N,39.4755759,-0.3728493
590,46,VALENCIA,250,CENTRO DE DOCUMENTACION,CENTRO DE DOCUMENTACION AGENCIA VALENCIANA DE TURISMO VALÈNCIA,AVENIDA ARAGÓN Nº 30 PISO 8,", CP 46021", TELF.963986113, FAX.963986001,HTTP://WWW.COMUNIDADVALENCIANA.COM, ,ESTEVE_CARSAN@GVA.ES,N,PU,PÚBLICA,N,39.4717838,-0.3570738
591,46,VALENCIA,250,BIBLIOTECA PRIVADA,BIBLIOTECA PRIVADA REAL SOCIEDAD ECONÓMICA AMIGOS DEL PAÍS VALÈNCIA,"PLAZA TETUÁN,18-ENTRESUELO C",", CP 46003", TELF.963919981, FAX.963914709,HTTP://WWW.UV.ES/RSEAPV/WEB, ,RSEAPVSECRETARIA@RSEAPV.ORG,N,PR,PRIVADA,N,39.4749096,-0.3695011
592,46,VALENCIA,250,CENTRO DE DOCUMENTACION,CENTRO DE DOCUMENTACION EUROPEA  UNIVERSITAT DE VALENCIA VALÈNCIA,EDIFICIO BIB. CIÈNCIES SOCIALS. CAMPUS TARONGERS PISO 2,", CP 46021", TELF.963828747, ,HTTP://WWW.UV.ES/CDE,HTTP://WWW.UV.ES/CDE,CDE@UV.ES,N,PU,PÚBLICA,N,39.47957890000001,-0.3459831
593,46,VALENCIA,250,BIBLIOTECA PUBLICA MUNICIPAL,BIBLIOTECA PUBLICA MUNICIPAL LA PETXINA VALÈNCIA,PASEO DE LA PETXINA Nº 42,", CP 46008", TELF.963525478 EXT-2781, ,HTTP://WWW.VALENCIA.ES/,HTTP://XLPV.CULT.GVA.ES/CGINET-BIN/ABNETOP?SUBC=0171,BPETXINA@VALENCIA.ES,N,PU,PÚBLICA,S,39.475888,-0.393696
594,46,VALENCIA,250,BIBLIOTECA PUBLICA MUNICIPAL,BIBLIOTECA PUBLICA MUNICIPAL JOAN CHURAT I SAURI  LA TORRE VALÈNCIA,CALLE CASTELL DE CULLERA Nº 16-B,", CP 46017", TELF.963292086, ,HTTP://WWW.VALENCIA.ES/,HTTP://XLPV.CULT.GVA.ES/CGINET-BIN/ABNETOP?SUBC=0171,BJCHURAT@VALENCIA.ES,N,PU,PÚBLICA,N,39.434313,-0.3929547
595,46,VALENCIA,250,BIBLIOTECA ESPECIALIZADA,BIBLIOTECA ESPECIALIZADA INSTITUTO FRANCÉS VALÈNCIA,CALLE MORO ZEIT Nº 6,", CP 46001", TELF.963153095, FAX.963920681,HTTP://WWW.IFVALENCIA.COM/,HTTP://IFVALENCE.AGATE-SIGB.COM,MEDIATECA@IFVALENCIA.COM,N,PR,PRIVADA,N,39.4753723,-0.3808101
596,46,VALENCIA,250,BIBLIOTECA PUBLICA MUNICIPAL,BIBLIOTECA PUBLICA MUNICIPAL CASA DE LA REINA  EL CABANYAL-EL GRAU VALÈNCIA,CALLE DE LA REINA  Nº 85-B,", CP 46011", TELF.963715292, ,HTTP://WWW.VALENCIA.ES/,HTTP://XLPV.CULT.GVA.ES/CGINET-BIN/ABNETOP?SUBC=0171,BCASADELAREINA@VALENCIA.ES,N,PU,PÚBLICA,S,39.4674815,-0.3289587
597,46,VALENCIA,250,BIBLIOTECA ESPECIALIZADA,BIBLIOTECA ESPECIALIZADA SINDICATURA DE COMPTES VALÈNCIA,CALLE SAN VICENTE Nº 4,", CP 46002", TELF.963876444, FAX.963876417,HTTP://WWW.SINDICOM.GVA.ES, ,ARIBERA@SINDICOM.GVA.ES,N,PU,PÚBLICA,N,39.4735205,-0.3760081
598,46,VALENCIA,250,BIBLIOTECA ESPECIALIZADA,BIBLIOTECA ESPECIALIZADA MUSEO NACIONAL CERÁMICA GONZÁLEZ MARTÍ VALÈNCIA,CALLE POETA QUEROL Nº 2,", CP 46002", TELF.963516392, FAX.963513512,HTTP://MNCERAMICA.MCU.ES/,HTTP://BIMUS.MCU.ES,BIBLIOTECA.MCERAMICA@MCU.ES / TERESA.RIBELLES@MCU.ES,N,PU,PÚBLICA,N,39.4726395,-0.3746288
599,46,VALENCIA,250,CENTRO DE DOCUMENTACION,CENTRO DE DOCUMENTACION E INFORMACIÓN DE MONTAÑA (CEDIM) CENTRO EXCURSIONISTA VALÈNCIA,PLAZA TAVERNES DE LA VALLDIGNA Nº 4,", CP 46003", TELF.963911643/4886/23147, FAX.963911853,HTTP://WWW.CENTROEXCURSIONISTA.ORG, ,INFOCEV@CENTROEXCURSIONISTA.ORG,N,PR,PRIVADA,N,39.0710445,-0.2642568
600,46,VALENCIA,250,BIBLIOTECA ESPECIALIZADA,BIBLIOTECA ESPECIALIZADA MUVIM-MUSEU VALENCIÀ DE LA IL·LUSTRACIÓ I LA MODERNITAT VALÈNCIA,CALLE QUEVEDO Nº 10,", CP 46001", TELF.963883761/963883762, FAX.963883741, , ,BIBLIOTECAMUVIM@DIVAL.ES / ANA.REIG@DIVAL.ES,N,PU,PÚBLICA,N,39.4697667,-0.3811256
601,46,VALENCIA,250,BIBLIOTECA ESPECIALIZADA,"BIBLIOTECA ESPECIALIZADA CONSELLERIA DE INFRAESTRUCTURAS, TERRITORIO Y MEDIO AMBIENTE VALÈNCIA",AVENIDA BLASCO IBÁÑEZ Nº 50,", CP 46010", TELF.963862227/963862339, FAX.963867340,HTTP://WWW.CIT.GVA.ES/CAST/INFORMACION-GENERAL/DOC-Y-PUBLICACIONES/ ,HTTP://WWW.BEGV.GVA.ES/ARENA2/TCOP.HTML,DOC_CIT@GVA.ES,N,PU,PÚBLICA,N,39.4760703,-0.3570003
602,46,VALENCIA,250,BIBLIOTECA ESPECIALIZADA,BIBLIOTECA ESPECIALIZADA SERVICIO DE ESTUDIOS AGRARIOS Y COMUNITARIOS CAPA VALÈNCIA,PLAZA DEL TEMPLE Nº 6 PISO 1,", CP 46003", TELF.963184977, FAX.963867807,HTTP://WWW.AGRICULTURA.GVA.ES,HTTP://WWW.PRE.GVA.ES/CAPA/TLPCAPA.HTML,CAPA_PT_BIBLIOTECA@GVA.ES,N,PU,PÚBLICA,N,39.4760247,-0.3706144
603,46,VALENCIA,250,BIBLIOTECA PUBLICA MUNICIPAL,BIBLIOTECA PUBLICA MUNICIPAL DEL MAR VALÈNCIA,CALLE FONTILLES Nº 35,", CP 46024", TELF.963525478 EXT-7421, ,HTTP://WWW.VALENCIA.ES/,HTTP://XLPV.CULT.GVA.ES/CGINET-BIN/ABNETOP?SUBC=0171,BDELMAR@VALENCIA.ES,N,PU,PÚBLICA,S,39.4488551,-0.3317077
604,46,VALENCIA,250,BIBLIOTECA PUBLICA MUNICIPAL,BIBLIOTECA PUBLICA MUNICIPAL NOVA AL-RUSSAFI VALÈNCIA,CALLE POETA AL RUSSAFI Nº 2 Y 4,", CP 46006", TELF.963525478 EXT-4292, ,HTTP://WWW.VALENCIA.ES/,HTTP://XLPV.CULT.GVA.ES/CGINET-BIN/ABNETOP?SUBC=0171,BNOVAL-RUSAFI@VALENCIA.ES,N,PU,PÚBLICA,S,39.4609033,-0.3706058
605,46,VALENCIA,250,BIBLIOTECA ESPECIALIZADA,BIBLIOTECA ESPECIALIZADA COLEGIO OFICIAL DE INGENIEROS AGRÓNOMOS DE LEVANTE VALÈNCIA,AVENIDA BOTÁNICO CAVANILLES Nº 20,", CP 46010", TELF.963696660  , FAX.963614407 ,HTTP://WWW.COIAL.ORG/, ,COIAL@IIES.ES ,N,PR,PRIVADA,N,39.4823542,-0.3646482
606,46,VALENCIA,250,BIBLIOTECA ESPECIALIZADA,"BIBLIOTECA ESPECIALIZADA C OFICIAL DOCTORES Y LICENCIADOS FILOSOFÍA,LETRAS Y CIENCIAS VALÈNCIA",AVENIDA TIRSO DE MOLINA Nº 3-BAJ,", CP 46009", TELF.963493910 , FAX.963404138,HTTP://WWW.CDLVALENCIA.ORG/, ,CDLVALENCIA@CDLVALENCIA.ORG,N,PR,PRIVADA,N,39.47869060000001,-0.39244
607,46,VALENCIA,250,BIBLIOTECA ESPECIALIZADA,BIBLIOTECA ESPECIALIZADA COLEGIO PROFESIONAL DE DELINEANTES Y DISEÑADORES TÉCNICOS VALÈNCIA,GRAN VÍA MARQUÉS DEL TÚRIA Nº 24 PISO 1 PTA. 1,", CP 46005", TELF.963950928/655575782, ,HTTP://WWW.CODITECVA.ORG/,HTTP://WWW.CODITECVA.ORG/,COLEGIO@CODITECVA.ORG,N,PR,PRIVADA,N,39.4659375,-0.3705992
608,46,VALENCIA,251,AGENCIA DE LECTURA,AGENCIA DE LECTURA  VALLADA,CALLE SANTISSIM CRIST Nº 6 PISO 1,", CP 46691", TELF.648220644, FAX.962257624 AYTO,HTTP://XLPV.CULT.GVA.ES/CGINET-BIN/ABNETOP?SUBC=0040,HTTP://XLPV.CULT.GVA.ES/CGINET-BIN/ABNETOP?SUBC=0040,PELEJEROVILA@HOTMAIL.COM,N,PU,PÚBLICA,S,39.4840108,-0.7532808999999999
609,46,VALENCIA,254,OTRAS PÚBLICAS,OTRAS PÚBLICAS DE VENTA DEL MORO VENTA DEL MORO,PLAZA CRUCES Nº 49,", CP 46310", TELF.962185001 AYTO, FAX.962185103 AYTO, , ,AYUNTAMIENTO@VENTADELMORO.ES,N,PU,PÚBLICA,N,39.46662550000001,-0.3761198
610,46,VALENCIA,255,AGENCIA DE LECTURA,AGENCIA DE LECTURA  VILALLONGA,CALLE LA PAU Nº 14 PISO 2,", CP 46720", TELF.962805004, FAX.962817233 AYTO, ,HTTP://XLPV.CULT.GVA.ES/CGINET-BIN/ABNETOP?SUBC=0179,VICENT.FERRANDO@VILLALONGA.ES,N,PU,PÚBLICA,S,39.473368,-0.374155
611,46,VALENCIA,256,BIBLIOTECA PUBLICA MUNICIPAL,BIBLIOTECA PUBLICA MUNICIPAL  VILAMARXANT,PLAZA CISTERNA Nº S/N,", CP 46191", TELF.962712070, , , ,BIBLIOTECA@VILAMARXANT.ES,N,PU,PÚBLICA,N,39.5680374,-0.6213659
612,46,VALENCIA,257,BIBLIOTECA PUBLICA MUNICIPAL,BIBLIOTECA PUBLICA MUNICIPAL JOAN FUSTER VILLANUEVA DE CASTELLÓN,CALLE LA SEQUIA Nº 16,", CP 46270", TELF.962451433, FAX.962452040 AYTO,HTTP://XLPV.CULT.GVA.ES/CGINET-BIN/ABNETOP?SUBC=0121,HTTP://XLPV.CULT.GVA.ES/CGINET-BIN/ABNETOP?SUBC=0121,BIBLIOTECA@VILLANUEVADECASTELLON.ES,N,PU,PÚBLICA,N,38.5999442,-0.0492086
613,46,VALENCIA,26,OTRAS PÚBLICAS,OTRAS PÚBLICAS  ALFARP,CALLE VALENCIA Nº 13,", CP 46197", TELF.962550391 AYTO, FAX.962990434 AYTO, , ,MARYLI909@HOTMAIL.COM,N,PU,PÚBLICA,N,39.4736777,-0.4111647
614,46,VALENCIA,26,OTRAS PÚBLICAS,OTRAS PÚBLICAS BARRIO DEL CRISTO MANCOMUNIDAD INTERMUNICIPAL BARRIO DEL CRISTO - ALDAIA - QUART DE POBLET,CALLE SANTISIMO CRISTO Nº 66,", CP 46960", TELF.96.150.15.56, FAX.961511855, , ,BIBLIOTECA@BARRIODELCRISTO.ES,N,PU,PÚBLICA,N,39.4753839,-0.4602716
615,46,VALENCIA,260,AGENCIA DE LECTURA,AGENCIA DE LECTURA  VINALESA,CALLE LA FABRICA Nº 1,", CP 46114", TELF.961496515 , FAX.961495621 AYTO,HTTP://WWW.BIBLIOTECASPUBLICAS.ES/VINALESA/INDEX.JSP,HTTP://XLPV.CULT.GVA.ES/CGINET-BIN/ABNETOP?SUBC=0078,BIBLIOTECA.VINALESA@CV.GVA.ES  /  BIBLIOTECA@VINALESA.ORG,N,PU,PÚBLICA,N,39.26423,-0.4748000000000001
616,46,VALENCIA,261,AGENCIA DE LECTURA,AGENCIA DE LECTURA CASA DE CULTURA YÁTOVA,CALLE VIRGEN DEL ROSARIO Nº 3,", CP 46367", TELF.962516415, ,HTTP://XLPV.CULT.GVA.ES/CGINET-BIN/ABNETOP?SUBC=0195,HTTP://XLPV.CULT.GVA.ES/CGINET-BIN/ABNETOP?SUBC=0195,AGENCIALECTURAYATOVA@GMAIL.COM,N,PU,PÚBLICA,S,,
617,46,VALENCIA,27,AGENCIA DE LECTURA,AGENCIA DE LECTURA  ALFARRASÍ,CALLE AUSIAS MARCH Nº 14,", CP 46893", TELF.662300997, FAX.962227070 AYTO,HTTP://XLPV.CULT.GVA.ES/CGINET-BIN/ABNETOP?SUBC=0076,HTTP://XLPV.CULT.GVA.ES/CGINET-BIN/ABNETOP?SUBC=0076,ALFARRASIAGENCIALECTURA@GMAIL.COM,N,PU,PÚBLICA,S,39.5775997,-0.5408982
618,46,VALENCIA,28,OTRAS PÚBLICAS,OTRAS PÚBLICAS  ALGAR DE PALANCIA,PLAZA DE CASTELLÓ Nº 1 PISO 1,", CP 46593", TELF.962625055, FAX.962626152 AYTO, , ,APALANCIA_ALC@GVA.ES,N,PU,PÚBLICA,N,38.3551002,-0.4838696
619,46,VALENCIA,29,BIBLIOTECA PUBLICA MUNICIPAL,BIBLIOTECA PUBLICA MUNICIPAL  ALGEMESÍ,CALLE LLUIS VIVES Nº 9,", CP 46680", TELF.962017590, FAX.962017590,HTTP://WWW.BIBLIOTECASPUBLICAS.ES/ALGEMESI,HTTP://XLPV.CULT.GVA.ES/CGINET-BIN/ABNETOP?SUBC=0015,BIBLIOTECA@ALGEMESI.NET,N,PU,PÚBLICA,S,39.4734098,-0.3748157
620,46,VALENCIA,3,AGENCIA DE LECTURA,AGENCIA DE LECTURA AJUNTAMENT ATZENETA D' ALBAIDA,CALLE VERGE  DELS  DESAMPARATS Nº 36,", CP 46869", TELF.962359161 AYTO, FAX.962356559 AYTO, , ,ADALBAIDA_SEC@GVA.ES,N,PU,PÚBLICA,N,39.07667,-0.26442
621,46,VALENCIA,31,BIBLIOTECA PUBLICA MUNICIPAL,BIBLIOTECA PUBLICA MUNICIPAL  ALGINET,CALLE ARQUEBISBE SANCHIS Nº 26,", CP 46230", TELF.961753524, FAX.961759005,HTTP://WWW.BIBLIOTECASPUBLICAS.ES/ALGINET/,HTTP://XLPV.CULT.GVA.ES/CGINET-BIN/ABNETOP?SUBC=0094,CULTURA@ALGINET.ES,N,PU,PÚBLICA,N,39.4840108,-0.7532808999999999
622,46,VALENCIA,32,BIBLIOTECA PUBLICA MUNICIPAL,BIBLIOTECA PUBLICA MUNICIPAL  ALMÀSSERA,PLAZA MAJOR Nº 1,", CP 46132", TELF.961862512, FAX.961859544 AYTO,HTTP://XLPV.CULT.GVA.ES/CGINET-BIN/ABNETOP?SUBC=0028,HTTP://XLPV.CULT.GVA.ES/CGINET-BIN/ABNETOP?SUBC=0028,BIBLIOALMASSERA@GMAIL.COM,N,PU,PÚBLICA,N,39.9860791,-0.03794869999999999
623,46,VALENCIA,34,AGENCIA DE LECTURA,AGENCIA DE LECTURA  ALMOINES,CALLE SANT FRANCESC  Nº S/N PISO 1,", CP 46723", TELF.662318117 /962804214, ,HTTP://BIBLIOALMOINES.BLOGSPOT.COM/,HTTP://XLPV.CULT.GVA.ES/CGINET-BIN/ABNETOP?SUBC=0157,BIBLIOALMOINES@HOTMAIL.COM,N,PU,PÚBLICA,S,39.3780205,-0.4116097
624,46,VALENCIA,35,BIBLIOTECA PUBLICA MUNICIPAL,BIBLIOTECA PUBLICA MUNICIPAL  ALMUSSAFES,CALLE LLAURADORS Nº 42 PISO 1,", CP 46440", TELF.961784555, FAX.961784515,HTTP://HTTP://WWW.ALMUSSAFES.ES/ES/CONTENT/BIBLIOTECA,HTTP://XLPV.CULT.GVA.ES/CGINET-BIN/ABNETOP?SUBC=0109,ALMUSSAFES_BIB@GVA.ES,N,PU,PÚBLICA,S,39.452971,-0.3396552
625,46,VALENCIA,37,AGENCIA DE LECTURA,AGENCIA DE LECTURA GONÇAL CASTELLÓ ALQUERIA DE LA COMTESSA (L'),CALLE SANT JAUME Nº 1 PISO 1,", CP 46715", TELF.962894006/962893002, FAX.962894232 AYTO, , ,CASACULTURA@LALQUERIADELACOMTESSA.ES,N,PU,PÚBLICA,N,38.9239691,-0.0912388
626,46,VALENCIA,39,AGENCIA DE LECTURA,AGENCIA DE LECTURA  ANNA,CALLE RAMÓN Y CAJAL Nº 18,", CP 46820", TELF.962210180/675646749, FAX.962210180, , ,BIBLIOTECAANNA@HOTMAIL.COM,N,PU,PÚBLICA,N,39.4217156,-0.38759
627,46,VALENCIA,4,AGENCIA DE LECTURA,AGENCIA DE LECTURA CASA DE CULTURA AGULLENT,CALLE MAJOR Nº 4,", CP 46890", TELF.962907659, ,HTTP://BIBLIOTECA.AGULLENT.NET,HTTP://XLPV.CULT.GVA.ES/CGINET-BIN/ABNETOP?SUBC=0106,BIBLIOTECAGULLENT@OUTLOOK.COM/MJOSEPGRAMAGE@HOTMAIL.COM,N,PU,PÚBLICA,S,39.669445,-0.3390814
628,46,VALENCIA,40,OTRAS PÚBLICAS,OTRAS PÚBLICAS  ANTELLA,CALLE DEL REY Nº 4,", CP 46266", TELF.962595002/7 AYTO, FAX.962974068 AYTO, , , ,N,PU,PÚBLICA,N,39.3341937,-0.6083257
629,46,VALENCIA,41,OTRAS PÚBLICAS,OTRAS PÚBLICAS  ARAS DE LOS OLMOS,CALLE ESCUELAS Nº 2,", CP 46179", TELF.962102092, , , , ,N,PU,PÚBLICA,N,39.4840108,-0.7532808999999999
630,46,VALENCIA,42,AGENCIA DE LECTURA,AGENCIA DE LECTURA DEGA ORTIZ I SANZ AIELO DE MALFERIT,AVENIDA STM. CRIST DE LA POBRESA Nº 3,", CP 46812", TELF.962360704, FAX.962363141 AYTO,HTTP://XLPV.CULT.GVA.ES/CGINET-BIN/ABNETOP?SUBC=0093,HTTP://XLPV.CULT.GVA.ES/CGINET-BIN/ABNETOP?SUBC=0093,BIBLIOTECAAIELO@HOTMAIL.COM,N,PU,PÚBLICA,S,39.4840108,-0.7532808999999999
631,46,VALENCIA,43,AGENCIA DE LECTURA,AGENCIA DE LECTURA  AIELO DE RUGAT,CALLE TRINQUET Nº S/N,", CP 46842", TELF.962897129 AYTO, , , ,BIB_AIELODERUGAT@YAHOO.ES,N,PU,PÚBLICA,N,39.4023917,-0.4054315
632,46,VALENCIA,44,BIBLIOTECA PUBLICA MUNICIPAL,BIBLIOTECA PUBLICA MUNICIPAL CERVANTES AYORA,AVENIDA ARGENTINA Nº 38,", CP 46620", TELF.962191903 , ,HTTP://WWW.AYORA.ES/, ,BIBLIOTECACERVANTES@AYORA.ES,N,PU,PÚBLICA,N,39.4840108,-0.7532808999999999
633,46,VALENCIA,45,AGENCIA DE LECTURA,AGENCIA DE LECTURA ENRIC VALOR BARXETA,CALLE JAIME I Nº 3,", CP 46667", TELF.962214313, FAX.962214383 AYTO, , ,BIBLIO_BARXETA@HOTMAIL.ES,N,PU,PÚBLICA,N,38.3443482,-0.765389
634,46,VALENCIA,46,AGENCIA DE LECTURA,AGENCIA DE LECTURA  BARX,CALLE GANDIA Nº 55 PISO 1,", CP 46758", TELF.962807597, FAX.962807230 AYTO,HTTP://WWW.BARX.ES/ES/SERVICIOS/BIBLIOTECA-MUNICIPAL, ,BIBLIOTECA@BARX.ES,N,PU,PÚBLICA,N,39.0315733,-0.2146713
635,46,VALENCIA,47,AGENCIA DE LECTURA,AGENCIA DE LECTURA  BÈLGIDA,CALLE SAN ROQUE Nº 3,", CP 46868", TELF.962901074 AYTO, FAX.962900079 AYTO, , ,BELGIDA_ADL@GVA.ES,N,PU,PÚBLICA,N,39.4928076,-0.3963037
636,46,VALENCIA,48,AGENCIA DE LECTURA,AGENCIA DE LECTURA  BELLREGUARD,CALLE CLOT DE L'ERA Nº 10 PISO 2,", CP 46713", TELF.663939687, FAX.962816218 AYTO,HTTP://XLPV.CULT.GVA.ES/CGINET-BIN/ABNETOP?SUBC=0131,HTTP://XLPV.CULT.GVA.ES/CGINET-BIN/ABNETOP?SUBC=0131,PURA.CULTURA@BELLREGUARD.NET,N,PU,PÚBLICA,S,38.94627,-0.16186
637,46,VALENCIA,5,PUNTO DE SERVICIO EXTERNO,PUNTO DE SERVICIO EXTERNO GONZÁLEZ GALLARZA ALAQUÀS,CALLE PICANYA Nº S/N,", CP 46970", TELF.961512267, ,HTTP://WWW.ALAQUAS.ORG,HTTP://WWW.ALAQUAS.ORG/BIBLIOTECA/VIRTUAL, ,N,PU,PÚBLICA,N,39.4383893,-0.4540555999999999
638,46,VALENCIA,5,BIBLIOTECA PUBLICA MUNICIPAL,BIBLIOTECA PUBLICA MUNICIPAL AUSIÀS MARCH ALAQUÀS,CALLE ANTONIA MARÍA DE OVIEDO Nº 5,", CP 46970", TELF.961519417, FAX.961519425,HTTP://WWW.ALAQUAS.ORG,HTTP://WWW.ALAQUAS.ORG/BIBLIOTECA/VIRTUAL,BIBLIOTECA@ALAQUAS.ORG,N,PU,PÚBLICA,N,43.3619145,-5.8493887
639,46,VALENCIA,5,PUNTO DE SERVICIO EXTERNO,PUNTO DE SERVICIO EXTERNO SANCHIS ALMIÑANO ALAQUÀS,CALLE VICENTE LIS BORONA Nº S/N,", CP 46970", TELF.961503504, ,HTTP://WWW.ALAQUAS.ORG,HTTP://WWW.ALAQUAS.ORG/BIBLIOTECA/VIRTUAL, ,N,PU,PÚBLICA,N,39.4516714,-0.4616141
640,46,VALENCIA,51,BIBLIOTECA PUBLICA MUNICIPAL,BIBLIOTECA PUBLICA MUNICIPAL  BENAGUASIL,PLAZA MAJOR DE LA VILA Nº 7,", CP 46180", TELF.962737119, ,HTTP://XLPV.CULT.GVA.ES/CGINET-BIN/ABNETOP?SUBC=0110,HTTP://XLPV.CULT.GVA.ES/CGINET-BIN/ABNETOP?SUBC=0110,BENAGUASIL_BIB@GVA.ES,N,PU,PÚBLICA,N,39.5939486,-0.5851628999999999
641,46,VALENCIA,52,OTRAS PÚBLICAS,OTRAS PÚBLICAS MAESTRA DªCARMEN GIMENO SERRANO BENAVITES,CALLE MAJOR Nº 7,", CP 46510", TELF.962636652 AYTO, FAX.962636633 AYTO, , ,BIBLIOBENAVITES@HOTMAIL.COM,N,PU,PÚBLICA,N,39.6690405,-0.3395591000000001
642,46,VALENCIA,54,BIBLIOTECA PUBLICA MUNICIPAL,BIBLIOTECA PUBLICA MUNICIPAL  BENETÚSSER,CALLE NTRA. SRA. DEL SOCORRO Nº 64 PTA. 1,", CP 46910", TELF.963755906, FAX.963750935 AYTO,HTTP://XLPV.CULT.GVA.ES/CGINET-BIN/ABNETOP?SUBC=0070,HTTP://XLPV.CULT.GVA.ES/CGINET-BIN/ABNETOP?SUBC=0070,BIBLIOTECA@BENETUSSER.NET,N,PU,PÚBLICA,N,39.4228693,-0.3965072
643,46,VALENCIA,55,AGENCIA DE LECTURA,AGENCIA DE LECTURA  BENIARJÓ,CALLE PARC DE L'ESTACIÓ Nº S/N,", CP 46722", TELF.962800660, , , ,BIBLIOTECABENIARJO@HOTMAIL.COM,N,PU,PÚBLICA,N,38.9323534,-0.184983
644,46,VALENCIA,57,OTRAS PÚBLICAS,OTRAS PÚBLICAS  BENICOLET,PLAZA AJUNTAMENT Nº 1,", CP 46838", TELF.962830120/647714035 , FAX.962830093 AYTO,HTTP://WWW.BIBLIOTECASPUBLICAS.ES/BENICOLET/INDEX.JSP, ,BIBLIOBENICOLET@GMAIL.COM,N,PU,PÚBLICA,N,39.469673,-0.3762445
645,46,VALENCIA,58,AGENCIA DE LECTURA,AGENCIA DE LECTURA  BENIFAIRÓ DE LES VALLS,CALLE BON SUCCÉS Nº 5,", CP 46511", TELF.962602556, FAX.962600257 AYTO, , ,BVALLS_ALC@GVA.ES,N,PU,PÚBLICA,N,39.6800573,-0.2811494
646,46,VALENCIA,59,AGENCIA DE LECTURA,AGENCIA DE LECTURA  BENIFAIRÓ DE LA VALLDIGNA,CALLE PIO XII Nº 3,", CP 46791", TELF.962810416 AYTO, FAX.962811905 AYTO, , ,BVALLDIGNA_CUL@GVA.ES,N,PU,PÚBLICA,N,39.4792899,-0.3920104
647,46,VALENCIA,6,BIBLIOTECA PUBLICA MUNICIPAL,BIBLIOTECA PUBLICA MUNICIPAL  ALBAIDA,PLAZA MAJOR Nº 7,", CP 46860", TELF.607403526, FAX.962900667 AYTO,HTTP://WWW.BIBLIOTECASPUBLICAS.ES/ALBAIDA/,HTTP://XLPV.CULT.GVA.ES/CGINET-BIN/ABNETOP?SUBC=0026,BIBLIOTECA@ALBAIDA.ES,N,PU,PÚBLICA,S,39.4226696,-0.3399662
648,46,VALENCIA,60,BIBLIOTECA PUBLICA MUNICIPAL,BIBLIOTECA PUBLICA MUNICIPAL  BENIFAIÓ,CALLE SANTA BARBERA Nº 42,", CP 46450", TELF.962030434, FAX.961794138 AYTO,HTTP://XLPV.CULT.GVA.ES/CGINET-BIN/ABNETOP?SUBC=0169,HTTP://XLPV.CULT.GVA.ES/CGINET-BIN/ABNETOP?SUBC=0169,BIBLIOTECA@BENIFAIO.ES,N,PU,PÚBLICA,S,38.3449713,-0.4855901
649,46,VALENCIA,62,BIBLIOTECA PUBLICA MUNICIPAL,BIBLIOTECA PUBLICA MUNICIPAL  BENIGÀNIM,AVENIDA REIAL Nº S/N PISO 1,", CP 46830", TELF.962215954, FAX.962217010 AYTO,HTTP://WWW.BIBLIOTECASPUBLICAS.ES/BENIGANIM/INDEX.JSP,HTTP://XLPV.CULT.GVA.ES/CGINET-BIN/ABNETOP?SUBC=0092,BENIGANIM_BIB@GVA.ES,N,PU,PÚBLICA,S,39.4840108,-0.7532808999999999
650,46,VALENCIA,63,AGENCIA DE LECTURA,AGENCIA DE LECTURA  BENIMODO,AVENIDA DEL LLAURADOR Nº 7,", CP 46291", TELF.962993815, FAX.962993496 AYTO,HTTP://XLPV.CULT.GVA.ES/CGINET-BIN/ABNETOP?SUBC=0132,HTTP://XLPV.CULT.GVA.ES/CGINET-BIN/ABNETOP?SUBC=0132,BENIMODO_BIB@GVA.ES,N,PU,PÚBLICA,S,38.9313814,-0.0989195
651,46,VALENCIA,64,AGENCIA DE LECTURA,AGENCIA DE LECTURA  BENIMUSLEM,CALLE COLÓN Nº 6,", CP 46611", TELF.962441471 AYTO, FAX.962442950 AYTO, , , ,N,PU,PÚBLICA,N,39.4671944,-0.3743109
652,46,VALENCIA,65,AGENCIA DE LECTURA,AGENCIA DE LECTURA  BENIPARRELL,CALLE SANTA BARBARA Nº 25,", CP 46469", TELF.961216035, FAX.961212696 AYTO,HTTP://XLPV.CULT.GVA.ES/CGINET-BIN/ABNETOP?SUBC=0133,HTTP://XLPV.CULT.GVA.ES/CGINET-BIN/ABNETOP?SUBC=0133,BENIPARRELL_BIB@GVA.ES,N,PU,PÚBLICA,N,38.3448307,-0.4855902
653,46,VALENCIA,66,AGENCIA DE LECTURA,AGENCIA DE LECTURA  BENIRREDRÀ,PLAZA DE L'AJUNTAMENT Nº 1,", CP 46703", TELF.962860201/2870181, FAX.962878475 AYTO,HTTP://XLPV.CULT.GVA.ES/CGINET-BIN/ABNETOP?SUBC=0145,HTTP://XLPV.CULT.GVA.ES/CGINET-BIN/ABNETOP?SUBC=0145,VICENTALLORENS@HOTMAIL.COM,N,PU,PÚBLICA,S,39.469673,-0.3762445
654,46,VALENCIA,67,OTRAS PÚBLICAS,OTRAS PÚBLICAS CASA DE LA JUVENTUD BENISSANÓ,PLAZA VICENTE MAÑEZ Nº 11,", CP 46181", TELF.962780701 AYTO, FAX.962791540 AYTO, , , ,N,PU,PÚBLICA,N,39.6140014,-0.5736319999999999
655,46,VALENCIA,7,BIBLIOTECA PUBLICA MUNICIPAL,BIBLIOTECA PUBLICA MUNICIPAL  ALBAL,CALLE HERNANDEZ LAZARO Nº 178,", CP 46470", TELF.961272693, FAX.961270861 AYTO,HTTP://XLPV.CULT.GVA.ES/CGINET-BIN/ABNETOP?SUBC=0044,HTTP://XLPV.CULT.GVA.ES/CGINET-BIN/ABNETOP?SUBC=0044,BIBLIOTECA@ALBAL.ES,N,PU,PÚBLICA,N,39.3983501,-0.408104
656,46,VALENCIA,70,BIBLIOTECA PUBLICA MUNICIPAL,BIBLIOTECA PUBLICA MUNICIPAL  BÉTERA,AVENIDA VALENCIA Nº 26 PISO 2,", CP 46117", TELF.667800974 , FAX.961601971,HTTP://XLPV.CULT.GVA.ES/CGINET-BIN/ABNETOP?SUBC=0058,HTTP://XLPV.CULT.GVA.ES/CGINET-BIN/ABNETOP?SUBC=0058,BIBLIOTECA@BETERA.ES,N,PU,PÚBLICA,N,39.9795017,-0.0444311
657,46,VALENCIA,71,AGENCIA DE LECTURA,AGENCIA DE LECTURA CUEVA DE LA ARAÑA BICORP,CALLE IGLESIA Nº 11-BJ,", CP 46825", TELF.962269110 AYTO, FAX.962269181 AYTO, , ,BICORP_ALC@GVA.ES,N,PU,PÚBLICA,S,39.4457661,-0.5068016000000001
658,46,VALENCIA,72,AGENCIA DE LECTURA,AGENCIA DE LECTURA  BOCAIRENT,PLAZA DE L'AJUNTAMENT Nº 20,", CP 46880", TELF.962355027, FAX.962905085 AYTO,HTTP://WWW.BOCAIRENT.ES/,HTTP://XLPV.CULT.GVA.ES/CGINET-BIN/ABNETOP?SUBC=0059,BOCAIRENT_BIB@GVA.ES,N,PU,PÚBLICA,S,39.4703122,-0.3759803
659,46,VALENCIA,73,AGENCIA DE LECTURA,AGENCIA DE LECTURA  BOLBAITE,CALLE SANTA CECILIA Nº 17 PISO 1º,", CP 46822", TELF.962223288, , , ,BIBLIOBOLBAITE@GMAIL.COM,N,PU,PÚBLICA,N,38.9140935,-0.1148554
660,46,VALENCIA,74,AGENCIA DE LECTURA,AGENCIA DE LECTURA  BONREPÒS I MIRAMBELL,CALLE VIRGEN DEL PILAR Nº 28,", CP 46131", TELF.961852500 AYTO, FAX.961859631 AYTO, , ,BIBLIOTECA@BONIMIR.COM,N,PU,PÚBLICA,N,39.93930599999999,-0.0634898
661,46,VALENCIA,77,BIBLIOTECA PUBLICA MUNICIPAL,BIBLIOTECA PUBLICA MUNICIPAL CRONISTA FERNANDO GALARZA BUÑOL,CALLE PELAYO Nº 12,", CP 46360", TELF.962500751, ,HTTP://WWW.BIBLIOTECASPUBLICAS.ES/BUNOL/INDEX.JSP,HTTP://XLPV.CULT.GVA.ES/CGINET-BIN/ABNETOP?SUBC=0096,BIBLIOTECABUNYOL@TELEFONICA.NET,N,PU,PÚBLICA,N,39.4670046,-0.3786425
662,46,VALENCIA,78,BIBLIOTECA PUBLICA MUNICIPAL,BIBLIOTECA PUBLICA MUNICIPAL  BURJASSOT,CALLE MARIANA PINEDA Nº 93-95,", CP 46100", TELF.963160630 EXT-1105, FAX.963901359,HTTP://WWW.BURJASSOT.ORG,HTTP://WWW.BURJASSOT.ORG/WEB3/BUSCADORBIBLIOTECA.ASPX,PILAR.MARTINEZ@IMCJB.NET,N,PU,PÚBLICA,S,39.5071828,-0.4106405
663,46,VALENCIA,78,BIBLIOTECA UNIVERSITARIA,BIBLIOTECA UNIVERSITARIA DE CIENCIAS EDUARD BOSCÀ-UV BURJASSOT,AVENIDA DR. MOLINER - CAMPUS BURJASSOT Nº 50,", CP 46100", TELF.963864158/963543362, FAX.963864798,HTTP://BIBLIOTECA.UV.ES/CASTELLANO//BIBLIOTECAS/DE_CAMPUS/B_CIENCIES/B_CIENCIAS.PHP,HTTP://WWW.UV.ES/~INFOBIB/SIB/CATALOGO.HTML,ROSARIO.FERRE@UV.ES,N,PU,PÚBLICA,N,39.5081318,-0.4198022
664,46,VALENCIA,78,BIBLIOTECA UNIVERSITARIA,BIBLIOTECA UNIVERSITARIA CIENCIAS-FARMACIA-UV BURJASSOT,AVENIDA VICENTE ANDRÉS ESTELLÉS Nº S/N,", CP 46100", TELF.963864876, FAX.963544798 ,HTTP://BIBLIOTECA.UV.ES/CASTELLANO//BIBLIOTECAS/DE_CAMPUS/B_FARMACIA/B_CIENCIAS_FAR.PHP,HTTP://WWW.UV.ES/~INFOBIB/SIB/CATALOGO.HTML,ROSARIO.FERRE@UV.ES,N,PU,PÚBLICA,N,39.5097425,-0.4202637
665,46,VALENCIA,79,OTRAS PÚBLICAS,OTRAS PÚBLICAS  CALLES,CALLE EMPEDRADO Nº 8,", CP 46175", TELF.962100356 AYTO, FAX.962100961 AYTO, , , ,N,PU,PÚBLICA,N,39.7251592,-0.9736733000000001
666,46,VALENCIA,8,AGENCIA DE LECTURA,AGENCIA DE LECTURA JOAN FUSTER ALBALAT DE LA RIBERA,CALLE DELME Nº 23,", CP 46687", TELF.962490500 AYTO, FAX.962492012 AYTO,HTTP://XLPV.CULT.GVA.ES/CGINET-BIN/ABNETOP?SUBC=0144,HTTP://XLPV.CULT.GVA.ES/CGINET-BIN/ABNETOP?SUBC=0144,ARIBERA_ARX@GVA.ES,N,PU,PÚBLICA,S,39.1884408,-0.4352592
667,46,VALENCIA,80,AGENCIA DE LECTURA,AGENCIA DE LECTURA MAESTRO AGUILAR CAMPORROBLES,CALLE HERNÁNDEZ ZAZO Nº 2,", CP 46330", TELF.962181006, FAX.962181341 AYTO, , ,AGECIALECTURA.MAESTROAGUILAR@GMAIL.COM,N,PU,PÚBLICA,N,39.6470687,-1.3995874
668,46,VALENCIA,81,BIBLIOTECA PUBLICA MUNICIPAL,BIBLIOTECA PUBLICA MUNICIPAL  CANALS,CALLE DIPUTACIO Nº 1,", CP 46650", TELF.962240214, FAX.962242319,HTTP://WWW.BIBLIOTECASPUBLICAS.ES/CANALS,HTTP://XLPV.CULT.GVA.ES/CGINET-BIN/ABNETOP?SUBC=0071,CULTURA@CANALS.ES,N,PU,PÚBLICA,N,39.4976162,-0.3511598
669,46,VALENCIA,82,BIBLIOTECA PUBLICA MUNICIPAL,BIBLIOTECA PUBLICA MUNICIPAL MUNICIPAL AUSIAS MARCH CANET D'EN BERENGUER,CALLE DE LES PARRES Nº 4,", CP 46529", TELF.962698022, FAX.962681929 AYTO,HTTP://XLPV.CULT.GVA.ES/CGINET-BIN/ABNETOP?SUBC=0159,HTTP://XLPV.CULT.GVA.ES/CGINET-BIN/ABNETOP?SUBC=0159,BIBLIOTECA@CANETDENBERENGUER.ES,N,PU,PÚBLICA,S,38.7732302,0.0812968
670,46,VALENCIA,83,BIBLIOTECA PUBLICA MUNICIPAL,BIBLIOTECA PUBLICA MUNICIPAL JULIA RIBERA TARRAGO CARCAIXENT,CALLE JAUME I Nº 33,", CP 46740", TELF.962467243, FAX.962433100,HTTP://WWW.BIBLIOTECASPUBLICAS.ES/CARCAIXENT/,HTTP://XLPV.CULT.GVA.ES/CGINET-BIN/ABNETOP?SUBC=0017,BIBLIOTECA@CARCAIXENT.ES,N,PU,PÚBLICA,S,39.4509974,-0.471262
671,46,VALENCIA,84,OTRAS PÚBLICAS,OTRAS PÚBLICAS RAÚL CARBONELL CÀRCER,CALLE CASTO MOMBLANCH Nº 16,", CP 46294", TELF.962580016/96 AYTO, FAX.962580603 AYTO, , ,BIBLIOTECACARCER@GMAIL.COM / TELECENTROCARCER@GMAIL.COM,N,PU,PÚBLICA,N,39.0700976,-0.5660255
672,46,VALENCIA,85,BIBLIOTECA PUBLICA MUNICIPAL,BIBLIOTECA PUBLICA MUNICIPAL  CARLET,AVENIDA DE LA CAIXA D'ESTALVIS Nº 1,", CP 46240", TELF.962993460, ,HTTP://XLPV.CULT.GVA.ES/CGINET-BIN/ABNETOP?SUBC=0120,HTTP://XLPV.CULT.GVA.ES/CGINET-BIN/ABNETOP?SUBC=0120,BIBLIOTECA@CARLET.ES,N,PU,PÚBLICA,N,38.34522210000001,-0.4920132
673,46,VALENCIA,89,OTRAS PÚBLICAS,OTRAS PÚBLICAS CASA DE LA CULTURA CASINOS,CALLE MAYOR Nº 5 PISO 2,", CP 46171", TELF.962700161 AYTO, FAX.961647007 AYTO, , ,CASINOS_BIB@GVA.ES,N,PU,PÚBLICA,N,39.6691153,-0.3394256
674,46,VALENCIA,9,AGENCIA DE LECTURA,AGENCIA DE LECTURA CENTRO BIBLIOGRAFICO MUNICIPAL ALBALAT DELS SORELLS,CALLE DOCTOR VALLS Nº 10,", CP 46135", TELF.677583852-96111145, ,HTTP://WWW.ALBALATDELSSORELLS.NET/INDEX.PHP/ES/CULTURA/BIBLIOTECA-MUNICIPAL-ALBALAT.HTML,HTTP://XLPV.CULT.GVA.ES/CGINET-BIN/ABNETOP?SUBC=0187,ASORELLS_BIB@GVA.ES,N,PU,PÚBLICA,S,39.5436016,-0.3466247
675,46,VALENCIA,90,AGENCIA DE LECTURA,AGENCIA DE LECTURA  CASTELLÓ DE RUGAT,PLAZA DE LA CONSTITUCIO Nº 3,", CP 46841", TELF.962813323, FAX.962814040 AYTO,HTTP://XLPV.CULT.GVA.ES/CGINET-BIN/ABNETOP?SUBC=0147,HTTP://XLPV.CULT.GVA.ES/CGINET-BIN/ABNETOP?SUBC=0147,BIBLIOCASTELLODERUGAT1@YAHOO.ES,N,PU,PÚBLICA,S,38.8397322,-0.1148406
676,46,VALENCIA,903,BIBLIOTECA PUBLICA MUNICIPAL,BIBLIOTECA PUBLICA MUNICIPAL  SAN ANTONIO DE BENAGÉBER,CALLE ALCARAVA Nº 78,", CP 46184", TELF.960918679, , , ,SABJOVE@SABENAGEBER.COM,N,PU,PÚBLICA,S,39.5545465,-0.4985938
677,46,VALENCIA,904,AGENCIA DE LECTURA,AGENCIA DE LECTURA ENRIC VALOR BENICULL DE XÚQUER,CALLE REY JUAN CARLOS I Nº S/N,", CP 46689", TELF.962490174, , , ,BENICULL_BIB@GVA.ES,N,PU,PÚBLICA,N,39.4626603,-0.3279625
678,46,VALENCIA,92,OTRAS PÚBLICAS,OTRAS PÚBLICAS  CASTIELFABIB,CALLE DON ENRIQUE FORNÁS Nº 1,", CP 46141", TELF.978783100 AYTO, FAX.978783129 AYTO, , ,ADL@CASTIELFABIB.ES,N,PU,PÚBLICA,N,40.1308786,-1.3038466
679,46,VALENCIA,93,AGENCIA DE LECTURA,AGENCIA DE LECTURA  CATADAU,CALLE ANTIC REGNE DE VALENCIA Nº S/N,", CP 46196", TELF.962550002 AYTO, FAX.962551090 AYTO, , ,AJUNTAMENT@CATADAU.ES,N,PU,PÚBLICA,N,39.4967451,-0.465484
680,46,VALENCIA,94,BIBLIOTECA PUBLICA MUNICIPAL,BIBLIOTECA PUBLICA MUNICIPAL ENRIC VALOR CATARROJA,CALLE ESTEVE PALUZIE Nº 2,", CP 46470", TELF.978035268, FAX.961270845 AYTO,HTTP://WWW.CATARROJA.ES,HTTP://XLPV.CULT.GVA.ES/CGINET-BIN/ABNETOP?SUBC=0122,BIBLIOTECA@CATARROJA.ES,N,PU,PÚBLICA,S,39.4016229,-0.4042811000000001
681,46,VALENCIA,95,AGENCIA DE LECTURA,AGENCIA DE LECTURA DON LUIS GARCÍA EJARQUE CAUDETE DE LAS FUENTES,CALLE GARCÍA BERLANGA Nº 2,", CP 46315", TELF.962319002 AYTO, FAX.962319026 AYTO, , ,CAUDETE_INF@GVA.ES,N,PU,PÚBLICA,N,39.5673562,-1.2075326
682,46,VALENCIA,97,AGENCIA DE LECTURA,AGENCIA DE LECTURA  COFRENTES,PLAZA DE ESPAÑA Nº 9,", CP 46625", TELF.961894164 AYTO, FAX.961894191 AYTO, , ,COFRENTES@GVA.ES,N,PU,PÚBLICA,N,39.4655807,-0.3814623
683,46,VALENCIA,98,AGENCIA DE LECTURA,AGENCIA DE LECTURA  CORBERA,CALLE BLASCO IBA?EZ Nº 32,", CP 46612", TELF.962561102, FAX.962978049 AYTO,HTTP://BIBLIOTECAPUBLICACORBERA.BLOGSPOT.COM/,HTTP://XLPV.CULT.GVA.ES/CGINET-BIN/ABNETOP?SUBC=0188,CORBERA_BIB@GVA.ES,N,PU,PÚBLICA,S,38.8046343,-0.159713
